,place,address,Latitude,Longitude,k_means_cluster
0,원앤온리,제주특별자치도 서귀포시 안덕면 산방로 141 원앤온리,33.23923,126.3192943,0
1,퍼시픽리솜 더클리프카페&펍,제주특별자치도 서귀포시 중문관광로 154-17,33.2444327,126.4161942,0
2,카페나모나모,제주특별자치도 제주시 도두봉6길 4 1~4층,33.5082095,126.4723209,3
3,울트라마린,제주특별자치도 제주시 한경면 일주서로 4611 지하1층,33.3414039,126.1898997,0
4,드르쿰다in성산,제주특별자치도 서귀포시 성산읍 섭지코지로25번길 64,33.4493736,126.9207077,1
5,유동커피,제주특별자치도 서귀포시 태평로 406-1,33.2444906,126.5638992,2
6,베케,제주특별자치도 서귀포시 효돈로 54,33.262893,126.6129693,2
7,목장카페드르쿰다,제주특별자치도 서귀포시 표선면 번영로 2454,33.4091347,126.7701478,1
8,오르다,제주특별자치도 서귀포시 성산읍 한도로 269-37,33.4657004,126.9360502,1
9,뷰스트,제주특별자치도 서귀포시 안덕면 형제해안로 30,33.2278135,126.303557,0
10,테라로사 서귀포점,제주특별자치도 서귀포시 칠십리로658번길 27-16,33.2482683,126.6165067,2
11,휴일로,제주특별자치도 서귀포시 안덕면 난드르로 49-65,33.2329435,126.3646105,0
12,명월국민학교,제주특별자치도 제주시 한림읍 명월로 48,33.388832,126.2649479,0
13,커피템플,제주특별자치도 제주시 영평길 269 1층,33.478135,126.57017,3
14,카페서연의집,제주특별자치도 서귀포시 남원읍 위미해안로 86,33.2694372,126.6556626,2
15,카페라라라,제주특별자치도 제주시 구좌읍 해맞이해안로 1430 1층,33.5291668,126.8538817,1
16,외도339,제주특별자치도 제주시 일주서로 7345 1층,33.4937566,126.4317907,3
17,아줄레주,제주특별자치도 서귀포시 성산읍 신풍하동로19번길 59 나동,33.3643757,126.8395566,1
18,꽃이피다앤블라썸,제주특별자치도 서귀포시 남성로 136 1층,33.2428254,126.549614,2
19,클랭블루,제주특별자치도 제주시 한경면 한경해안로 552-22,33.3328723,126.1697983,0
20,도렐 제주본점,제주특별자치도 서귀포시 성산읍 동류암로 20 플레이스 Love동 1층,33.4491938,126.9165127,1
21,마틸다,제주특별자치도 제주시 애월읍 고내1길 33 1층,33.4637952,126.3345426,0
22,인그리드,제주특별자치도 제주시 서해안로 64,33.5025176,126.4567455,3
23,카페이피엘 (휴업중),제주특별자치도 서귀포시 남원읍 위미항구로 8,33.2752399,126.6570688,2
24,제주바솔트,제주특별자치도 제주시 가령골3길 6 1층,33.5040956,126.5393078,3
25,카페더콘테나,제주특별자치도 제주시 조천읍 함와로 513,33.5145232,126.6777359,3
26,블랑로쉐,제주특별자치도 제주시 우도면 우도해안길 783,33.5074342,126.954269,1
27,썬셋클리프,제주특별자치도 제주시 애월읍 애월로1길 19-8,33.4618349,126.3110652,0
28,제레미,제주특별자치도 제주시 애월읍 애월로 106-1,33.4644349,126.318555,0
29,섬타르,제주특별자치도 제주시 다랑곶1길 9,33.4875826,126.478266,3
30,커피파인더,제주특별자치도 제주시 서광로32길 20 1층,33.4985811,126.5287567,3
31,쪼끌락,제주특별자치도 제주시 구좌읍 김녕로21길 21,33.5577318,126.7552547,1
32,벙커하우스,제주특별자치도 서귀포시 막숙포로41번길 66 1층,33.2395574,126.5176316,2
33,구좌상회작업실,제주특별자치도 제주시 조천읍 선교로 198-5,33.4855747,126.6988641,1
34,커피스케치,제주특별자치도 서귀포시 안덕면 사계남로216번길 24-32,33.2328609,126.3140629,0
35,마마롱,제주특별자치도 제주시 애월읍 평화로 2783,33.4099645,126.3988615,0
36,쉼표,제주특별자치도 제주시 한림읍 한림로 359,33.3989324,126.2421759,0
37,니모메,제주특별자치도 제주시 일주서로 7335-8,33.4937504,126.4300165,3
38,와토커피,제주특별자치도 서귀포시 대정읍 동일하모로 238,33.2253984,126.256624,0
39,미쿠니,제주특별자치도 제주시 서흘길 41 1층,33.5290689,126.5897026,3
40,브와두스 베이커리카페 연동점,제주특별자치도 제주시 국기로 35,33.4787871,126.4903725,3
41,카페한라산,제주특별자치도 제주시 구좌읍 면수1길 48,33.5247614,126.8629928,1
42,마음에온,제주특별자치도 제주시 칠성로길 29-1,33.514554,126.5260077,3
43,미스틱3도,"제주특별자치도 제주시 1100로 2894-49 1,2층",33.4499537,126.487749,3
44,머문,제주특별자치도 제주시 구좌읍 해맞이해안로 460 2층,33.5291668,126.8538817,1
45,당당,제주특별자치도 제주시 애월읍 중엄안1길 25,33.474404,126.3709944,0
46,본카페 애월,"제주특별자치도 제주시 애월읍 애월해안로 179 1,2층",33.4782235,126.3665625,0
47,허니문하우스,제주특별자치도 서귀포시 칠십리로 228-13,33.2452878,126.5787493,2
48,비브레이브 혁신도시점,제주특별자치도 서귀포시 서호중앙로 85-13 1층,33.2521803,126.5610081,2
49,베메로 bake make roast,제주특별자치도 서귀포시 중문관광로72번길 29-5,33.249826,126.4109614,0
50,오늘은녹차한잔,제주특별자치도 서귀포시 표선면 중산간동로 4772,33.3662211,126.7805125,1
51,모뉴에트,제주특별자치도 제주시 구좌읍 종달동길 23 1층,33.4915561,126.9023175,1
52,호랑호랑,제주특별자치도 서귀포시 성산읍 일출로 86 C동,33.4542884,126.9242718,1
53,카페태희,제주특별자치도 제주시 애월읍 곽지3길 27,33.4493508,126.3044233,0
54,달빛제주,제주특별자치도 제주시 애월읍 애월해안로 929 가동 2층,33.4782235,126.3665625,0
55,모래비,제주특별자치도 제주시 구좌읍 해맞이해안로 462 모래비,33.5291668,126.8538817,1
56,모노클제주,제주특별자치도 서귀포시 남원읍 태위로360번길 30-8,33.2729087,126.6845952,2
57,카페공작소,제주특별자치도 제주시 구좌읍 해맞이해안로 1446,33.5291668,126.8538817,1
58,청춘부부,제주특별자치도 서귀포시 대정읍 추사로38번길 181 1층,33.2658939,126.2791647,0
59,아뜰리에안,제주특별자치도 서귀포시 막숙포로 166,33.2315119,126.5061073,2
60,슬랩,제주특별자치도 제주시 한림읍 한림로 354 2층,33.3947774,126.2416879,0
61,스타벅스 제주용담DT점,제주특별자치도 제주시 서해안로 380 1층,33.5123802,126.4846092,3
62,빠빠라기 신제주점,제주특별자치도 제주시 신광로 45,33.4879855,126.4903506,3
63,두갓,제주특별자치도 제주시 해안마을북길 13-39 1층,33.4646856,126.450972,3
64,그러므로 파트2,제주특별자치도 제주시 수목원길 16-14,33.4683912,126.4860864,3
65,트라인커피,제주특별자치도 제주시 조천읍 와흘상길 32,33.4931604,126.6326534,3
66,카페바나나 함덕점,제주특별자치도 제주시 조천읍 신북로 491-9 3층,33.5430312,126.6627219,3
67,프로젝트064다방,제주특별자치도 제주시 신광로4길 13,33.488771,126.4885917,3
68,앨리스,제주특별자치도 제주시 서광로32길 36-1 2층,33.4975599,126.5296155,3
69,카페콜라,제주특별자치도 제주시 한림읍 일주서로 5857,33.4433127,126.2919686,0
70,카페 동백,제주특별자치도 제주시 조천읍 동백로 68,33.5087927,126.7127298,1
71,스테이위드커피,제주특별자치도 제주시 해안마을5길 29 스테이위드커피,33.4581818,126.4558893,3
72,수마,제주특별자치도 서귀포시 성산읍 일출로 264-6 1층,33.4609256,126.9338721,1
73,그초록,제주특별자치도 제주시 구좌읍 행원로7길 23-16,33.5564111,126.8064452,1
74,카페노티드 제주애월,"제주특별자치도 제주시 애월읍 애월로1길 24-9 1, 2층",33.4632492,126.3097944,0
75,코코티에,제주특별자치도 서귀포시 표선면 표선당포로 21-3 1층,33.3265092,126.8447188,1
76,망고홀릭 제주본점,제주특별자치도 제주시 삼무로5길 2,33.4907171,126.4920409,3
77,다소니,제주특별자치도 제주시 오남로6길 24,33.490672,126.5177399,3
78,요요무문,제주특별자치도 제주시 구좌읍 해맞이해안로 1102 2층,33.5291668,126.8538817,1
79,스타벅스 제주함덕점,제주특별자치도 제주시 조천읍 조함해안로 522,33.5440366,126.6537771,3
80,블루보틀 제주 카페,제주특별자치도 제주시 구좌읍 번영로 2133-30,33.4308303,126.7431198,1
81,1158족욕카페,제주특별자치도 제주시 애월읍 애월해안로 230,33.4782235,126.3665625,0
82,그계절,제주특별자치도 제주시 구좌읍 한동로 119 1동,33.5318164,126.8185803,1
83,텐저린카페,제주특별자치도 서귀포시 이어도로 880,33.240469,126.493008,2
84,말로,제주특별자치도 제주시 조천읍 남조로 1785-12 1층,33.4274625,126.6721849,3
85,마노커피하우스,제주특별자치도 서귀포시 중문상로 97 1층,33.2628002,126.4296655,0
86,서귀피안,제주특별자치도 서귀포시 서호호근로46번길 68,33.2480275,126.5289509,2
87,엘파소,제주특별자치도 서귀포시 안덕면 화순로 191-43 1층,33.2489044,126.3339887,0
88,망고레이 섭지코지점,제주특별자치도 서귀포시 성산읍 신양로 102,33.4364202,126.9206412,1
89,어제보다오늘,제주특별자치도 제주시 서해안로 68 1층,33.5028469,126.4570603,3
90,비마이게스트,제주특별자치도 제주시 한림읍 한림로 406 1층,33.3979874,126.2456107,0
91,카페진정성 종점,제주특별자치도 제주시 서해안로 124 1층,33.5110314,126.4802212,3
92,빽다방베이커리 제주사수점,"제주특별자치도 제주시 서해안로 291-5 1,2층",33.5092672,126.47675,3
93,오늘의바다,제주특별자치도 서귀포시 이어도로 990,33.240469,126.493008,2
94,와랑와랑,제주특별자치도 서귀포시 남원읍 위미중앙로300번길 28,33.2723619,126.676564,2
95,카페그라나다,제주특별자치도 제주시 도공로 86-1,33.5023315,126.466044,3
96,카페리,제주특별자치도 제주시 구좌읍 평대2길 39,33.5339653,126.8396975,1
97,사계생활,제주특별자치도 서귀포시 안덕면 산방로 380,33.2316019,126.2965011,0
98,카페도두,제주특별자치도 제주시 서해안로 342 1층,33.5110314,126.4802212,3
99,스타벅스 성산일출봉점,"제주특별자치도 서귀포시 성산읍 일출로 284-5 1,2층",33.46287,126.9355028,1
100,에스프레소라운지,"제주특별자치도 제주시 한라대학로 1 1,2층",33.4772209,126.476779,3
101,모모제이,제주특별자치도 제주시 인다8길 36-1,33.4829274,126.4841185,3
102,5L2F(오엘이에프),제주특별자치도 제주시 조천읍 와흘상길 30,33.4931604,126.6326534,3
103,서홍정원,제주특별자치도 서귀포시 솜반천로55번길 12-8,33.252599,126.5545059,2
104,스물다섯,제주특별자치도 제주시 다랑곶6길 19 1층,33.4888838,126.4808578,3
105,컴플리트커피 연동점,제주특별자치도 제주시 국기로4길 1,33.4792828,126.4923095,3
106,시루애월,제주특별자치도 제주시 애월읍 하소로 449,33.4426654,126.3918782,0
107,인스밀,제주특별자치도 서귀포시 대정읍 일과대수로27번길 22 1층,33.2385214,126.2293708,0
108,스타벅스 제주노형점,제주특별자치도 제주시 도령로 27,33.4877957,126.4818957,3
109,Pickus 피커스,제주특별자치도 제주시 아연로 444-1 2층,33.474732,126.5277001,3
110,제주설심당 본점,제주특별자치도 제주시 서해안로 504 1층,33.5194453,126.493001,3
111,듀포레,"제주특별자치도 제주시 서해안로 579 1,2층",33.5185294,126.5002822,3
112,ABC베이커리,제주특별자치도 제주시 탑동로 11,33.5169485,126.5234344,3
113,모카다방,제주특별자치도 서귀포시 남원읍 태신해안로 125,33.2921673,126.7614581,2
114,호텔샌드,제주특별자치도 제주시 한림읍 한림로 339,33.3940557,126.2405094,0
115,그리울땐제주,제주특별자치도 서귀포시 남원읍 태신해안로 271 1층,33.2969817,126.763215,1
116,카페블루하우스 올레시장점,제주특별자치도 서귀포시 중앙로 73 1층,33.2511949,126.5611713,2
117,스타벅스 제주칠성점,제주특별자치도 제주시 관덕로 55,33.5133421,126.5253125,3
118,스타벅스 제주송악산점,제주특별자치도 서귀포시 대정읍 형제해안로 322 1~2층,33.2067454,126.2897673,0
119,신산리마을카페,제주특별자치도 서귀포시 성산읍 환해장성로 33,33.4121987,126.9047711,1
120,미엘드세화,제주특별자치도 제주시 구좌읍 해맞이해안로 1464,33.5291668,126.8538817,1
121,동박낭,제주특별자치도 서귀포시 남원읍 태위로 275-2,33.2760352,126.6770034,2
122,윈드스톤,제주특별자치도 제주시 애월읍 광성로 272,33.4603788,126.4361793,3
123,73st,제주특별자치도 제주시 해안마을길 73,33.45695,126.4551451,3
124,풍미독서,제주특별자치도 제주시 구좌읍 세화합전2길 7,33.5137935,126.8591021,1
125,선흘,제주특별자치도 제주시 조천읍 선교로 198,33.4857615,126.6993046,1
126,스타벅스 제주시청점,제주특별자치도 제주시 중앙로 215,33.4814679,126.5411458,3
127,카페유주,제주특별자치도 제주시 한림읍 한림상로 17 1층,33.405404,126.2574231,0
128,달자카페,제주특별자치도 제주시 애월읍 애월해안로 738,33.4782235,126.3665625,0
129,그레이그로브,제주특별자치도 서귀포시 안덕면 형제해안로 70,33.2258451,126.2999006,0
130,바다위에코끼리,제주특별자치도 제주시 한림읍 협재1길 27-6 1층,33.3976864,126.2432576,0
131,바라나시책골목,제주특별자치도 제주시 동한두기길 35-2 1층,33.5162969,126.5153031,3
132,누옥,제주특별자치도 제주시 삼성로5길 21-1,33.508269,126.5287994,3
133,동명정류장,제주특별자치도 제주시 한림읍 동명7길 26 1층,33.3971282,126.2663189,0
134,알마커피제작소,"제주특별자치도 제주시 조천읍 북촌11길 23 1,2층",33.5502072,126.694852,1
135,노바운더리 제주,제주특별자치도 서귀포시 표선면 번영로 2610 1층,33.3726822,126.7971235,1
136,간세라운지,제주특별자치도 제주시 관덕로8길 7-9,33.5125989,126.5243823,3
137,모앙,제주특별자치도 제주시 인다5길 12-4 1층,33.4743053,126.5480714,3
138,회춘 애월점,제주특별자치도 제주시 애월읍 가문동길 80,33.4890946,126.3909279,0
139,서귀피안베이커리,제주특별자치도 서귀포시 성산읍 신양로122번길 17 2층,33.4352867,126.9218661,1
140,디피159,제주특별자치도 서귀포시 대포로 159 1층,33.239494,126.4379472,0
141,스타벅스 제주외도DT점,제주특별자치도 제주시 일주서로 7300,33.3414039,126.1898997,0
142,사일리커피,제주특별자치도 서귀포시 대정읍 최남단해안로 412,33.199919,126.276136,0
143,에이바우트커피 한라대점,"제주특별자치도 제주시 한라대학로 39 1,2층",33.4772209,126.476779,3
144,카카듀,제주특별자치도 제주시 박성내서길 18,33.4912951,126.5418406,3
145,이에르바,제주특별자치도 제주시 조천읍 신촌남1길 33-8 1층,33.5274997,126.6189404,3
146,무로이,제주특별자치도 서귀포시 안덕면 동광본동로 21,33.3077027,126.3367039,0
147,조아찌커피,제주특별자치도 제주시 테우해안로 158 1층,33.4966887,126.4506551,3
148,커피99.9,"제주특별자치도 제주시 1100로 3173 1,2층",33.4561511,126.48637,3
149,롱플레이제주,제주특별자치도 제주시 구좌읍 동복로 44 1층,33.5530939,126.7110103,1
150,너와의첫여행,제주특별자치도 제주시 애월읍 장소로 16,33.4505913,126.3842756,0
151,인카페온더비치,제주특별자치도 제주시 구좌읍 해맞이해안로 943,33.5291668,126.8538817,1
152,바람벽에흰당나귀,제주특별자치도 제주시 구좌읍 동복로 11,33.5538497,126.7076684,1
153,델문도 로스터스,제주특별자치도 제주시 연삼로 316 MS빌딩 1층,33.4917912,126.5263903,3
154,카페희상,제주특별자치도 서귀포시 표선면 표선동서로 324-18,33.3299649,126.838304,1
155,순아,"제주특별자치도 제주시 관덕로 32-1 1,2층",33.5130604,126.5227848,3
156,속솜,"제주특별자치도 제주시 구좌읍 해맞이해안로 1655 1,2층",33.5291668,126.8538817,1
157,카페주비,제주특별자치도 제주시 도리로 84 1층,33.5008197,126.4643053,3
158,그러므로,제주특별자치도 제주시 구남동6길 45,33.4875695,126.5364225,3
159,인디고인디드,제주특별자치도 제주시 애월읍 애월해안로 204 1층,33.4782235,126.3665625,0
160,우호적무관심,제주특별자치도 제주시 한경면 저지12길 103,33.3397466,126.261347,0
161,하라케케,제주특별자치도 서귀포시 속골로 29-10 16호,33.2427503,126.5279492,2
162,카페바르941,제주특별자치도 서귀포시 성산읍 환해장성로 941,33.4349796,126.9163156,1
163,플레이스엉물,제주특별자치도 제주시 구좌읍 종달논길 92 1층,33.4925079,126.898571,1
164,씨리얼,제주특별자치도 제주시 한림읍 명랑로 26 1층,33.414175,126.267655,0
165,오버더윈도우,"제주특별자치도 서귀포시 태평로 379-1 2,3층",33.2452067,126.5614239,2
166,다랑쉬,제주특별자치도 제주시 용문로21길 4,33.508907,126.5094692,3
167,커피주의보,제주특별자치도 제주시 남광로 16,33.4979375,126.5462372,3
168,너븐,제주특별자치도 서귀포시 칠십리로214번길 26,33.2452654,126.5741175,2
169,바램,제주특별자치도 서귀포시 안덕면 신화역사로 611,33.3066927,126.3380858,0
170,말리가,제주특별자치도 제주시 한림읍 협재로 124 1층,33.3870114,126.24897,0
171,시인의집,제주특별자치도 제주시 조천읍 조천3길 27,33.5358808,126.634634,3
172,숑,제주특별자치도 서귀포시 남원읍 공천포로 91,33.2664162,126.6428296,2
173,카페닐스,제주특별자치도 제주시 한림읍 일주서로 5153,33.3933134,126.2559986,0
174,카페유디에이,제주특별자치도 서귀포시 속골로 13-7,33.2407137,126.5272012,2
175,과수원피스,제주특별자치도 제주시 한림읍 한림로 176-2,33.3853659,126.2274654,0
176,먹쿠슬낭여행자카페,제주특별자치도 제주시 오라로 24,33.4980411,126.5070556,3
177,귤꽃다락,제주특별자치도 서귀포시 이어도로1027번길 34,33.2464249,126.5225977,2
178,스타벅스 제주신화월드R점,제주특별자치도 서귀포시 안덕면 신화역사로304번길 38 지하1층 29호,33.3066927,126.3380858,0
179,까미노,제주특별자치도 제주시 애월읍 고하상로 91-12 1층,33.4578738,126.3481467,0
180,스타벅스 제주노형공원점,제주특별자치도 제주시 연북로 12 이레하이텔 101,33.4816856,126.4825392,3
181,카페세바,제주특별자치도 제주시 조천읍 선흘동2길 20-7 1층,33.5133133,126.7061124,1
182,하소로커피,제주특별자치도 제주시 한경면 불그못로 72,33.2955618,126.2179904,0
183,동백정원,제주특별자치도 서귀포시 이어도로343번길 117,33.249632,126.4464808,0
184,카페더라이트,제주특별자치도 서귀포시 성산읍 한도로 269,33.4657004,126.9360502,1
185,색달로망스,제주특별자치도 서귀포시 색달로72번길 1 1층,33.2586095,126.4107015,0
186,카페두가시,제주특별자치도 서귀포시 안덕면 대평감산로 9,33.2354639,126.3667768,0
187,카페2472,제주특별자치도 서귀포시 천제연로 103-15 2층,33.255829,126.4164994,0
188,"오른(orrrn,오알엔)",제주특별자치도 서귀포시 성산읍 해맞이해안로 2714,33.4758294,126.9099122,1
189,살롱드라방,제주특별자치도 제주시 애월읍 하가로 146-9 1층,33.4578708,126.3490061,0
190,노을리카페,제주특별자치도 제주시 애월읍 애월해안로 654,33.4782235,126.3665625,0
191,모찌롱 (휴업중),제주특별자치도 제주시 관덕로6길 12 1층,33.5120593,126.5219935,3
192,카페오드리,제주특별자치도 제주시 한림읍 한창로 1294,33.3569567,126.2974038,0
193,블루모모,제주특별자치도 제주시 고산동산1길 9 1층,33.4976752,126.5323457,3
194,카페훤,"제주특별자치도 제주시 한림읍 협재1길 8 1,2층",33.3961731,126.242583,0
195,카페살레,"제주특별자치도 제주시 우도면 우도해안길 816 1,2층",33.513074,126.957847,1
196,오늘도화창,제주특별자치도 제주시 구좌읍 월정5길 56 1층,33.5551412,126.7950427,1
197,제주몹시,제주특별자치도 제주시 월대1길 10 1층,33.4945285,126.4336524,3
198,카페송키,제주특별자치도 제주시 무근성안길 16 1층,33.5151147,126.520256,3
199,리치망고 애월본점,제주특별자치도 제주시 애월읍 애월해안로 272,33.4782235,126.3665625,0
200,에이바우트커피 신라신성점,제주특별자치도 제주시 노연로 62 신성오피스텔 1층,33.4857368,126.4867585,3
201,위더스트래블 아라점,제주특별자치도 제주시 아라일동 6113-16,33.4261379,126.5626925,3
202,투썸플레이스 제주애월한담점,제주특별자치도 제주시 애월읍 애월로1길 19 지하1~2층,33.4618349,126.3110652,0
203,쉬리니케이크,제주특별자치도 제주시 애월읍 애납로 175 1층,33.4403995,126.3279618,0
204,소보리당로222,제주특별자치도 서귀포시 소보리당로 222,33.2629497,126.3833788,0
205,픽스커피 본점,제주특별자치도 제주시 신설로11길 2 1층,33.4912804,126.5445739,3
206,카페곁에,제주특별자치도 제주시 구좌읍 동복로3길 9 1층,33.5535419,126.7131756,1
207,어니스트밀크 본점,제주특별자치도 서귀포시 성산읍 중산간동로 3147-7,33.4519403,126.8783149,1
208,카페월령,제주특별자치도 제주시 한림읍 월령3길 36 나동 1층,33.3787506,126.2168357,0
209,비자블라썸,제주특별자치도 제주시 구좌읍 비자림로 2244 1층,33.467852,126.7724183,1
210,블루마운틴 4255,제주특별자치도 서귀포시 성산읍 중산간동로 4255,33.4119114,126.8416603,1
211,토끼문,제주특별자치도 제주시 구좌읍 해맞이해안로 456 1~3층,33.5291668,126.8538817,1
212,봉꾸라주,제주특별자치도 서귀포시 신서로48번길 5 1층,33.2531585,126.5097338,2
213,고요새,제주특별자치도 제주시 선사로8길 11,33.5271456,126.5895044,3
214,스타벅스 제주삼화DT점,제주특별자치도 제주시 연삼로 884,33.5011704,126.5402581,3
215,에이바우트커피뷰 하귀포구점,제주특별자치도 제주시 애월읍 하귀12길 21-2,33.4864408,126.408477,3
216,매기의추억,제주특별자치도 제주시 한림읍 한림해안로 595,33.4257892,126.2673117,0
217,카페인사리,제주특별자치도 제주시 구좌읍 일주동로 2806 2동 2층,33.5314441,126.8206181,1
218,카페동경앤책방,제주특별자치도 제주시 애월읍 하귀로 74 2층,33.4813428,126.4049209,3
219,김녕에사는김영훈,제주특별자치도 제주시 구좌읍 김녕로6길 2 1층,33.5542572,126.7464175,1
220,네이처캔버스,제주특별자치도 서귀포시 남원읍 중산간동로 7129,33.2830648,126.6308443,2
221,큐티파이카페,제주특별자치도 제주시 애월읍 애월해안로 610,33.4778706,126.3688144,0
222,고미미,제주특별자치도 제주시 북성로 67 1층,33.515311,126.5177481,3
223,여섯번의보름,제주특별자치도 서귀포시 호근남로5번길 14-5,33.2569606,126.5304828,2
224,쉬어갓,제주특별자치도 서귀포시 성산읍 일주동로 5023 1층,33.3861559,126.8824321,1
225,노론존,제주특별자치도 제주시 도령로 50 2층,33.4884319,126.4841582,3
226,카페어떤오후,제주특별자치도 제주시 애월읍 상가북6길 13 1층,33.4511382,126.3458599,0
227,카페폴린,제주특별자치도 서귀포시 칠십리로 194 1층,33.2458603,126.5913123,2
228,리듬앤브루스,제주특별자치도 제주시 무근성7길 11,33.5138019,126.5198694,3
229,소라의성,제주특별자치도 서귀포시 칠십리로214번길 17-17,33.2451858,126.5770041,2
230,헤이브라더,제주특별자치도 서귀포시 안덕면 형제해안로 72,33.2272202,126.3028716,0
231,스타벅스 제주서해안로DT점,제주특별자치도 제주시 서해안로 624,33.5167857,126.5035553,3
232,카페아오오,"제주특별자치도 서귀포시 성산읍 환해장성로 75 1,2층",33.4121987,126.9047711,1
233,리틀포레스트,제주특별자치도 서귀포시 월평로 15,33.2448621,126.4592692,0
234,카페코지,제주특별자치도 서귀포시 성산읍 한도로 200 2층,33.467855,126.9239401,1
235,트라이브,제주특별자치도 제주시 애월읍 애월로 11,33.4600513,126.3113009,0
236,롱리브,제주특별자치도 제주시 아란3길 13-3 아라지엘지 1층 102호,33.4730594,126.7833092,1
237,카페미와,제주특별자치도 제주시 구좌읍 구좌로 51-1 2층,33.5231921,126.8571638,1
238,다린,제주특별자치도 서귀포시 법환로 11,33.239117,126.5096143,2
239,도바나,제주특별자치도 서귀포시 남원읍 태위로 177,33.2755242,126.6665596,2
240,도을,제주특별자치도 제주시 조천읍 와흘리 125,33.4735321,126.6571882,3
241,60빈스,제주특별자치도 서귀포시 태평로120번길 29-2,33.2415408,126.5367032,2
242,꼬스뗀뇨,제주특별자치도 제주시 구좌읍 해맞이해안로 2080,33.5291668,126.8538817,1
243,오라디오라,제주특별자치도 서귀포시 안덕면 사계로114번길 54-102 2층,33.2424536,126.3049147,0
244,트로피컬하이드어웨이 브런치카페,제주특별자치도 서귀포시 대정읍 형제해안로 284,33.210157,126.2914269,0
245,스테이솔티,제주특별자치도 제주시 구좌읍 해맞이해안로 480-1,33.5291668,126.8538817,1
246,아라파파 북촌점,제주특별자치도 제주시 조천읍 북촌15길 60,33.5512758,126.6966665,1
247,차귀놀,제주특별자치도 제주시 한경면 한경해안로 136 1층,33.3328723,126.1697983,0
248,스타벅스 서귀포올레점,제주특별자치도 서귀포시 중정로 69 동명백화점,33.2483213,126.56384,2
249,코데인커피로스터스,제주특별자치도 서귀포시 안덕면 사계북로 76,33.2355381,126.2966466,0
250,카페빠네띠에,제주특별자치도 제주시 신설로9길 25,33.4943566,126.546782,3
251,단정한까페,제주특별자치도 제주시 서광로28길 54 2층,33.4967947,126.5292529,3
252,우연히그곳,제주특별자치도 제주시 구좌읍 중산간동로 2250 1층,33.4717055,126.7829178,1
253,제주901,제주특별자치도 제주시 1100로 2977-10,33.4525954,126.4861329,3
254,비양놀,제주특별자치도 제주시 한림읍 한림해안로 311,33.4257892,126.2673117,0
255,엘리사,제주특별자치도 제주시 애월읍 가문동상2길 28 1층,33.4853633,126.3906957,0
256,카페루핀,제주특별자치도 서귀포시 대정읍 형제해안로 272 1층,33.210157,126.2914269,0
257,스타벅스 제주에듀시티점,제주특별자치도 서귀포시 대정읍 에듀시티로 36,33.279349,126.2763069,0
258,간이옥돔역 (휴업중),제주특별자치도 서귀포시 남원읍 남태해안로 484,33.2852399,126.7497344,2
259,디뷰,제주특별자치도 제주시 노형7길 9-16,33.4869795,126.4837154,3
260,수카사,제주특별자치도 제주시 구좌읍 행원로9길 11,33.5540841,126.8082228,1
261,꽃향유,제주특별자치도 제주시 애월읍 고하상로 101,33.4466947,126.3539724,0
262,미미슈,제주특별자치도 제주시 애월읍 중산간서로 5534,33.4408533,126.3302239,0
263,하늘꽃카페,제주특별자치도 서귀포시 대정읍 송악관광로 317,33.2164826,126.2768451,0
264,유스커피,제주특별자치도 제주시 구산로 54,33.48433,126.5407264,3
265,거인의정원,제주특별자치도 제주시 대원길 58,33.4718426,126.5353245,3
266,제이아일랜드카페,제주특별자치도 서귀포시 성산읍 환해장성로 69 1층,33.4121987,126.9047711,1
267,이공팔오,제주특별자치도 제주시 조천읍 선교로 185 (선흘리 2085번지),33.4727191,126.7061921,1
268,올디벗구디,제주특별자치도 서귀포시 일주서로 330,33.2529537,126.4735857,2
269,카페갤러리,제주특별자치도 제주시 조천읍 남조로 1717-24,33.42215,126.6753634,3
270,피플카페,제주특별자치도 제주시 조천읍 신촌북3길 58,33.5379267,126.6138836,3
271,카페원웨이,제주특별자치도 제주시 한경면 일주서로 4459-4,33.3414039,126.1898997,0
272,걸어가는늑대들 전이수갤러리,제주특별자치도 제주시 조천읍 조함해안로 556,33.5426397,126.6724147,3
273,하우스레서피 당근케이크,제주특별자치도 제주시 한림읍 일주서로 5892,33.4437646,126.2955203,0
274,애월후식,제주특별자치도 제주시 애월읍 납읍로 21 1층,33.4389732,126.3302631,0
275,레이지박스,제주특별자치도 서귀포시 안덕면 산방로 208,33.2364205,126.3129475,0
276,효은양갱,제주특별자치도 서귀포시 안덕면 덕수회관로 14,33.2529814,126.3150833,0
277,리유니온,제주특별자치도 제주시 신성로13길 32 1층 주차장 왼편,33.4975004,126.5304472,3
278,귤당리,"제주특별자치도 제주시 한경면 일주서로 4492 1,2층",33.3414039,126.1898997,0
279,너는파라다이스길리,제주특별자치도 제주시 구좌읍 월정1길 65,33.5566513,126.7937413,1
280,그루브,제주특별자치도 제주시 한림읍 한림로 333 1~3층,33.3937225,126.240025,0
281,몽그레 월정리점,제주특별자치도 제주시 구좌읍 해맞이해안로 400,33.5291668,126.8538817,1
282,감저,제주특별자치도 서귀포시 대정읍 대한로 22,33.2296929,126.2452997,0
283,메이비,제주특별자치도 서귀포시 이중섭로 34,33.2449997,126.5643448,2
284,카페 제주동네,제주특별자치도 제주시 구좌읍 종달로5길 23,33.4931436,126.8989816,1
285,헬로남생이,제주특별자치도 제주시 조천읍 원당북로 197-20 1층,33.5322844,126.6111251,3
286,탐앤탐스 신제주점,제주특별자치도 제주시 신광로 52 1층,33.4874051,126.4896979,3
287,밀팟제주,제주특별자치도 제주시 원남6길 58 1층,33.4854856,126.5298145,3
288,브릭스제주,제주특별자치도 제주시 구좌읍 김녕로2길 6 1층,33.5546239,126.7430191,1
289,카페소금,제주특별자치도 제주시 애월읍 구엄길 96,33.4825056,126.3761037,0
290,카페갤럭시아,제주특별자치도 서귀포시 안덕면 사계남로216번길 29 카페갤럭시아,33.2335238,126.3105441,0
291,제주 함덕 카페 라라떼커피,제주특별자치도 제주시 조천읍 신북로 494 1층,33.5427858,126.6627084,3
292,꼬라지오,제주특별자치도 서귀포시 일주동로 8777,33.255487,126.5686054,2
293,인터포레스트,"제주특별자치도 제주시 구좌읍 비자림로 1655 인터포레스트빌딩 1,2층",33.4572435,126.7724776,1
294,미리로,제주특별자치도 제주시 테우해안로 136 2층,33.4976154,126.4484832,3
295,컴컴제주,"제주특별자치도 제주시 한림읍 한림로 470 1,2층",33.3989324,126.2421759,0
296,네꼬야티하우스,제주특별자치도 제주시 애월읍 하귀9길 15 1층,33.4826863,126.415916,3
297,스타벅스 신제주이마트점,제주특별자치도 제주시 1100로 3348 이마트신제주점 1층,33.4849039,126.4805169,3
298,카페파람,제주특별자치도 제주시 한경면 한경해안로 470,33.3417993,126.1713215,0
299,공생,제주특별자치도 제주시 천수동로2길 23,33.5082225,126.5433271,3
300,카페마니,제주특별자치도 제주시 구좌읍 해맞이해안로 1112,33.5291668,126.8538817,1
301,카페뚜이,제주특별자치도 제주시 한림읍 협재1길 45 1층,33.3988639,126.2446709,0
302,카페팀블로우,제주특별자치도 제주시 애월읍 애월로 19-3 나동 1층,33.4611359,126.3109056,0
303,히아담,제주특별자치도 제주시 과원로 28 1층,33.4760842,126.4865249,3
304,트라이브 신창점,"제주특별자치도 제주시 한경면 한경해안로 474-22 1, 2층",33.3328723,126.1697983,0
305,커핏,제주특별자치도 서귀포시 칠십리로658번길 27-13,33.2482683,126.6165067,2
306,어반정글그레이밤부,제주특별자치도 제주시 조천읍 일주동로 1611 1층,33.5528776,126.7043663,1
307,슬로보트 아뜰리에,제주특별자치도 제주시 애월읍 하귀2길 46-16,33.4900871,126.4144874,3
308,윤재커피,제주특별자치도 제주시 중앙로12길 1,33.5117995,126.524172,3
309,니나수족욕카페,제주특별자치도 서귀포시 안덕면 대평로 29,33.2365893,126.3639804,0
310,니모스토리,제주특별자치도 제주시 구좌읍 김녕로17길 33-1 1층,33.5582612,126.7541067,1
311,로스트&헤븐,제주특별자치도 제주시 테우해안로 162 1층,33.496738,126.4511395,3
312,카페책자국,제주특별자치도 제주시 구좌읍 종달로1길 117,33.4962618,126.9077399,1
313,꽁떼네도르,제주특별자치도 서귀포시 1100로 219 1층,33.26653,126.4461624,0
314,카페 오놀,제주특별자치도 서귀포시 대포로 174 2층,33.2387544,126.4396458,0
315,식빵가게,제주특별자치도 제주시 월성로10길 1 1층,33.5011685,126.5053189,3
316,토토네,제주특별자치도 제주시 애월읍 하귀10길 49-2 수지빌 1층 102호,33.4892128,126.4106331,3
317,화수목,제주특별자치도 제주시 구좌읍 해맞이해안로 1028 1층,33.5291668,126.8538817,1
318,베터플랫,제주특별자치도 제주시 탑동해안로 74 1층,33.5182319,126.5231737,3
319,안녕토르,제주특별자치도 제주시 조천읍 선진길 7-19 1층,33.4597966,126.7035487,1
320,토끼썸,제주특별자치도 제주시 구좌읍 해맞이해안로 1860,33.5291668,126.8538817,1
321,오후다섯시 두가지착각 조차도,"제주특별자치도 제주시 조천읍 조함해안로 273-37 오후다섯시, 두가지착각, 조차도",33.552116,126.6488475,3
322,카페이시도르,제주특별자치도 제주시 한림읍 금악북로 353 1층,33.3466065,126.3228809,0
323,에이바우트커피 삼무공원점,제주특별자치도 제주시 신광로 20,33.4903817,126.4899625,3
324,관심사,제주특별자치도 제주시 중앙로 77 지하1층,33.5112434,126.5246399,3
325,게우지코지인갤러리 커피하우스,제주특별자치도 서귀포시 보목포로 179,33.2421595,126.6100897,2
326,왓섬,제주특별자치도 제주시 오등4길 3,33.4662446,126.5220176,3
327,페어리제주,제주특별자치도 제주시 구좌읍 해맞이해안로 1486,33.5291668,126.8538817,1
328,폴바셋 제주아라DT점,제주특별자치도 제주시 중앙로 393,33.4814679,126.5411458,3
329,해거름전망대카페,제주특별자치도 제주시 한경면 판포리 1608,33.370031,126.2062628,0
330,주네가네 키친앤카페,제주특별자치도 제주시 구좌읍 행원로7길 23-6,33.5557591,126.8071811,1
331,픽스커피 화북공단점,제주특별자치도 제주시 청풍남8길 55,33.5146341,126.5721755,3
332,술의식물원,제주특별자치도 제주시 구좌읍 중산간동로 2253,33.471814,126.7837769,1
333,88로스터즈,제주특별자치도 제주시 금산5길 35-1 1층,33.5258373,126.563551,3
334,플레이커피랩,제주특별자치도 서귀포시 서문로28번길 2 1층,33.2506032,126.5588932,2
335,오르바,제주특별자치도 서귀포시 보목포로 78,33.2404639,126.6098418,2
336,바미아일랜드,제주특별자치도 제주시 구좌읍 해맞이해안로 474-1 1층,33.5291668,126.8538817,1
337,보라지붕,제주특별자치도 제주시 조천읍 함덕19길 6,33.5407059,126.6702393,3
338,폴바셋 제주용담DT점,제주특별자치도 제주시 서해안로 442-1,33.5173051,126.4876813,3
339,커피가게쉬고가게,제주특별자치도 서귀포시 표선면 민속해안로 593 커피가게쉬고가게,33.3249956,126.8422384,1
340,카페쌀쌀,제주특별자치도 제주시 애월읍 신엄로 51,33.4709336,126.3662776,0
341,초가헌,제주특별자치도 서귀포시 표선면 중산간동로 4628,33.3903275,126.801348,1
342,도리화과,제주특별자치도 제주시 아연로 194 1층,33.4690929,126.5096166,3
343,카페정관헌,제주특별자치도 제주시 박성내서길 6 1층,33.4916956,126.5407923,3
344,간세다리족욕카페,제주특별자치도 서귀포시 중정로 17-1 2층,33.2476634,126.5584532,2
345,잔디공장,제주특별자치도 서귀포시 성산읍 일주동로5154번길 5,33.3774398,126.8733638,1
346,카페사우다드,제주특별자치도 서귀포시 대정읍 하모이삼로51번길 28,33.2255301,126.2536093,0
347,유티피커피,제주특별자치도 제주시 고마로 136 은경빌딩 2층,33.5023525,126.5425731,3
348,제주소담,제주특별자치도 서귀포시 막숙포로 150 2층,33.2359288,126.513206,2
349,우연못,제주특별자치도 제주시 은수길 110 2층,33.4721583,126.4880259,3
350,가파도봄날에,제주특별자치도 서귀포시 대정읍 가파로67번길 47-2,33.1695513,126.2705882,0
351,이스틀리,제주특별자치도 서귀포시 성산읍 산성효자로114번길 131-1 미래동 2층,33.4521356,126.9044579,1
352,블라썸1407,제주특별자치도 제주시 애월읍 고하상로 103,33.4466947,126.3539724,0
353,다카포카페,"제주특별자치도 서귀포시 표선면 표선백사로110번길 6 1, 2층",33.3240444,126.8379141,1
354,카페단단,제주특별자치도 제주시 관덕로4길 1-6,33.5125846,126.5216649,3
355,커피동굴,제주특별자치도 제주시 사라봉길 5 지하1층,33.5146043,126.5392335,3
356,카페지니,제주특별자치도 서귀포시 남원읍 공천포로11번길 19,33.2645182,126.6401524,2
357,레드브라운,제주특별자치도 서귀포시 안덕면 난드르로 49-50 해녀회관 2층,33.2323397,126.3651109,0
358,어글리딜리셔스,제주특별자치도 제주시 구남동2길 19-8,33.488973,126.5359777,3
359,딜레탕트,"제주특별자치도 제주시 조천읍 신북로 144 1,2층",33.5386704,126.6458435,3
360,감따남,제주특별자치도 서귀포시 월산로 16,33.2676632,126.4950848,2
361,종달리746,제주특별자치도 제주시 구좌읍 종달동길 29-9 1층,33.4918685,126.9025761,1
362,해비치불턱,제주특별자치도 서귀포시 표선면 민속해안로 384,33.3125215,126.8374024,1
363,목장카페 밭디,제주특별자치도 서귀포시 표선면 번영로 2486 목장카페 밭디,33.4078627,126.7726233,1
364,리치망고 쇠소깍점,제주특별자치도 서귀포시 쇠소깍로 164,33.254188,126.6213171,2
365,바다는안보여요,제주특별자치도 제주시 구좌읍 종달로5길 31-1,33.4933215,126.8994833,1
366,플라이오조,제주특별자치도 서귀포시 성산읍 오조로85번길 44,33.4613312,126.9136742,1
367,안녕구움,제주특별자치도 제주시 한경면 고산로 49 1층,33.3053522,126.1791699,0
368,나비정원,제주특별자치도 서귀포시 대정읍 신영로 60-7,33.2203773,126.2494072,0
369,아뽀밍고,제주특별자치도 서귀포시 성산읍 일출로 230,33.4599808,126.9307416,1
370,논짓물해수족욕카페,제주특별자치도 서귀포시 논짓물로 13,33.2371582,126.3880769,0
371,페이보리오리,제주특별자치도 서귀포시 효돈순환로 252,33.2568783,126.6172398,2
372,슈가탱크,제주특별자치도 제주시 우도면 우도봉길 41,33.4941516,126.9602943,1
373,할로비치 본점,제주특별자치도 제주시 한경면 녹차분재로 354,33.3244002,126.2558172,0
374,고도,제주특별자치도 제주시 어영길 15 1층,33.5190547,126.4951314,3
375,산노루,제주특별자치도 제주시 한경면 낙원로 32,33.3254783,126.2263325,0
376,팡송,제주특별자치도 서귀포시 남원읍 태위로115번길 1,33.2749246,126.6597614,2
377,초이당,제주특별자치도 서귀포시 남원읍 남태해안로 259,33.2812109,126.7340308,2
378,따소롬,제주특별자치도 제주시 구좌읍 월정1길 72-1 1층,33.5572691,126.7938479,1
379,유람위드북스,제주특별자치도 제주시 한경면 조수동2길 54-36,33.3447148,126.2337887,0
380,카페 세러데이아일랜드,제주특별자치도 서귀포시 남원읍 남한로21번길 28 1층,33.2813103,126.7145293,2
381,무상찻집 (휴업중),제주특별자치도 제주시 서광로5길 10,33.5009806,126.5144369,3
382,소길다방,제주특별자치도 제주시 애월읍 소길2길 45-3 1층,33.43884,126.3794093,0
383,제주몽,제주특별자치도 서귀포시 천제연로 194,33.2532184,126.4272791,0
384,카페을리,제주특별자치도 서귀포시 안덕면 병악로 90,33.2968281,126.3723948,0
385,에이바우트커피 종합청사점,제주특별자치도 제주시 청사로 79 1층,33.4901516,126.5274779,3
386,나이체,제주특별자치도 제주시 아라일동 6106-13,33.4261379,126.5626925,3
387,에이바우트커피 올레시장점,제주특별자치도 서귀포시 중정로62번길 4,33.2473607,126.5629874,2
388,제주기와,제주특별자치도 제주시 애월읍 광령남4길 45-1 1층,33.4512825,126.4253123,3
389,카페 가드니아,제주특별자치도 서귀포시 표선면 표선동서로 151,33.3180304,126.8289451,1
390,헤이피피,제주특별자치도 제주시 한경면 일주서로 4533-3,33.3654338,126.1989556,0
391,카페물결,제주특별자치도 제주시 사라봉동길 108-1,33.5213071,126.545873,3
392,제3공간,제주특별자치도 제주시 연화중길 21 1층,33.4769219,126.4888976,3
393,제대가는길,제주특별자치도 제주시 제주대학로 75-1,33.4597258,126.5585027,3
394,일월선셋비치,제주특별자치도 제주시 애월읍 애월북서길 56-1,33.4662251,126.3107458,0
395,오드랑베이커리,제주특별자치도 제주시 조천읍 조함해안로 552-3 1층,33.5424691,126.6718069,3
396,애월빵공장앤카페,제주특별자치도 제주시 애월읍 금성5길 42-15 1층,33.4478775,126.3012418,0
397,하멜,제주특별자치도 제주시 노형2길 51-3,33.4836386,126.4818486,3
398,빵귿,제주특별자치도 제주시 구남동6길 45-1 1층,33.4875695,126.5364225,3
399,덕인당보리빵,제주특별자치도 제주시 조천읍 신북로 36,33.5321105,126.6187056,3
400,보래드베이커스,제주특별자치도 서귀포시 보목로64번길 178 호텔서귀피안 1층,33.2443245,126.59071,2
401,다니쉬,"제주특별자치도 제주시 조천읍 함덕16길 56 1, 2층",33.5421648,126.6636375,3
402,아베베베이커리,제주특별자치도 제주시 동문로6길 4 1층,33.512635,126.5288514,3
403,해비치호텔앤드리조트 마고,제주특별자치도 서귀포시 표선면 민속해안로 537 1층,33.3234478,126.8447796,1
404,벨룸리조트 카페,제주특별자치도 서귀포시 516로277번길 45,33.2812754,126.5784104,2
405,프랑제리 켄싱턴리조트 중문점,제주특별자치도 서귀포시 중문관광로72번길 29-29 3층,33.2475912,126.4125373,0
406,더벤티 해비치리조트점,제주특별자치도 서귀포시 표선면 민속해안로 577 1층,33.3248304,126.8439441,1
407,호텔샌드,제주특별자치도 제주시 한림읍 한림로 339,33.3940557,126.2405094,0
408,해비치호텔앤드리조트 마고,제주특별자치도 서귀포시 표선면 민속해안로 537 1층,33.3234478,126.8447796,1
409,제주신라호텔 바당,제주특별자치도 서귀포시 중문관광로72번길 75 제주신라호텔 6층,33.2475582,126.4081161,0
410,연돈,제주특별자치도 서귀포시 일주서로 968-10 1층,33.2589317,126.4072788,0
411,숙성도 노형점,제주특별자치도 제주시 원노형로 41,33.4850283,126.4850965,3
412,우진해장국,제주특별자치도 제주시 서사로 11,33.5114884,126.5200864,3
413,고집돌우럭 제주공항점,제주특별자치도 제주시 임항로 30,33.5163432,126.5281752,3
414,고집돌우럭 함덕점,제주특별자치도 제주시 조천읍 신북로 491-9 2층,33.5430312,126.6627219,3
415,색달식당 중문갈치조림구이 본점,제주특별자치도 서귀포시 예래로 255-18 하예동350 색달식당중문본점,33.2451213,126.3852784,0
416,고집돌우럭 중문점,제주특별자치도 서귀포시 일주서로 879 1층,33.2579925,126.4167597,0
417,이춘옥의원조고등어쌈밥,제주특별자치도 제주시 애월읍 일주서로 7213 1층,33.4889528,126.4187075,3
418,제주김만복 본점,제주특별자치도 제주시 오라로 41,33.4968071,126.5111965,3
419,중문수두리보말칼국수,제주특별자치도 서귀포시 천제연로 192 1층,33.2515765,126.4251078,0
420,맛나식당,제주특별자치도 서귀포시 성산읍 동류암로 41,33.4485794,126.9160712,1
421,곰막식당,제주특별자치도 제주시 구좌읍 구좌해안로 64,33.5570179,126.7278068,1
422,춘심이네 본점,제주특별자치도 서귀포시 안덕면 창천중앙로24번길 16,33.2647393,126.3705871,0
423,은희네해장국 본점,제주특별자치도 제주시 고마로13길 8,33.5085228,126.5408037,3
424,착한집,제주특별자치도 제주시 서광로 98,33.4999552,126.5070561,3
425,칠돈가 본점,제주특별자치도 제주시 서천길 1 1층,33.501532,126.5106976,3
426,한림칼국수,제주특별자치도 제주시 한림읍 한림해안로 141,33.4155701,126.2615642,0
427,미영이네식당,제주특별자치도 서귀포시 대정읍 하모항구로 42,33.2176507,126.2499045,0
428,바다를본돼지 제주협재판포본점,제주특별자치도 제주시 한경면 판포1길 16 1층,33.3654583,126.1979731,0
429,더바루시아,제주특별자치도 서귀포시 안덕면 난드르로 49-19,33.2349631,126.363794,0
430,제주김만복 애월점,제주특별자치도 제주시 애월읍 애월해안로 255 2층,33.4782235,126.3665625,0
431,김희선제주몸국,제주특별자치도 제주시 어영길 45-6 1층,33.5185392,126.4981208,3
432,제주오성식당,제주특별자치도 서귀포시 중문관광로 27 2층,33.2487954,126.4198849,0
433,신설오름,제주특별자치도 제주시 고마로17길 2,33.505459,126.5416299,3
434,바다를본돼지 제주서귀포점,제주특별자치도 서귀포시 칠십리로 123 2층,33.2431104,126.5675903,2
435,삼대국수회관 본점,제주특별자치도 제주시 삼성로 41,33.5068926,126.5301142,3
436,제주김만복 동문시장점,제주특별자치도 제주시 북성로 65 1층,33.5156844,126.5208593,3
437,갈치왕 중문점,제주특별자치도 서귀포시 일주서로 1146,33.2646227,126.3908426,0
438,국수마당 본점,제주특별자치도 제주시 삼성로 65,33.5080638,126.5322532,3
439,고이정 본점,제주특별자치도 제주시 애월읍 애월로 6 A동 1층,33.4630969,126.3173357,0
440,상춘재,제주특별자치도 제주시 조천읍 선진길 26 1층,33.4586588,126.7048435,1
441,살아있는해물뚝배기 어마장장,제주특별자치도 제주시 성지로 62,33.5110843,126.5299184,3
442,해왓,제주특별자치도 서귀포시 성산읍 신고로 30-1,33.43851,126.9171019,1
443,당케올레국수,제주특별자치도 서귀포시 표선면 민속해안로 584,33.3229914,126.8248631,1
444,국수바다 본점,제주특별자치도 서귀포시 일주서로 982,33.2584326,126.4353135,0
445,만덕이네,제주특별자치도 서귀포시 표선면 서성일로 16,33.3933279,126.8012316,1
446,원담,제주특별자치도 제주시 동광로1길 13,33.5021631,126.5288339,3
447,일통이반,제주특별자치도 제주시 중앙로2길 25 1층,33.5170648,126.5221484,3
448,큰돈가 중문점,"제주특별자치도 서귀포시 천제연로 89 1,2층",33.2551064,126.4152612,0
449,다정이네 올레시장본점,제주특별자치도 서귀포시 동문로 59-1,33.2494552,126.5669792,2
450,국시트멍,제주특별자치도 제주시 진군길 31-3 1층,33.4793473,126.4813944,3
451,충민정,제주특별자치도 제주시 남성로 26-1,33.5025067,126.5132852,3
452,스시애월,제주특별자치도 제주시 애월읍 애월로9길 50-3,33.4665125,126.3193173,0
453,제주어멍 통갈치,제주특별자치도 제주시 서해안로 372,33.5116588,126.4843053,3
454,솔지식당,제주특별자치도 제주시 월랑로 88,33.4924474,126.4726221,3
455,문개항아리 조천본점,제주특별자치도 제주시 조천읍 조함해안로 217-1,33.5534876,126.6440569,3
456,치저스,제주특별자치도 제주시 구좌읍 비자림로 1785,33.467852,126.7724183,1
457,동해미락,제주특별자치도 서귀포시 칠십리로 133,33.2436722,126.5683032,2
458,해월정,제주특별자치도 제주시 구좌읍 해맞이해안로 2340,33.5291668,126.8538817,1
459,모살물,제주특별자치도 제주시 삼무로3길 14,33.4904731,126.4945135,3
460,제주에가면,제주특별자치도 제주시 탑동로 119 1층,33.5147226,126.5180767,3
461,별돈별 정원점,제주특별자치도 제주시 한경면 고산로8길 21-15 1층,33.3079882,126.1803326,0
462,다가미,제주특별자치도 제주시 도남로 111,33.4904468,126.5287275,3
463,골막식당,제주특별자치도 제주시 천수로 12,33.5024655,126.5384668,3
464,제주김만복김밥 서귀포점,제주특별자치도 서귀포시 월드컵로 117 1층,33.2390498,126.5068234,2
465,고씨네천지국수,제주특별자치도 서귀포시 중앙로79번길 4,33.2517365,126.560833,2
466,올레왕갈치,제주특별자치도 서귀포시 중앙로42번길 9 1층,33.248556,126.5628176,2
467,도토리키친 본점,제주특별자치도 제주시 북성로 59 1층,33.5153851,126.5186671,3
468,산방식당,제주특별자치도 서귀포시 대정읍 하모이삼로 62,33.223395,126.2543017,0
469,연동마라도횟집,제주특별자치도 제주시 신광로8길 3,33.4868335,126.4895539,3
470,뽈살집 제주본점,제주특별자치도 서귀포시 중정로91번길 41 1층,33.2508467,126.5629443,2
471,흑돼지BBQ,제주특별자치도 서귀포시 태평로353번길 7,33.2468281,126.5597385,2
472,산도롱맨도롱,제주특별자치도 제주시 구좌읍 해맞이해안로 2284 1층,33.5291668,126.8538817,1
473,신우성흑돼지,제주특별자치도 서귀포시 중문관광로72번길 29-9,33.2496778,126.4113633,0
474,국수만찬,제주특별자치도 제주시 은남3길 1,33.4871347,126.4955611,3
475,옥만이네,제주특별자치도 제주시 한림읍 한림해안로 160 1층,33.4164432,126.2635216,0
476,훈남횟집,제주특별자치도 제주시 조천읍 함덕13길 7 1층,33.5420803,126.6679293,3
477,은혜전복,제주특별자치도 제주시 애월읍 애월로1길 24-3,33.4624642,126.3102678,0
478,산지해장국,제주특별자치도 제주시 임항로 34 1층,33.5163515,126.5285668,3
479,제주마당,제주특별자치도 제주시 도리로 50 2층,33.5008197,126.4643053,3
480,이금돈지,제주특별자치도 제주시 노연로 143,33.4860864,126.4954286,3
481,효퇴국수,제주특별자치도 제주시 서사로 122-1,33.5015363,126.5196628,3
482,데미안,제주특별자치도 제주시 한경면 고조로 492-15 1층,33.3158471,126.2025732,0
483,부두식당,제주특별자치도 서귀포시 대정읍 하모항구로 62,33.2187678,126.2511222,0
484,돈이랑 본점,제주특별자치도 서귀포시 일주서로 953,33.257733,126.4087182,0
485,바당길,제주특별자치도 제주시 한림읍 한림서길 18,33.4097548,126.2585778,0
486,자리돔횟집,제주특별자치도 서귀포시 동홍동로 7,33.2555395,126.5747673,2
487,소금바치순이네,제주특별자치도 제주시 구좌읍 해맞이해안로 2196,33.5291668,126.8538817,1
488,은희네해장국 서귀포점,제주특별자치도 서귀포시 516로 84,33.3384938,126.61069,2
489,시골길,제주특별자치도 제주시 연동13길 9,33.4888428,126.494786,3
490,복자씨연탄구이,제주특별자치도 서귀포시 성산읍 해맞이해안로 2764,33.4692355,126.9198688,1
491,로빙화,"제주특별자치도 서귀포시 남원읍 남태해안로 13 1, 2층",33.2751317,126.7093291,2
492,은희네해장국 함덕점,제주특별자치도 제주시 조천읍 조함해안로 480,33.5430105,126.6642252,3
493,애월흑돼지 애월그때그집 본점,제주특별자치도 제주시 애월읍 애월해안로 97 1층,33.4782235,126.3665625,0
494,깡촌흑돼지,제주특별자치도 제주시 조천읍 함덕14길 2,33.5412881,126.6671156,3
495,천짓골식당,제주특별자치도 서귀포시 중앙로41번길 4,33.2482417,126.5613677,2
496,바다속고등어쌈밥,제주특별자치도 제주시 애월읍 일주서로 7089,33.4842697,126.4068534,3
497,가시식당,제주특별자치도 서귀포시 표선면 가시로565번길 22,33.3531055,126.7715294,1
498,산지물 본점,제주특별자치도 제주시 임항로 26,33.5162775,126.5275789,3
499,몬스터살롱,제주특별자치도 제주시 애월읍 일주서로 6017,33.4482531,126.3072817,0
500,제주판타스틱버거,제주특별자치도 서귀포시 표선면 토산중앙로15번길 6,33.3084898,126.7790718,1
501,한림칼국수 공항점,제주특별자치도 제주시 광평중길 82,33.4788593,126.4676751,3
502,난드르바당,제주특별자치도 서귀포시 하예하동로16번길 11-1,33.2346331,126.3712777,0
503,갈치요리전문점 만족한상회,제주특별자치도 서귀포시 중문상로 58-5 1층,33.2532837,126.4267136,0
504,남춘식당,제주특별자치도 제주시 청귤로 12,33.4996504,126.5375918,3
505,진아떡집,제주특별자치도 제주시 동문로4길 7-1,33.5123688,126.5284577,3
506,봉순이네흑돼지,제주특별자치도 서귀포시 대정읍 영어도시로 64 1층,33.2798179,126.2737676,0
507,촌촌해녀촌,제주특별자치도 제주시 구좌읍 동복로 35,33.5534723,126.710211,1
508,제주늘봄,제주특별자치도 제주시 고사마루길 6,33.4797692,126.4717107,3
509,제주한라국수,제주특별자치도 서귀포시 천제연로188번길 17,33.2502561,126.4245006,0
510,곱들락,제주특별자치도 제주시 조천읍 함덕18길 19 101호,33.5386457,126.6711623,3
511,태광식당,제주특별자치도 제주시 탑동로 142,33.5126542,126.5187352,3
512,안녕협재씨 제주협재점,제주특별자치도 제주시 한림읍 금능길 12 1층,33.3881374,126.2294884,0
513,은희네해장국 2호점,제주특별자치도 제주시 연북로 178,33.481375,126.5003537,3
514,제주약수터 본점,제주특별자치도 서귀포시 중앙로 35 1층,33.2477094,126.5617231,2
515,오롯,제주특별자치도 제주시 신설로11길 2-10 1층,33.4912804,126.5445739,3
516,장수물식당,제주특별자치도 제주시 연문2길 18,33.491902,126.4986712,3
517,닻,제주특별자치도 제주시 애월읍 하귀2리 2726,33.4860879,126.3921047,0
518,황해식당,제주특별자치도 제주시 우정로 6 1층,33.4923356,126.4307048,3
519,하원가흑돼지,제주특별자치도 서귀포시 이어도로 278,33.240469,126.493008,2
520,정직한돈 본점,제주특별자치도 제주시 애월읍 애월해안로 253,33.4675271,126.339144,0
521,골목,제주특별자치도 제주시 조천읍 함덕7길 6-14,33.5438536,126.6618188,3
522,만월당,제주특별자치도 제주시 구좌읍 월정1길 56 1층,33.5561414,126.7930377,1
523,고등어쌈밥,제주특별자치도 서귀포시 성산읍 섭지코지로25번길 122-5,33.4494963,126.920717,1
524,공천포식당,제주특별자치도 서귀포시 남원읍 공천포로 89,33.2664055,126.6426731,2
525,식당마요네즈,제주특별자치도 제주시 다랑곶3길 18 1층,33.4888858,126.4787446,3
526,순수한둠비,제주특별자치도 제주시 서문로 37-11 1층,33.5111219,126.5145499,3
527,더꽃돈 협재점,제주특별자치도 제주시 한림읍 한림로 366 1층,33.3953254,126.2426345,0
528,부촌,제주특별자치도 서귀포시 성산읍 동류암로 33,33.4489266,126.9170058,1
529,제주본참숯불갈비,제주특별자치도 제주시 원노형남1길 31,33.4840958,126.4838238,3
530,제주순풍 신제주본점,제주특별자치도 제주시 진군남4길 7-8,33.4751419,126.4804727,3
531,제주육대표,제주특별자치도 제주시 일주서로 7895,33.49416,126.490252,3
532,오현돼지불백,제주특별자치도 제주시 성지로 58-2,33.5110174,126.5296752,3
533,대춘해장국 본점,제주특별자치도 제주시 연북로 398 1층,33.4858923,126.518754,3
534,공항흑돼지 시청그때그집,제주특별자치도 제주시 동광로1길 11 1층,33.501931,126.5289562,3
535,미스칠,제주특별자치도 제주시 일주서로 7831 1층,33.4870785,126.4162422,3
536,용두암해촌,제주특별자치도 제주시 서해안로 614,33.5169913,126.5028155,3
537,제주국담,제주특별자치도 제주시 신대로12길 17,33.4885955,126.4947633,3
538,순천미향,제주특별자치도 서귀포시 안덕면 사계남로216번길 24-73,33.2356687,126.3125597,0
539,88버거,제주특별자치도 서귀포시 동문로 63,33.2492549,126.5672067,2
540,돈블랙 서귀포본점,제주특별자치도 서귀포시 서호남로32번길 24,33.2541205,126.560076,2
541,바다를본돼지 제주노형점,제주특별자치도 제주시 정존15길 42 1층,33.4873081,126.476879,3
542,대기정,제주특별자치도 서귀포시 이어도로 41,33.2403093,126.4286681,0
543,산지물 신제주점,제주특별자치도 제주시 신대로10길 53,33.4907865,126.4910735,3
544,코코분식,제주특별자치도 제주시 신성로 104,33.4967757,126.530085,3
545,코코마마 성산점,제주특별자치도 서귀포시 성산읍 일출로 258-11,33.4610216,126.9343367,1
546,가람돌솥밥,제주특별자치도 서귀포시 중문관광로 332,33.2496037,126.431444,0
547,성산일출봉 청운식당,제주특별자치도 서귀포시 성산읍 일출로 285 1층,33.4630532,126.9348949,1
548,제주미담,제주특별자치도 제주시 가령로 19,33.5023425,126.5373625,3
549,큰돈가 본점,제주특별자치도 서귀포시 대정읍 형제해안로 296,33.210157,126.2914269,0
550,재연식당,제주특별자치도 제주시 구좌읍 세화3길 27-2,33.5251868,126.8561005,1
551,문치비,제주특별자치도 서귀포시 신서로32번길 14 1층,33.2533714,126.5056409,2
552,나원회포차,제주특별자치도 서귀포시 동문동로 4,33.2496757,126.5675722,2
553,오가네전복설렁탕 서귀포본점,제주특별자치도 서귀포시 중산간동로 7738,33.2682594,126.589636,2
554,시흥해녀의집,제주특별자치도 서귀포시 성산읍 시흥하동로 114,33.4779795,126.9083492,1
555,도갈비,제주특별자치도 제주시 한라대학로 85 1층,33.4765167,126.479361,3
556,포도원흑돼지,제주특별자치도 제주시 1100로 3155,33.4681983,126.4847601,3
557,낭쿰낭쿰,제주특별자치도 서귀포시 중앙로79번길 4 1층 낭쿰낭쿰,33.2516805,126.5608349,2
558,홍성방,제주특별자치도 서귀포시 대정읍 하모항구로 76,33.220115,126.2517883,0
559,낭뜰에쉼팡,제주특별자치도 제주시 조천읍 남조로 2343,33.4735321,126.6571882,3
560,돈사돈 별관,제주특별자치도 제주시 광평동로 15 1층,33.4816791,126.470795,3
561,잇칸시타,제주특별자치도 제주시 애월읍 신엄안2길 54-1,33.4770905,126.3699554,0
562,형제도식당 본점,제주특별자치도 서귀포시 일주서로 915 형제도식당 본점,33.2584326,126.4353135,0
563,논짓물,제주특별자치도 제주시 신대로12길 41,33.4886496,126.4922457,3
564,정직한돈 협재직영점,제주특별자치도 제주시 한림읍 일주서로 5083 2층,33.389078,126.2504324,0
565,남양수산,제주특별자치도 서귀포시 성산읍 고성동서로56번길 11,33.4501348,126.9142244,1
566,칠돈가 서광직영점,제주특별자치도 서귀포시 안덕면 서광사수동로20번길 27 1층,33.2874033,126.3042052,0
567,램앤블랙 (구.램하우스),제주특별자치도 제주시 조천읍 교래1길 45,33.4362496,126.6736319,3
568,서서방숯불닭갈비,제주특별자치도 제주시 신광로 61 1층,33.486651,126.4903307,3
569,태하횟집,"제주특별자치도 제주시 동한두기길 31-2 1, 2층",33.5166474,126.5152928,3
570,노조미,제주특별자치도 제주시 국기로2길 2-3 1층,33.4795149,126.4903136,3
571,제주예찬,제주특별자치도 제주시 1100로 2997 1층,33.4561511,126.48637,3
572,표선우동가게,제주특별자치도 서귀포시 표선면 표선관정로 105-1,33.3240774,126.8314,1
573,선흘곶,제주특별자치도 제주시 조천읍 동백로 102,33.5081874,126.718049,1
574,돌집식당,제주특별자치도 서귀포시 표선면 서성일로 23,33.3940309,126.8006415,1
575,제주돗,제주특별자치도 제주시 한경면 조수2길 34,33.3324683,126.2311173,0
576,민경이네어등포해녀촌,제주특별자치도 제주시 구좌읍 해맞이해안로 830 1층,33.5291668,126.8538817,1
577,탐라우돈정육식당,제주특별자치도 제주시 다랑곶2길 52 1층,33.4908253,126.4759744,3
578,중문흑돼지천국,제주특별자치도 서귀포시 천제연로 107 중문흑돼지천국,33.254877,126.417186,0
579,솔동산고기국수,제주특별자치도 서귀포시 부두로 23,33.2430043,126.5653506,2
580,김지순의낭푼밥상,제주특별자치도 제주시 연동6길 28,33.483483,126.4890064,3
581,금박돈,제주특별자치도 서귀포시 성산읍 일출로 261 1층,33.4613726,126.9335321,1
582,뚱보아저씨,제주특별자치도 제주시 한경면 중산간서로 3651,33.3306389,126.2554594,0
583,도두반점 제주사수본점,제주특별자치도 제주시 서해안로 317 2층,33.5095328,126.4792906,3
584,형돈,제주특별자치도 제주시 구남로 22 1층,33.4893377,126.5329674,3
585,연미정,제주특별자치도 제주시 구좌읍 세평항로 14,33.5261548,126.8546643,1
586,제주김만복 성산점,제주특별자치도 서귀포시 성산읍 성산등용로17번길 55 성산리치유클래시아 상가 1층 108호,33.4607468,126.9297175,1
587,덕승식당,제주특별자치도 서귀포시 대정읍 하모항구로 66,33.2192451,126.2513444,0
588,백리향,제주특별자치도 제주시 조천읍 신북로 244,33.5370188,126.6385048,3
589,한라전복(본점),제주특별자치도 서귀포시 대정읍 대한로 33 1층,33.2406592,126.2451919,0
590,제갈양,제주특별자치도 제주시 한림읍 한림로 155,33.3989324,126.2421759,0
591,연북로해물탕,제주특별자치도 제주시 연북로 221,33.4858923,126.518754,3
592,짱구분식,제주특별자치도 서귀포시 중동로48번길 3,33.2501459,126.5672963,2
593,만선식당,제주특별자치도 서귀포시 대정읍 하모항구로 44,33.2178539,126.2499284,0
594,인디언키친,제주특별자치도 제주시 애월읍 애원로 191,33.4431304,126.3385993,0
595,산방산초가집,제주특별자치도 서귀포시 안덕면 화순해안로 189,33.2455947,126.3387238,0
596,문개항아리 애월점,제주특별자치도 제주시 애월읍 가문동길 38,33.4857824,126.3925353,0
597,숙성도 중문점,"제주특별자치도 서귀포시 일주서로 966 1,2층",33.2584326,126.4353135,0
598,해심가든,제주특별자치도 서귀포시 천제연로 203-4,33.2519011,126.4266075,0
599,모이세해장국 본점,제주특별자치도 제주시 연북로 221,33.4858923,126.518754,3
600,곤밥2,제주특별자치도 제주시 서부두남길 8,33.5149292,126.5277707,3
601,임금님밥상,제주특별자치도 제주시 오광로 128 1층,33.4849476,126.4609875,3
602,춘미향식당,제주특별자치도 서귀포시 안덕면 산방로 378,33.231437,126.2965741,0
603,제주고집,제주특별자치도 제주시 서해안로 368-10,33.5108295,126.4852691,3
604,제주올래국수,제주특별자치도 제주시 월성로 39,33.5008987,126.506051,3
605,스시도모다찌 제주점,제주특별자치도 제주시 광양8길 1 2층,33.4999781,126.5292507,3
606,옥돔식당,제주특별자치도 서귀포시 대정읍 신영로36번길 62,33.2199418,126.2490877,0
607,돈향기,제주특별자치도 제주시 관덕로15길 30,33.5158029,126.5270908,3
608,제주곰집,제주특별자치도 서귀포시 이어도로 703-4,33.240469,126.493008,2
609,칠돈가 표선직영점,제주특별자치도 서귀포시 표선면 표선당포로 13-1,33.3258601,126.8441421,1
610,순풍해장국 함덕본점,제주특별자치도 제주시 조천읍 신북로 604 1층,33.5386704,126.6458435,3
611,옹포바다횟집,제주특별자치도 제주시 한림읍 옹포1길 24,33.4038406,126.2517757,0
612,범일분식,제주특별자치도 서귀포시 남원읍 태위로 658,33.2784057,126.7170064,2
613,제주곱,제주특별자치도 제주시 신대로16길 42 1층,33.4870195,126.4923138,3
614,커큐민흑돼지,제주특별자치도 서귀포시 성산읍 일출로 84,33.4542884,126.9242718,1
615,글라글라하와이,제주특별자치도 서귀포시 대정읍 하모항구로 70,33.2194985,126.2515431,0
616,짬뽕에취한날,제주특별자치도 제주시 귀아랑2길 4,33.491147,126.4978956,3
617,이스트포레스트,제주특별자치도 제주시 구좌읍 종달로1길 26-1 1층,33.4958799,126.8988279,1
618,더스푼,제주특별자치도 제주시 구남동1길 45 1층,33.4916487,126.5389939,3
619,김녕오라이,제주특별자치도 제주시 구좌읍 김녕로21길 21,33.5577318,126.7552547,1
620,흑돼지패밀리,제주특별자치도 서귀포시 남원읍 중산간동로 6924,33.2882567,126.6510896,2
621,센트로,제주특별자치도 서귀포시 태평로 449 1층,33.2466881,126.56768,2
622,제주해물밥,제주특별자치도 제주시 월대3길 14-6,33.4946999,126.4340183,3
623,성산 갈치조림 순덕이네,제주특별자치도 서귀포시 성산읍 온평서로 48,33.4098171,126.8970456,1
624,섭지코지해녀밥상,제주특별자치도 서귀포시 성산읍 신양로122번길 60-6,33.4357261,126.9175484,1
625,강식당,제주특별자치도 제주시 한림읍 협재1길 30 1층,33.397854,126.2435702,0
626,뚱딴지,제주특별자치도 제주시 애월읍 부룡수길 17,33.4746872,126.3550977,0
627,알동네집,제주특별자치도 제주시 한경면 연명로 543,33.3001516,126.2511949,0
628,중문색달통갈치,제주특별자치도 서귀포시 일주서로 993,33.2584326,126.4353135,0
629,윤옥,제주특별자치도 제주시 구남동2길 19-4 혁진빌 1층,33.4894052,126.5360124,3
630,돈고팡 본점,제주특별자치도 제주시 서해안로 248 1층,33.5089545,126.4722988,3
631,돈카츠서황,제주특별자치도 제주시 애월읍 장소로 205-2 1층,33.4348196,126.3800658,0
632,삼성혈해물탕 1호점,제주특별자치도 제주시 도두항서7길 23 1층,33.5038785,126.4654199,3
633,한라전복 성산본점,제주특별자치도 서귀포시 성산읍 해맞이해안로 2732,33.4709507,126.9170084,1
634,화성식당,제주특별자치도 제주시 일주동로 383,33.521372,126.5860472,3
635,해월정 서귀포점,제주특별자치도 서귀포시 대정읍 형제해안로 262,33.210157,126.2914269,0
636,하하호호 우도본점,제주특별자치도 제주시 우도면 우도해안길 532,33.5208272,126.948574,1
637,어조횟집,제주특별자치도 서귀포시 성산읍 일출로 233,33.460409,126.9308418,1
638,올레마당,제주특별자치도 서귀포시 안덕면 사계남로 224,33.2331477,126.3088244,0
639,서광보말칼국수,제주특별자치도 서귀포시 안덕면 중산간서로 1882,33.2862497,126.3077305,0
640,두툼한고기돈돼지,제주특별자치도 제주시 조천읍 함덕19길 3 1층,33.5410492,126.6698885,3
641,올레삼다정,제주특별자치도 서귀포시 태평로537번길 48,33.2530797,126.569959,2
642,중문그때그집,제주특별자치도 서귀포시 상예로 181-28,33.2628964,126.3899545,0
643,어박사 한림본점,제주특별자치도 제주시 한림읍 한림로 564 1층,33.4076458,126.2581716,0
644,임순이네,제주특별자치도 제주시 애월읍 곽지1길 26-7,33.4488627,126.3042586,0
645,칠돈가 제주공항직영점,제주특별자치도 제주시 신대로 144 1층,33.4844492,126.4959551,3
646,천리식당천리민박,제주특별자치도 제주시 구좌읍 송당6길 30,33.4686317,126.7846454,1
647,꽃가람,제주특별자치도 서귀포시 성산읍 고성동서로 73,33.4509234,126.9150116,1
648,요기소바 본점,제주특별자치도 제주시 원노형6길 3-4 1층,33.4853506,126.483364,3
649,용담밭담,제주특별자치도 제주시 서천길 16 1층,33.501532,126.5106976,3
650,제주오누이,"제주특별자치도 제주시 구좌읍 해맞이해안로 972 1,2층",33.5291668,126.8538817,1
651,성산흑돼지두루치기,제주특별자치도 서귀포시 성산읍 한도로 255,33.4661549,126.9348021,1
652,삼다도횟집 본점,제주특별자치도 제주시 서해안로 572,33.5190034,126.4993699,3
653,귤품은흑돼지 제주공항점,제주특별자치도 제주시 도두항서길 42 2층,33.5063348,126.4640001,3
654,원조마라도짜장면집,제주특별자치도 서귀포시 대정읍 마라로101번길 48,33.1185831,126.2669135,0
655,돈사돈 월정점,제주특별자치도 제주시 구좌읍 한동북1길 29-3 1층,33.5411284,126.8280985,1
656,동복뚝배기,제주특별자치도 제주시 구좌읍 동복로 30-2 1층,33.5532201,126.7123162,1
657,오전열한시,제주특별자치도 서귀포시 상예로 248,33.2667236,126.3944186,0
658,회춘,제주특별자치도 제주시 조천읍 신북로 489 1층,33.5431462,126.6625984,3
659,종달수다뜰,제주특별자치도 제주시 구좌읍 용눈이오름로 8,33.4918686,126.893156,1
660,애월연어,제주특별자치도 제주시 애월읍 하소로 660,33.4256269,126.3957718,0
661,교래흑돼지 본점,제주특별자치도 제주시 조천읍 교래4길 73,33.4236987,126.6750861,3
662,바로족발보쌈,제주특별자치도 제주시 진군1길 25,33.4788623,126.4794115,3
663,도민상회,제주특별자치도 제주시 한림읍 한림로3길 8,33.4132616,126.260303,0
664,뜰에,제주특별자치도 제주시 애월읍 애월로11길 23-1,33.4663286,126.3205148,0
665,제일수산횟집,제주특별자치도 서귀포시 중앙로79번길 8,33.2514372,126.5604451,2
666,삼대전통고기국수,제주특별자치도 제주시 신대로5길 17,33.4929576,126.4986605,3
667,대춘해장국 노형점,제주특별자치도 제주시 원노형로 11 1층,33.4876006,126.4845223,3
668,장모식탁,제주특별자치도 제주시 연신로 51 1층,33.4967502,126.5470327,3
669,수영밥상 본점,제주특별자치도 제주시 우령안1길 29-1 1층,33.4862168,126.4297167,3
670,탐라가든,제주특별자치도 제주시 서사로 51,33.5078115,126.5203642,3
671,달이뜨는식탁,제주특별자치도 제주시 구좌읍 월정1길 14,33.5562274,126.793166,1
672,맨도롱 해장국,제주특별자치도 서귀포시 태평로353번길 11,33.2470831,126.5601903,2
673,섬소나이,제주특별자치도 제주시 우도면 우도해안길 814,33.5074342,126.954269,1
674,제주선채향,제주특별자치도 서귀포시 안덕면 사계남로84번길 6,33.2263368,126.2990704,0
675,흑돼지제주정,제주특별자치도 서귀포시 표선면 민속해안로 577,33.3248304,126.8439441,1
676,참맛나김밥,제주특별자치도 제주시 한라대학로 31 1층,33.4772209,126.476779,3
677,그리운바다 성산포,제주특별자치도 서귀포시 성산읍 성산등용로 94,33.4697602,126.9300546,1
678,담다,제주특별자치도 제주시 한림읍 협재4길 8 1층,33.3939189,126.2417404,0
679,희야국수,제주특별자치도 제주시 다호5길 11 1층,33.5027912,126.4892074,3
680,까망돼지 서귀포점,제주특별자치도 서귀포시 일주동로 8524,33.2551463,126.5775949,2
681,중문신라원,제주특별자치도 서귀포시 법환하로28번길 6,33.2343546,126.5123622,2
682,스시도모다찌 칠성점,제주특별자치도 제주시 관덕로13길 3 1층,33.5134667,126.5258614,3
683,오멍가멍흑돼지 본점,제주특별자치도 제주시 서해안로 272 1층,33.5092575,126.4747946,3
684,흑본오겹 함덕점,제주특별자치도 제주시 조천읍 신북로 454,33.5386704,126.6458435,3
685,선흘방주할머니식당,제주특별자치도 제주시 조천읍 선교로 212,33.4727191,126.7061921,1
686,모메존흑돼지,제주특별자치도 제주시 구좌읍 세화1길 17 1층,33.5253289,126.8544273,1
687,스시권,제주특별자치도 제주시 노형로 401,33.4854144,126.4779779,3
688,영빈횟집,제주특별자치도 서귀포시 칠십리로 129,33.2432869,126.5679629,2
689,용두암오메기떡,제주특별자치도 제주시 용담로7길 6,33.5129348,126.51064,3
690,다미진횟집,제주특별자치도 서귀포시 표선면 민속해안로 578-1,33.3250737,126.8441192,1
691,수복강녕,제주특별자치도 제주시 선덕로3길 40,33.4883918,126.4994484,3
692,오가네 전복설렁탕 함덕점,제주특별자치도 제주시 조천읍 조함해안로 496 2층,33.5440366,126.6537771,3
693,천돈가,제주특별자치도 서귀포시 일주서로 873 1층,33.2584326,126.4353135,0
694,운산식당,제주특별자치도 제주시 북성로 28 1층,33.5159338,126.521961,3
695,만지식당,제주특별자치도 제주시 애월읍 고내로 13-1 1층,33.4632506,126.3389717,0
696,한라축산정육식당,제주특별자치도 제주시 1100로 3128,33.4561511,126.48637,3
697,마마무말가든,제주특별자치도 제주시 아연로 157,33.4723452,126.508143,3
698,용꽈배기,제주특별자치도 제주시 서광로30길 3,33.4999102,126.5270264,3
699,고미,제주특별자치도 서귀포시 서문로 46,33.2492888,126.5575788,2
700,성읍칠십리식당,제주특별자치도 서귀포시 표선면 성읍정의현로 74,33.3892637,126.8012691,1
701,한라산아래첫마을,제주특별자치도 서귀포시 안덕면 산록남로 675,33.3280571,126.366103,0
702,연리지가든,제주특별자치도 제주시 한경면 두조로 190-20 다동 1층,33.3444986,126.2027639,0
703,돌하르방식당 본점,제주특별자치도 제주시 신산로11길 53,33.5100471,126.5387935,3
704,연탄과친한돼지,제주특별자치도 제주시 원노형로 61,33.483166,126.4851235,3
705,함쉐프키친,제주특별자치도 서귀포시 대포중앙로 116,33.2456029,126.4324826,0
706,갈치공장,제주특별자치도 제주시 구좌읍 해맞이해안로 1296,33.5291668,126.8538817,1
707,청파식당횟집,제주특별자치도 제주시 구좌읍 세평항로 12 1층,33.5244994,126.8536448,1
708,해비치호텔앤리조트 제주 이디,제주특별자치도 서귀포시 표선면 민속해안로 537 1층,33.3234478,126.8447796,1
709,캠퍼트리호텔앤리조트 더뷰,제주특별자치도 제주시 해안마을서4길 100,33.4536956,126.4503561,3
710,황가네뚝배기,제주특별자치도 제주시 삼무로11길 24,33.4915586,126.4958537,3
711,씨에스호텔 씨에스다이닝,제주특별자치도 서귀포시 중문관광로 198,33.2429044,126.4204352,0
712,포도호텔 레스토랑,제주특별자치도 서귀포시 안덕면 산록남로 863 1층,33.3053535,126.3937346,0
713,씨에스호텔 카노푸스 다이닝,제주특별자치도 서귀포시 중문관광로 196,33.2435041,126.4198772,0
714,라마다프라자 제주호텔,제주특별자치도 제주시 탑동로 66,33.5185924,126.5175016,3
715,롯데호텔 제주,제주특별자치도 서귀포시 중문관광로72번길 35,33.2485349,126.4103936,0
716,베니키아호텔 제주,제주특별자치도 제주시 애월읍 애월해안로 554-6,33.4776427,126.3629501,0
717,베니키아중문호텔,제주특별자치도 서귀포시 천제연로 166,33.2514008,126.4214938,0
718,호텔더본 제주,제주특별자치도 서귀포시 색달로 18,33.2612696,126.4137248,0
719,서머셋 제주신화월드,제주특별자치도 서귀포시 안덕면 신화역사로304번길 89,33.3066927,126.3380858,0
720,호텔리젠트마린,제주특별자치도 제주시 서부두2길 20,33.5176225,126.5271105,3
721,롯데시티호텔 제주,제주특별자치도 제주시 도령로 83,33.4909762,126.4869677,3
722,해비치호텔앤드리조트 제주,제주특별자치도 서귀포시 표선면 민속해안로 537 1층,33.3234478,126.8447796,1
723,제주부영호텔앤리조트,제주특별자치도 서귀포시 중문관광로 222,33.2487954,126.4198849,0
724,히든클리프호텔&네이쳐,제주특별자치도 서귀포시 예래해안로 542,33.2432264,126.3876102,0
725,호텔 케니 서귀포,제주특별자치도 서귀포시 동문로 42,33.2506274,126.5647149,2
726,코업시티호텔 성산,제주특별자치도 서귀포시 성산읍 성산등용로 28,33.4674924,126.9320111,1
727,오션스위츠 제주호텔,제주특별자치도 제주시 탑동해안로 74,33.5182319,126.5231737,3
728,제주신라호텔,제주특별자치도 서귀포시 중문관광로72번길 75,33.2475582,126.4081161,0
729,파크선샤인제주,제주특별자치도 서귀포시 남성중로 135,33.2542585,126.553507,2
730,위호텔,제주특별자치도 서귀포시 1100로 453-95,33.2862186,126.4442655,0
731,유니호텔 앤 풀빌라,제주특별자치도 제주시 애월읍 애월해안로 656,33.4782235,126.3665625,0
732,코업시티호텔 하버뷰,제주특별자치도 서귀포시 남원읍 태위로 108,33.274626,126.6589942,2
733,토스카나호텔,제주특별자치도 서귀포시 용흥로66번길 158-7,33.2645887,126.4850479,2
734,캠퍼트리 호텔앤리조트,제주특별자치도 제주시 해안마을서4길 100,33.4536956,126.4503561,3
735,리치호텔,제주특별자치도 제주시 애월읍 고내로13길 100,33.4687182,126.3461173,0
736,호텔레오,제주특별자치도 제주시 삼무로 14,33.4898758,126.4908867,3
737,스위트메이서귀포호텔,제주특별자치도 서귀포시 김정문화로27번길 9-1,33.2524649,126.5072896,2
738,스위트호텔 제주점,제주특별자치도 서귀포시 중문관광로72번길 67,33.2493324,126.4083941,0
739,호텔윈스토리,제주특별자치도 서귀포시 중정로 11,33.2479885,126.5623549,2
740,아리아호텔,제주특별자치도 서귀포시 중문관광로 23-1,33.256118,126.414906,0
741,아이진호텔,제주특별자치도 제주시 신대로22길 4,33.4824642,126.4925609,3
742,제주항공우주호텔,제주특별자치도 서귀포시 안덕면 녹차분재로 216,33.2923161,126.2996588,0
743,제주팔레스호텔,제주특별자치도 제주시 탑동로 9,33.5168631,126.5237566,3
744,호텔난타,제주특별자치도 제주시 선돌목동길 56-26,33.4446301,126.5445663,3
745,퍼스트70,제주특별자치도 서귀포시 명동로 46,33.2475894,126.5668712,2
746,유어스호텔,제주특별자치도 서귀포시 천제연로178번길 21,33.2503716,126.4236375,0
747,호텔브릿지 서귀포,제주특별자치도 서귀포시 태평로 436 1~11층,33.245396,126.5668909,2
748,아스타호텔,제주특별자치도 제주시 서사로 129,33.5037539,126.5197792,3
749,브리즈베이호텔,제주특별자치도 서귀포시 성산읍 성산등용로 42,33.4674924,126.9320111,1
750,아시아호텔,제주특별자치도 제주시 노연로 53,33.4858355,126.4888236,3
751,서귀포호텔,제주특별자치도 서귀포시 상예로 319,33.273191,126.3947296,0
752,빠레브호텔,제주특별자치도 서귀포시 김정문화로 15,33.2511409,126.5095568,2
753,호텔휴식 서귀포,제주특별자치도 서귀포시 중앙로71번길 17,33.2504029,126.5595736,2
754,노블피아,제주특별자치도 서귀포시 명동로 46 1층,33.2475894,126.5668712,2
755,제주호텔더엠,제주특별자치도 서귀포시 태평로353번길 14,33.2465959,126.5606779,2
756,제주노블레스관광호텔,제주특별자치도 제주시 월성로4길 19,33.5004485,126.501107,3
757,윈스카이호텔,제주특별자치도 서귀포시 신중남로 17,33.2523487,126.5085052,2
758,벤티모호텔앤레지던스,제주특별자치도 제주시 연삼로 14,33.4934631,126.4938054,3
759,호텔서귀피안,제주특별자치도 서귀포시 보목로64번길 178,33.2410807,126.5938804,2
760,제주샹그릴라호텔앤리조트,제주특별자치도 제주시 해안마을북길 14-6,33.4644646,126.4541427,3
761,호텔앨리스&트렁크,제주특별자치도 제주시 연동12길 4,33.4853318,126.4930596,3
762,하이레지던스,제주특별자치도 제주시 은남1길 46,33.4892043,126.493827,3
763,까사로마호텔,제주특별자치도 서귀포시 태평로 347,33.2467908,126.5581542,2
764,모슬포호텔 1동,제주특별자치도 서귀포시 대정읍 최남단해안로30번길 11,33.2178071,126.2521152,0
765,더스테이센추리호텔,제주특별자치도 제주시 애월읍 일주서로 7113,33.466277,126.3511114,0
766,호텔시드니,제주특별자치도 제주시 애월읍 애월해안로 945,33.4836152,126.3965099,0
767,BK호텔제주,제주특별자치도 서귀포시 칠십리로91번길 12,33.2411078,126.5643,2
768,블룸호텔,제주특별자치도 서귀포시 중문관광로72번길 53,33.2498991,126.4082883,0
769,심스호텔,제주특별자치도 제주시 임항로 249,33.5183479,126.5387193,3
770,디아넥스호텔,제주특별자치도 서귀포시 안덕면 산록남로762번길 71,33.3057651,126.3888509,0
771,티라호텔,제주특별자치도 서귀포시 성산읍 섭지코지로25번길 41,33.4493736,126.9207077,1
772,이스턴호텔 제주,제주특별자치도 서귀포시 서호동 1522-2,33.2784399,126.5169922,2
773,제주갤럭시호텔,제주특별자치도 제주시 남성로 33,33.5061052,126.5164431,3
774,스카이호텔,제주특별자치도 제주시 한림읍 한림로 917,33.3989324,126.2421759,0
775,팜파스호텔 제주,제주특별자치도 제주시 서해안로 368-3,33.5108295,126.4852691,3
776,제주스테이인성산,제주특별자치도 서귀포시 성산읍 신고로 11,33.4404976,126.9157525,1
777,루체빌,제주특별자치도 서귀포시 안덕면 산록남로 786,33.3280571,126.366103,0
778,브릿지레지던스호텔,제주특별자치도 서귀포시 김정문화로 49,33.2511409,126.5095568,2
779,하버호텔,제주특별자치도 제주시 임항로 260 1층,33.5183479,126.5387193,3
780,호텔휴안스테이,제주특별자치도 서귀포시 성산읍 성산중앙로37번길 9,33.4636754,126.9323862,1
781,어반스테이 제주연동,제주특별자치도 제주시 연동6길 5,33.483508,126.4889909,3
782,신신호텔 천지연,제주특별자치도 서귀포시 서문로 42-1,33.2495146,126.5576159,2
783,호텔엘린,제주특별자치도 제주시 은남1길 4,33.4893299,126.4954791,3
784,서귀포KAL호텔,제주특별자치도 서귀포시 칠십리로 242,33.2460024,126.5810125,2
785,에코랜드호텔,제주특별자치도 제주시 조천읍 남조로 1982,33.4487209,126.6758577,3
786,호텔징크,제주특별자치도 서귀포시 중정로 11,33.2479885,126.5623549,2
787,호텔화인 제주,제주특별자치도 서귀포시 칠십리로 87,33.2403247,126.5651122,2
788,피노호텔,제주특별자치도 서귀포시 천지연로29번길 5,33.2410267,126.5632048,2
789,제주썬호텔&카지노,제주특별자치도 제주시 삼무로 67,33.4901102,126.494027,3
790,호텔스카브로,제주특별자치도 서귀포시 예래해안로 15,33.2432264,126.3876102,0
791,이화호텔,제주특별자치도 제주시 도령로 155,33.4909762,126.4869677,3
792,호텔펄리플러스,제주특별자치도 제주시 도두봉2길 2,33.5066951,126.4744285,3
793,르메인호텔,제주특별자치도 제주시 한림읍 한림로 392 선유빌딩 1층,33.3970766,126.244507,0
794,뜨레비호텔,제주특별자치도 제주시 연동7길 8,33.4891722,126.4906668,3
795,글래즈하임호텔,제주특별자치도 서귀포시 이어도로 777,33.240469,126.493008,2
796,일레인호텔,제주특별자치도 서귀포시 일주서로 660,33.2584326,126.4353135,0
797,호텔52,제주특별자치도 서귀포시 대정읍 신영로36번길 35,33.2203802,126.2480036,0
798,라림부띠끄호텔,제주특별자치도 서귀포시 안덕면 대평로 39,33.2363801,126.3646237,0
799,파밀리아호텔,제주특별자치도 서귀포시 대포동서로 63-20,33.241952,126.43797,0
800,하이제주호텔,제주특별자치도 제주시 한림읍 일주서로 5125,33.4095489,126.2638736,0
801,그랜드밀리언스호텔 서귀포,제주특별자치도 서귀포시 서호중앙로 84,33.252101,126.5614011,2
802,오션패밀리호텔,제주특별자치도 제주시 일주서로 7531,33.4952516,126.4510142,3
803,트로피컬하이드어웨이,제주특별자치도 서귀포시 대정읍 형제해안로 284,33.210157,126.2914269,0
804,제주 자몽호텔,제주특별자치도 제주시 한림읍 한림해안로 136,33.4257892,126.2673117,0
805,참피온호텔,제주특별자치도 제주시 남성로 131,33.5091756,126.5194628,3
806,제주해군호텔,제주특별자치도 제주시 해안마을서2길 19,33.4590325,126.448717,3
807,JW메리어트 제주(2022년하반기예정),제주특별자치도 서귀포시 태평로 152,33.247167,126.5510603,2
808,썬랜드호텔,제주특별자치도 제주시 신광로 92,33.4839765,126.4896294,3
809,꼬뜨도르호텔,제주특별자치도 제주시 구좌읍 일주동로 1724,33.5314441,126.8206181,1
810,펠리시아호텔,제주특별자치도 서귀포시 일주동로 9123,33.255487,126.5686054,2
811,블루마운틴호텔,제주특별자치도 서귀포시 성산읍 일출로 297,33.4637856,126.9343976,1
812,라인호텔,제주특별자치도 제주시 동광로 40,33.5022343,126.533247,3
813,호텔B,제주특별자치도 제주시 신대로12길 16,33.4888415,126.4949775,3
814,씨앤호텔,제주특별자치도 제주시 일주서로 7490,33.3414039,126.1898997,0
815,레슬리호텔,제주특별자치도 제주시 광평길 3,33.4810005,126.4687995,3
816,리벤시아풀빌라호텔,제주특별자치도 제주시 한림읍 한림로 33,33.3989324,126.2421759,0
817,해리안호텔,제주특별자치도 서귀포시 천제연로 153,33.2532184,126.4272791,0
818,호텔연,제주특별자치도 서귀포시 솔동산로22번길 17-2,33.2439147,126.5622101,2
819,천지연호텔,제주특별자치도 서귀포시 솔동산로 40,33.2428644,126.563645,2
820,해마호텔,제주특별자치도 제주시 삼무로 28,33.4897057,126.4896117,3
821,더그랜드섬오름 본관,제주특별자치도 서귀포시 막숙포로 114,33.2359288,126.513206,2
822,런호텔,제주특별자치도 서귀포시 태평로431번길 20,33.247538,126.5660362,2
823,메르블루호텔,제주특별자치도 제주시 서해안로 368 1~4층,33.5108295,126.4852691,3
824,파인힐호텔,제주특별자치도 서귀포시 부두로 44,33.241328,126.5644681,2
825,씨클리프호텔제주,제주특별자치도 제주시 애월읍 애월해안로 554-8,33.4776427,126.3629501,0
826,인덱스 제이드림호텔,제주특별자치도 제주시 은남1길 40,33.4894038,126.4916193,3
827,제이뷰호텔,제주특별자치도 서귀포시 중산간서로 935,33.2862497,126.3077305,0
828,베드라디오 도두봉,제주특별자치도 제주시 서해안로 204,33.5110314,126.4802212,3
829,애월비치호텔,제주특별자치도 제주시 애월읍 애월해안로 554-10 1층,33.4776427,126.3629501,0
830,휴스테이 금호,제주특별자치도 서귀포시 성산읍 성산중앙로 30-11,33.4622514,126.9339204,1
831,몽듀호텔,제주특별자치도 제주시 서해안로 382,33.5110314,126.4802212,3
832,르메인호텔 서귀포,제주특별자치도 서귀포시 안덕면 화순로 119 1층,33.2462436,126.333513,0
833,오션블루호텔,제주특별자치도 서귀포시 이어도로 67,33.240469,126.493008,2
834,퓨어스테이,제주특별자치도 제주시 신대로 68,33.4913572,126.4964178,3
835,호텔MCC,제주특별자치도 서귀포시 성산읍 섭지코지로25번길 29,33.4493736,126.9207077,1
836,호텔 스테이인터뷰 제주,제주특별자치도 서귀포시 중문관광로 288,33.2487954,126.4198849,0
837,에이원호텔,제주특별자치도 제주시 사장1길 10,33.4853028,126.4948225,3
838,제주푸른호텔,제주특별자치도 서귀포시 서호동 1524-3,33.2784399,126.5169922,2
839,호텔메이저2,제주특별자치도 제주시 은남4길 40,33.4865654,126.4915932,3
840,엘렌호텔,제주특별자치도 서귀포시 이어도로 152,33.240469,126.493008,2
841,하니크라운호텔,제주특별자치도 제주시 삼성로 10,33.5049614,126.5273789,3
842,호텔펄리,제주특별자치도 제주시 노형로 79,33.4752619,126.4659069,3
843,스탠포드호텔앤리조트 제주,제주특별자치도 제주시 애월읍 애월해안로 408,33.4782235,126.3665625,0
844,스와브호텔,제주특별자치도 서귀포시 서홍로 102,33.2671306,126.5486496,2
845,호텔W 신제주점,제주특별자치도 제주시 은남4길 42,33.4865472,126.4913557,3
846,드림제주호텔,제주특별자치도 서귀포시 대정읍 하모항구로6번길 5,33.2188383,126.250742,0
847,오로라호텔,제주특별자치도 제주시 논세길 51,33.4884026,126.440658,3
848,코너스톤호텔,제주특별자치도 서귀포시 정방로 7-10,33.2476654,126.5684613,2
849,모슬포호텔 3동,제주특별자치도 서귀포시 대정읍 최남단해안로30번길 15,33.2178071,126.2521152,0
850,헤르츠호텔,제주특별자치도 제주시 중앙로 252,33.4973671,126.5312232,3
851,레브호텔,제주특별자치도 제주시 은남1길 15,33.4892043,126.493827,3
852,호텔하루시다,제주특별자치도 서귀포시 안덕면 사계로114번길 130,33.2429832,126.3072495,0
853,오렌지호텔,제주특별자치도 서귀포시 태평로335번길 3,33.2472009,126.5574393,2
854,제주골프호텔,제주특별자치도 제주시 과원북4길 97,33.4810497,126.4920449,3
855,그랜드조선 힐 스위트,제주특별자치도 서귀포시 중문관광로72번길 60,33.2520261,126.40774,0
856,메이저호텔,제주특별자치도 제주시 사장3길 36,33.4830253,126.4911069,3
857,호텔버지니아,제주특별자치도 서귀포시 중정로61번길 31,33.2506312,126.5624735,2
858,모멘토호텔,제주특별자치도 서귀포시 태평로439번길 21,33.2465385,126.5650235,2
859,아이존호텔,제주특별자치도 제주시 신광로4길 18,33.4890384,126.4882686,3
860,호텔홀라인 제주협재점,제주특별자치도 제주시 한림읍 한림로 197,33.3864724,126.2290022,0
861,더퍼스트호텔,제주특별자치도 제주시 한림읍 한림로 695,33.4167607,126.2647613,0
862,씨앤하우스,제주특별자치도 제주시 조천읍 조천9길 10,33.537825,126.6370349,3
863,탐라지오호텔,제주특별자치도 제주시 신광로 79,33.4850171,126.4902396,3
864,샤이니호텔,제주특별자치도 제주시 구좌읍 송당4길 7,33.470568,126.7843365,1
865,엔파제주호텔,제주특별자치도 서귀포시 성산읍 서성일로 726-11,33.4277138,126.8614156,1
866,i마이다스레지던스호텔,제주특별자치도 제주시 조천읍 함덕8길 13-1,33.5422075,126.6624988,3
867,호텔캘리포니아,제주특별자치도 서귀포시 김정문화로27번길 14-4,33.2534005,126.5077541,2
868,제주 The M Hotel,제주특별자치도 제주시 삼도일동 786-3,33.5045831,126.5196185,3
869,탑동호텔,제주특별자치도 제주시 서부두남길 19,33.5158698,126.5275621,3
870,예그린하우스,제주특별자치도 서귀포시 천제연로188번길 15,33.2511531,126.4244682,0
871,뉴크라운호텔,제주특별자치도 제주시 신광로 87,33.4842645,126.4903248,3
872,제주코아호텔,제주특별자치도 제주시 신대로 148,33.4840624,126.4960995,3
873,에메랄드호텔,제주특별자치도 제주시 중앙로12길 35,33.5119556,126.5210126,3
874,파크비치호텔,제주특별자치도 제주시 조천읍 북촌1길 56,33.5485184,126.684776,3
875,제주 필링굿 하우스,제주특별자치도 제주시 구좌읍 선유로 36,33.5390443,126.7374219,1
876,EQ STAY,제주특별자치도 제주시 한림읍 금능남1길 6-1,33.3852495,126.2299802,0
877,바솔트호텔,제주특별자치도 서귀포시 일주서로 809,33.2583693,126.4239193,0
878,위너스호텔,제주특별자치도 제주시 원노형3길 29,33.4864827,126.4829031,3
879,은하호텔,제주특별자치도 서귀포시 중앙로47번길 40,33.2485097,126.5576496,2
880,라이프리버호텔,제주특별자치도 제주시 현사길 45 1~3층,33.4964709,126.4493746,3
881,산방산호텔,제주특별자치도 서귀포시 대정읍 일주서로 2093,33.2402708,126.2507128,0
882,호텔케니모슬포,제주특별자치도 서귀포시 대정읍 하모중앙로 22,33.223495,126.2521277,0
883,제주인관광호텔,제주특별자치도 제주시 신산마을길 20,33.4871538,126.4510864,3
884,마레보비치호텔,제주특별자치도 제주시 애월읍 곽지1길 23,33.4482177,126.3039055,0
885,제주엘루이호텔,제주특별자치도 제주시 서광로21길 1,33.5001908,126.5218918,3
886,신신호텔 서귀포점,제주특별자치도 서귀포시 서귀동 486-1,33.2455472,126.5625707,2
887,코자호텔,제주특별자치도 서귀포시 대정읍 최남단해안로 44,33.2122848,126.2625612,0
888,아인스호스텔,제주특별자치도 서귀포시 태평로 432,33.2454258,126.566501,2
889,아라팰리스호텔,제주특별자치도 제주시 남성로26길 26,33.5071707,126.5237824,3
890,대동호텔,제주특별자치도 제주시 관덕로15길 6,33.5138044,126.5272635,3
891,시티홀호텔,제주특별자치도 제주시 동광로4길 9-4,33.5008332,126.5316414,3
892,오라스테이,제주특별자치도 제주시 무근성길 44,33.5142867,126.5199978,3
893,아루미호텔 협재점,제주특별자치도 제주시 한림읍 한림로 545,33.4063694,126.2564471,0
894,호텔G,제주특별자치도 제주시 남성로 117,33.5090013,126.51793,3
895,성산아쿠아비치호텔,제주특별자치도 서귀포시 성산읍 일주동로 4258,33.4483373,126.9119979,1
896,메종드씨엘하버39 호텔앤리조트,제주특별자치도 서귀포시 천지연로 39,33.2423238,126.5622458,2
897,제주R호텔,제주특별자치도 제주시 서광로14길 5,33.4994236,126.5179716,3
898,트루엘레지던스,제주특별자치도 서귀포시 서귀동 486-1,33.2455472,126.5625707,2
899,마로호스텔,제주특별자치도 제주시 동광로21길 5,33.5097655,126.5422917,3
900,노형호텔,제주특별자치도 제주시 수덕1길 7,33.4861711,126.4777358,3
901,호텔DK,제주특별자치도 서귀포시 중앙로54번길 12,33.2496807,126.5634895,2
902,베누스무인텔,제주특별자치도 제주시 애월읍 유수암평화5길 92,33.424382,126.4051687,0
903,메이플호텔,제주특별자치도 제주시 원노형3길 41,33.4865192,126.4817631,3
904,호텔탑아일랜드,제주특별자치도 제주시 용남1길 47,33.5050015,126.5129304,3
905,르네상스호텔,제주특별자치도 제주시 서사로14길 1,33.5034197,126.5195135,3
906,바다해호텔,제주특별자치도 서귀포시 천지연로 3-1,33.2413301,126.5655131,2
907,신세계호텔,제주특별자치도 서귀포시 중앙로 2-2,33.2447039,126.562385,2
908,늘송파크텔,제주특별자치도 제주시 원노형5길 22,33.4875634,126.483248,3
909,호텔랑주,제주특별자치도 서귀포시 김정문화로27번길 23-3,33.2539331,126.5082261,2
910,에메랄드호텔에이스,제주특별자치도 제주시 오복5길 4,33.4974151,126.5366502,3
911,골든파크호텔,제주특별자치도 제주시 서광로2길 9,33.4992347,126.5130474,3
912,헤라무인텔,제주특별자치도 제주시 애월읍 평화로 2820-67,33.4566025,126.4445171,3
913,제주올레호텔,제주특별자치도 제주시 삼무로5길 8,33.4902565,126.492014,3
914,성산호텔,제주특별자치도 서귀포시 성산읍 성산등용로 8,33.4647524,126.9336962,1
915,이채호텔,제주특별자치도 제주시 은남1길 3,33.4889958,126.495431,3
916,스마트무인텔,제주특별자치도 서귀포시 안덕면 중산간서로 1913-58,33.2862497,126.3077305,0
917,모나코모텔,제주특별자치도 제주시 제원1길 1,33.4891942,126.4892128,3
918,제주스위트호텔,제주특별자치도 제주시 삼무로3길 9,33.4901961,126.494939,3
919,오케이모텔,제주특별자치도 제주시 서광로2길 25,33.4984832,126.513453,3
920,뷰무인텔,제주특별자치도 제주시 애월읍 평화로 2841,33.4099645,126.3988615,0
921,라임모텔,제주특별자치도 제주시 서광로25길 4-3,33.5003275,126.5242881,3
922,꿈의바다,제주특별자치도 제주시 애월읍 신엄9길 65-11,33.4769528,126.3659334,0
923,진모텔,제주특별자치도 서귀포시 중앙로47번길 7-1,33.2485234,126.560774,2
924,풀하우스호텔,제주특별자치도 제주시 서광로25길 4,33.5003275,126.5242881,3
925,초이호스텔제주,제주특별자치도 서귀포시 태평로335번길 11-1,33.246995,126.5585844,2
926,남산모텔,제주특별자치도 제주시 서광로2길 5-6,33.499347,126.5136082,3
927,타기모텔,제주특별자치도 제주시 중앙로5길 12,33.515181,126.5259712,3
928,호텔버킹검,제주특별자치도 제주시 삼무로9길 39,33.4901971,126.4948013,3
929,호호네미니호텔,제주특별자치도 제주시 중앙로2길 11,33.5166608,126.5236503,3
930,찰리호텔,제주특별자치도 제주시 서사로 128,33.5009447,126.5196492,3
931,기린모텔,제주특별자치도 제주시 산지로 1-4,33.5162077,126.5310362,3
932,휴모텔,제주특별자치도 제주시 서광로25길 8,33.5006331,126.5242066,3
933,이아호텔,제주특별자치도 서귀포시 중정로 36,33.2473206,126.5603045,2
934,호텔더레드,제주특별자치도 제주시 동광로6길 10,33.5010293,126.5319039,3
935,벨라유나,제주특별자치도 제주시 조천읍 신북로 621,33.5404303,126.6758249,3
936,소담여관,제주특별자치도 제주시 한림읍 한림로19길 7,33.4170974,126.2640773,0
937,호텔더단잠,제주특별자치도 제주시 은남3길 46,33.4875307,126.4911321,3
938,스타성모텔,제주특별자치도 서귀포시 중앙로71번길 15-4,33.2502396,126.5597995,2
939,한라모텔,제주특별자치도 제주시 한림읍 한림로3길 10-9,33.4138257,126.260539,0
940,글로벌모텔,제주특별자치도 제주시 중앙로1길 14-1,33.5161465,126.5262626,3
941,호텔모닝캄,제주특별자치도 제주시 원노형2길 21,33.4843849,126.4812215,3
942,휴 무인텔,제주특별자치도 제주시 애월읍 평화로 2519,33.4099645,126.3988615,0
943,사쿠라호텔,제주특별자치도 제주시 원노형6길 18,33.4846325,126.4827353,3
944,서사라호텔,제주특별자치도 제주시 서사로 99,33.5034493,126.5201759,3
945,록산모텔,제주특별자치도 서귀포시 중앙로47번길 11,33.2484585,126.5604693,2
946,쌈지모텔,제주특별자치도 제주시 서사로4길 15-1,33.5095659,126.5186996,3
947,한울드라이브인호텔,제주특별자치도 제주시 애월읍 하광로 540-12,33.4437888,126.4311474,3
948,프린스장모텔,제주특별자치도 서귀포시 성산읍 동류암로36번길 2,33.4493406,126.9169157,1
949,비양도모텔,제주특별자치도 제주시 한림읍 한림해안로 134,33.4147539,126.2612805,0
950,탑모텔,제주특별자치도 제주시 중앙로8길 5,33.5147135,126.5241892,3
951,캐피탈모텔,제주특별자치도 제주시 서광로2길 11-11,33.4991344,126.5139272,3
952,제주영성모텔,제주특별자치도 제주시 동문로10길 1,33.5129142,126.5314847,3
953,제주산올레모텔,제주특별자치도 제주시 서광로3길 1,33.5004374,126.5133432,3
954,사모아,제주특별자치도 제주시 임항로 16,33.5163165,126.5266128,3
955,해마루모텔,제주특별자치도 제주시 서광로 159,33.5003034,126.5136016,3
956,남강여관,제주특별자치도 서귀포시 대정읍 최남단해안로 5,33.2200086,126.2524265,0
957,모슬포2호텔,제주특별자치도 서귀포시 대정읍 최남단해안로30번길 13,33.2178071,126.2521152,0
958,월정여관,제주특별자치도 제주시 구좌읍 월정1길 66-3,33.5566189,126.7943028,1
959,글로리스테이,"제주특별자치도 제주시 서광로2길 11-1 2,3층",33.4991707,126.5132701,3
960,오렌지,제주특별자치도 제주시 광양2길 1,33.5008387,126.5277726,3
961,별관모텔,제주특별자치도 제주시 동문로 139,33.5137914,126.5413287,3
962,셀라모텔,제주특별자치도 서귀포시 솔동산로 9-3,33.244043,126.5645718,2
963,조아모텔,제주특별자치도 제주시 서광로2길 11-4,33.4987677,126.5131942,3
964,한두모텔,제주특별자치도 서귀포시 태평로335번길 21,33.2470246,126.5594262,2
965,퀸호텔,제주특별자치도 서귀포시 태평로353번길 22-19,33.245764,126.5614373,2
966,모텔준,제주특별자치도 제주시 서광로26길 8-12,33.4993705,126.5237932,3
967,상하이호텔,제주특별자치도 제주시 은남1길 32,33.489413,126.4925929,3
968,송원모텔,제주특별자치도 서귀포시 천지로 31,33.2503601,126.5604724,2
969,만금장,제주특별자치도 제주시 중앙로15길 6,33.5104849,126.5246173,3
970,미미여관,제주특별자치도 서귀포시 중정로91번길 12-1,33.2495306,126.5657762,2
971,힐링하우스,제주특별자치도 제주시 홍랑길 4-6,33.5002541,126.5238783,3
972,나인하우스,제주특별자치도 제주시 연동6길 5 제주1번가 더테라스,33.4849875,126.4903586,3
973,브라보,제주특별자치도 제주시 산지로 19,33.5152109,126.5296226,3
974,수모텔,제주특별자치도 제주시 광양8길 15,33.4996363,126.5279501,3
975,폭포장모텔,제주특별자치도 서귀포시 천지연로21번길 10,33.2410436,126.5638097,2
976,만복모텔,제주특별자치도 제주시 남성로 129-9,33.5096572,126.5190984,3
977,대정모텔,제주특별자치도 서귀포시 대정읍 상모인성로 276,33.2471656,126.2775201,0
978,너랑나랑게스트하우스,제주특별자치도 서귀포시 안덕면 화순해안로 40,33.2428528,126.332101,0
979,미르빌펜션&리조트,제주특별자치도 서귀포시 안덕면 사계로114번길 87,33.2460023,126.3060521,0
980,에코그린리조트,제주특별자치도 제주시 한림읍 귀덕6길 94,33.4307735,126.2899617,0
981,라임오렌지빌,제주특별자치도 서귀포시 칠십리로 332,33.2462086,126.5873228,2
982,풀빌라소랑,제주특별자치도 제주시 조천읍 곱은달남길 218,33.5026669,126.6713054,3
983,통나무파크,제주특별자치도 제주시 애월읍 도치돌길 293,33.4102422,126.3660337,0
984,엠스테이펜션,제주특별자치도 제주시 구좌읍 해맞이해안로 1481,33.5291668,126.8538817,1
985,편운산장,제주특별자치도 서귀포시 성산읍 서성일로 898-38,33.4374516,126.8751784,1
986,아르츠스파&풀빌라,제주특별자치도 제주시 구좌읍 해맞이해안로 2486-23,33.5291668,126.8538817,1
987,제이라움,제주특별자치도 서귀포시 대정읍 노을해안로 420,33.2568116,126.1997011,0
988,더갤러리펜션,제주특별자치도 제주시 조천읍 남조로 1717-24,33.42215,126.6753634,3
989,아침해변펜션,제주특별자치도 제주시 조천읍 조함해안로 76-9,33.5439418,126.6380689,3
990,보물섬,제주특별자치도 서귀포시 성산읍 한도로242번길 10-11,33.4663543,126.9315713,1
991,제주브릭스,제주특별자치도 서귀포시 태평로 121,33.247167,126.5510603,2
992,드라마2015풀빌라,제주특별자치도 제주시 애월읍 금성5길 42-15 3층,33.4478775,126.3012418,0
993,바다위에펜션,제주특별자치도 제주시 애월읍 일주서로 7219-1,33.4894019,126.419076,3
994,골든비치펜션,제주특별자치도 제주시 서해안로 486-3,33.5186252,126.49125,3
995,호랑호랑펜션,제주특별자치도 서귀포시 성산읍 일출로 86 D동,33.4542884,126.9242718,1
996,표선해비치펜션,"제주특별자치도 서귀포시 표선면 가마행남로 16-1 다미타운하우스 106,109,111동",33.3057187,126.8026626,1
997,은빌레펜션,제주특별자치도 서귀포시 남원읍 의귀리 794,33.3117075,126.7168645,2
998,뭉클펜션,제주특별자치도 제주시 조천읍 북촌북길 17-1,33.548133,126.6906193,3
999,제주에코스위츠,제주특별자치도 서귀포시 중문상로 207-13,33.2696393,126.4289254,0
1000,큐티파이호텔,제주특별자치도 제주시 애월읍 애월해안로 610,33.4778706,126.3688144,0
1001,부티크스테이스놉,제주특별자치도 서귀포시 예래해안로 17,33.2432264,126.3876102,0
1002,해뜨는성펜션,제주특별자치도 서귀포시 성산읍 한도로 267,33.4661446,126.9359092,1
1003,가시리유채꽃길펜션,제주특별자치도 서귀포시 표선면 녹산로 45,33.390274,126.732908,1
1004,제주봄스테이,제주특별자치도 서귀포시 검은여로130번길 68-16,33.2512773,126.5870201,2
1005,나인스파빌,제주특별자치도 제주시 애월읍 하광로 518,33.4621944,126.4227085,3
1006,홍스랜드,제주특별자치도 제주시 애월읍 어음13길 25-45,33.3981204,126.352168,0
1007,코코스펜션,제주특별자치도 제주시 한림읍 협재2길 26,33.3925125,126.24256,0
1008,제주담스파빌,제주특별자치도 제주시 한림읍 한림로 162,33.3989324,126.2421759,0
1009,비앤썬펜션,제주특별자치도 서귀포시 성산읍 환해장성로 929-7,33.4121987,126.9047711,1
1010,빈티지1950카페펜션,제주특별자치도 제주시 구좌읍 덕행로 175-42,33.5164517,126.782871,1
1011,해담은스파빌,제주특별자치도 서귀포시 안덕면 사계북로 157-15,33.2394018,126.3039897,0
1012,조유암펜션,제주특별자치도 서귀포시 안덕면 난드르로21번길 25,33.2338299,126.3669024,0
1013,끄라비펜션,제주특별자치도 서귀포시 토평로148번길 28,33.2819643,126.5917812,2
1014,제주올레돔펜션,제주특별자치도 서귀포시 성산읍 온평포구로54번길 54,33.3985583,126.8986343,1
1015,디오션힐,제주특별자치도 서귀포시 안덕면 사계북로 208,33.2355381,126.2966466,0
1016,뷰티플하우스,제주특별자치도 서귀포시 이어도로253번길 2,33.2437471,126.4467566,0
1017,나디아펜션,제주특별자치도 제주시 애월읍 애원로 74,33.4431304,126.3385993,0
1018,건축학개론펜션,제주특별자치도 서귀포시 성산읍 신풍하동로 224-33,33.3617848,126.8477299,1
1019,W오션펜션,제주특별자치도 서귀포시 대포로 32-4,33.2464178,126.4308947,0
1020,제주솔한옥펜션,제주특별자치도 제주시 애월읍 천덕로 399-92,33.4235532,126.341484,0
1021,마녀의언덕,제주특별자치도 서귀포시 예래해안로 203-1,33.2432264,126.3876102,0
1022,브라운캐빈,제주특별자치도 제주시 애월읍 소길남길 190-40,33.4169117,126.3756972,0
1023,솔펜션,제주특별자치도 제주시 구좌읍 해맞이해안로 2478,33.5291668,126.8538817,1
1024,해바라기펜션,제주특별자치도 서귀포시 표선면 일주동로6285번길 13-12,33.3056563,126.8003194,1
1025,더비비스제주,제주특별자치도 서귀포시 이어도로 760,33.240469,126.493008,2
1026,애월바다향기펜션,제주특별자치도 제주시 애월읍 일주서로 6847,33.466277,126.3511114,0
1027,보우힐리조트&펜션,제주특별자치도 서귀포시 대포연대로 50,33.2412852,126.4299298,0
1028,달토끼펜션,제주특별자치도 제주시 구좌읍 세평항로 45-11,33.5273357,126.8550887,1
1029,감귤향기힐링파크,제주특별자치도 제주시 한경면 두조로 307,33.3430426,126.2096635,0
1030,펜션연리,제주특별자치도 서귀포시 논짓물로48번길 3,33.2404109,126.3863939,0
1031,아모르하우스,제주특별자치도 제주시 구좌읍 해맞이해안로 2060-18,33.5291668,126.8538817,1
1032,제이앤클로이,제주특별자치도 서귀포시 대정읍 무릉중앙로 203,33.2694453,126.1994878,0
1033,중문통나무펜션&리조트,제주특별자치도 서귀포시 중산간서로594번길 7-8,33.2633327,126.4510473,0
1034,게우지코지펜션,제주특별자치도 서귀포시 보목포로 177,33.2421595,126.6100897,2
1035,마린포트리조트,제주특별자치도 서귀포시 이어도로 744,33.240469,126.493008,2
1036,지미안펜션,제주특별자치도 제주시 구좌읍 종달로1길 91-22,33.4958871,126.9055364,1
1037,제주아비앙또,제주특별자치도 서귀포시 성산읍 병문로 130,33.4592762,126.9012432,1
1038,제주파도소리펜션,제주특별자치도 제주시 구좌읍 해맞이해안로 1950,33.5291668,126.8538817,1
1039,제주팜파스펜션,제주특별자치도 제주시 조천읍 교래1길 41-12,33.4361058,126.6739309,3
1040,푸르다오션펜션,제주특별자치도 제주시 한림읍 월령3길 39-5,33.379157,126.2168274,0
1041,낭만제주펜션,제주특별자치도 제주시 도두5길 23,33.5047017,126.4723574,3
1042,돈내코펜션,제주특별자치도 서귀포시 돈내코로67번길 30,33.2961745,126.5872574,2
1043,한담풍경하우스,제주특별자치도 제주시 애월읍 애월로 6,33.4630969,126.3173357,0
1044,로그밸리펜션,제주특별자치도 제주시 애월읍 소길남길 190-19,33.4169117,126.3756972,0
1045,함덕서우재,제주특별자치도 제주시 조천읍 평사길 19,33.5437998,126.6739948,3
1046,쉬멍놀멍,제주특별자치도 제주시 한림읍 협재2길 30,33.3925015,126.2428009,0
1047,북촌플레이스,제주특별자치도 제주시 조천읍 일주동로 1437,33.5393114,126.6638893,3
1048,해와돌바라기 펜션,제주특별자치도 서귀포시 쇠소깍로 209,33.254188,126.6213171,2
1049,이루다펜션,제주특별자치도 서귀포시 대정읍 평화로 225,33.2611736,126.2910361,0
1050,스타하우스,제주특별자치도 제주시 애월읍 하광로 540-66,33.4411527,126.4288763,3
1051,큰엉해올레펜션,제주특별자치도 서귀포시 남원읍 태위로510번길 31-8,33.2720576,126.7001146,2
1052,오션하우스,제주특별자치도 서귀포시 안덕면 사계남로216번길 42,33.2347618,126.3100431,0
1053,쥬디스펜션,제주특별자치도 제주시 현사안길 40,33.4965477,126.4507695,3
1054,고내1101,제주특별자치도 제주시 애월읍 애월해안로 246,33.4782235,126.3665625,0
1055,제주다모르,제주특별자치도 서귀포시 성산읍 오조로 149-33,33.4648822,126.910567,1
1056,솔라시도펜션,제주특별자치도 서귀포시 막숙포로 83,33.2343512,126.5134198,2
1057,화이트캐슬펜션,제주특별자치도 서귀포시 이어도로 1060,33.2456917,126.5241798,2
1058,성산해맞이펜션,제주특별자치도 서귀포시 성산읍 한도로242번길 10-9,33.4662562,126.9322212,1
1059,월령코지펜션,제주특별자치도 제주시 한림읍 월령3길 39-22,33.380458,126.2155168,0
1060,뽀요요펜션카페,제주특별자치도 제주시 우도면 우도해안길 128,33.4942494,126.9467981,1
1061,올레하우스펜션 본관,제주특별자치도 서귀포시 안덕면 사계북로41번길 188-14,33.2450192,126.2983614,0
1062,제주펜션오다,제주특별자치도 제주시 서해안로 452,33.51774,126.4878545,3
1063,해모랏펜션,제주특별자치도 서귀포시 성산읍 환해장성로 803,33.4121987,126.9047711,1
1064,더썸펜션,제주특별자치도 서귀포시 성산읍 난고로42번길 110,33.4433216,126.9065691,1
1065,늘바다통나무펜션,제주특별자치도 서귀포시 안덕면 대평로 38,33.237247,126.3636731,0
1066,646미터퍼세크,"제주특별자치도 제주시 한경면 일주서로 4469 1,2,3층",33.3414039,126.1898997,0
1067,노인과바다펜션,제주특별자치도 서귀포시 남원읍 남태해안로 11-12,33.275126,126.7100827,2
1068,조이랜드,제주특별자치도 제주시 애월읍 애원로 116-5,33.4547384,126.3251781,0
1069,씨에나펜션,제주특별자치도 서귀포시 예래로 267,33.2421162,126.3858015,0
1070,달빛바다펜션,제주특별자치도 제주시 어영길 64-12,33.5182347,126.4960844,3
1071,보름펜션,제주특별자치도 서귀포시 대정읍 상모와우로 64-8,33.2232473,126.2746649,0
1072,귤한가,제주특별자치도 제주시 한림읍 명월성로 234-1,33.3768233,126.2607583,0
1073,라비아펜션,제주특별자치도 서귀포시 일주서로43번길 8-2,33.2514296,126.5041685,2
1074,제주삼다호스텔펜션,제주특별자치도 제주시 서해안로 456-6,33.5179776,126.488268,3
1075,제주올레로,제주특별자치도 제주시 일주서로 7335-1,33.4937504,126.4300165,3
1076,플라이진하우스,제주특별자치도 제주시 구좌읍 김녕항1길 22,33.5571253,126.7452787,1
1077,해변산책,제주특별자치도 제주시 애월읍 곽지9길 7,33.4519929,126.308092,0
1078,바다풍경펜션,제주특별자치도 제주시 애월읍 애월해안로 923,33.4839152,126.3939136,0
1079,바다그리기,제주특별자치도 제주시 한림읍 옹포2길 16,33.399358,126.2500953,0
1080,룸엣155,제주특별자치도 서귀포시 남원읍 태신해안로 245-8,33.3005878,126.7674646,1
1081,바닷가하우스펜션,제주특별자치도 서귀포시 대정읍 형제해안로 254,33.2122165,126.2921599,0
1082,타워펜션,제주특별자치도 제주시 용두암길 2,33.5145621,126.5109318,3
1083,그랑빌펜션,제주특별자치도 서귀포시 중문관광로 17,33.25639,126.4151672,0
1084,밧돌펜션하우스,제주특별자치도 제주시 구좌읍 비자림로 1771,33.467852,126.7724183,1
1085,제주행복스케치펜션,제주특별자치도 서귀포시 예래로68번길 44-31,33.2587944,126.4014961,0
1086,성산우리집펜션,제주특별자치도 서귀포시 성산읍 한도로255번길 9,33.467061,126.9350063,1
1087,제주그린나래,제주특별자치도 서귀포시 성산읍 서성일로 615,33.4278422,126.8508998,1
1088,웨스티하우스,제주특별자치도 서귀포시 안덕면 일주서로1488번길 9,33.260905,126.3568076,0
1089,소담펜션,제주특별자치도 서귀포시 막숙포로 146,33.2359288,126.513206,2
1090,두리안펜션,제주특별자치도 서귀포시 남원읍 태위로 551-3,33.2759215,126.7057667,2
1091,제주애월풀빌라,제주특별자치도 제주시 애월읍 중산간서로 5409 1층,33.4470046,126.3747347,0
1092,서문레지던스,제주특별자치도 제주시 서문로4길 16-8,33.5104636,126.5175467,3
1093,애월해안누리펜션,제주특별자치도 제주시 애월읍 애월해안로 298 B동,33.4704594,126.3416719,0
1094,별빛두방울펜션,제주특별자치도 제주시 한림읍 협재10길 33-6,33.3983225,126.2470561,0
1095,반하크라펜션,제주특별자치도 제주시 명림로 61,33.4629574,126.6161368,3
1096,캠프해리,제주특별자치도 제주시 구좌읍 세송로 623-1,33.4998219,126.8364269,1
1097,오렌지슈가펜션,제주특별자치도 제주시 애월읍 신상로 258,33.4494851,126.366594,0
1098,삼일삼오,제주특별자치도 제주시 구좌읍 해맞이해안로 1542-4,33.5291668,126.8538817,1
1099,자멍펜션,제주특별자치도 제주시 구좌읍 해맞이해안로 2286-2,33.5291668,126.8538817,1
1100,루나마르풀리조트,제주특별자치도 제주시 구좌읍 월정1길 34,33.5562274,126.793166,1
1101,보롬코지펜션,제주특별자치도 제주시 구좌읍 해맞이해안로 402,33.5291668,126.8538817,1
1102,소울펜션,제주특별자치도 서귀포시 예래로 210-6,33.2452714,126.3912767,0
1103,풀스토리풀빌라,제주특별자치도 제주시 구좌읍 월정중길 12,33.558165,126.7931872,1
1104,벨루가,제주특별자치도 서귀포시 대정읍 영락하동로85번길 41-1,33.2520487,126.2025572,0
1105,허브인휴양펜션,제주특별자치도 제주시 한림읍 귀덕6길 92-17,33.4356437,126.2902931,0
1106,씨에코비치,제주특별자치도 제주시 조천읍 신흥관전길 89-5,33.5481907,126.6472622,3
1107,제주다온재,제주특별자치도 서귀포시 성산읍 산성효자로114번길 125-10,33.4521356,126.9044579,1
1108,세도나중문풀빌라,제주특별자치도 서귀포시 색달중앙로121번길 77,33.2647931,126.4082394,0
1109,대정펜션,제주특별자치도 서귀포시 대정읍 하모백사로 29,33.2146551,126.2592212,0
1110,고스트하우스,제주특별자치도 제주시 애월읍 부룡수길 35-12,33.4749472,126.3553798,0
1111,서귀포귤림성,제주특별자치도 서귀포시 일주동로 8941,33.2504829,126.5367012,2
1112,금단영펜션,제주특별자치도 제주시 한경면 일주서로 4466,33.3414039,126.1898997,0
1113,섯동네펜션,제주특별자치도 제주시 구좌읍 월정중길 55,33.558165,126.7931872,1
1114,팜스빌리지,제주특별자치도 제주시 한림읍 귀덕7길 17 1~3층,33.4430396,126.2848544,0
1115,우도피아펜션,제주특별자치도 제주시 우도면 영일진사길 51-40,33.5063957,126.9604218,1
1116,제주빌레성통나무휴양펜션,제주특별자치도 서귀포시 성산읍 온평포구로 42,33.4016122,126.8994391,1
1117,스테이빌펜션,제주특별자치도 서귀포시 태평로92번길 22,33.2419086,126.5321557,2
1118,산방산에펜션,제주특별자치도 서귀포시 안덕면 사계북로41번길 151,33.2463108,126.2970216,0
1119,초록마을펜션,제주특별자치도 제주시 조천읍 와흘로 372,33.4731044,126.6449005,3
1120,바다아리,제주특별자치도 제주시 한림읍 한림로 361,33.3953897,126.2422086,0
1121,카스빌리지,제주특별자치도 제주시 한림읍 협재남2길 105-24,33.3781756,126.2447681,0
1122,제주가좋아서,제주특별자치도 제주시 구좌읍 비자림로 1569,33.467852,126.7724183,1
1123,제니빌펜션,제주특별자치도 서귀포시 남원읍 태위로 604-15,33.2764638,126.7124943,2
1124,스테리나잇제주펜션,제주특별자치도 제주시 애월읍 애월로 37,33.4630969,126.3173357,0
1125,선양빌리지돔,제주특별자치도 제주시 조천읍 와흘로 350,33.4745476,126.6437279,3
1126,미소가펜션,제주특별자치도 서귀포시 남원읍 태위로44번길 2-1,33.2738854,126.6532488,2
1127,다몰펜션,제주특별자치도 제주시 조천읍 함덕27길 32-8,33.5420322,126.6726878,3
1128,블루마운틴커피랜드&리조트,제주특별자치도 서귀포시 성산읍 중산간동로 4255,33.4119114,126.8416603,1
1129,키아오라리조트,제주특별자치도 서귀포시 성산읍 난고로42번길 3,33.4342204,126.9050229,1
1130,비치펜션,제주특별자치도 제주시 애월읍 애월해안로 384-12,33.471894,126.3495201,0
1131,레드클레이펜션,제주특별자치도 제주시 애월읍 신상로 266,33.4561281,126.3655302,0
1132,엔게디하우스,제주특별자치도 제주시 한림읍 협재3길 9,33.3983745,126.2444051,0
1133,금오름가는길,제주특별자치도 제주시 한림읍 한창로 1244-9,33.3497668,126.3055719,0
1134,돌담에꽃머무는집,제주특별자치도 서귀포시 안덕면 대평로 46,33.237762,126.362801,0
1135,제주혼디펜션,제주특별자치도 제주시 애월읍 신엄안3길 20,33.4742823,126.3646948,0
1136,성산아침노을펜션,제주특별자치도 서귀포시 성산읍 한도로255번길 14-1,33.4667192,126.9350943,1
1137,산방산탄산온천펜션,제주특별자치도 서귀포시 안덕면 사계북로41번길 192,33.2481936,126.2989561,0
1138,랑데뷰펜션,제주특별자치도 제주시 애월읍 애월해안로 470,33.4774578,126.3547689,0
1139,바다랑파도랑펜션,제주특별자치도 서귀포시 남원읍 태위로 594-10,33.280681,126.707391,2
1140,위미향펜션,제주특별자치도 서귀포시 남원읍 위미중앙로246번길 10,33.2718048,126.6693167,2
1141,귤낭하우스,제주특별자치도 서귀포시 이어도로 1028-12 D동,33.2433387,126.5219919,2
1142,코이노니아펜션,제주특별자치도 제주시 한림읍 금능6길 19,33.3886234,126.2312724,0
1143,서귀포 탐라도다펜션,제주특별자치도 서귀포시 안덕면 신화역사로682번길 17,33.3066927,126.3380858,0
1144,여누스테이,제주특별자치도 제주시 조천읍 남조로 1842 1~3층,33.4845921,126.6554822,3
1145,로그맨하우스,제주특별자치도 제주시 애월읍 소길남길 179,33.4192072,126.3757791,0
1146,제주무지개하우스,제주특별자치도 제주시 조천읍 평사길 8-6,33.5432186,126.6731025,3
1147,비울채울펜션,제주특별자치도 서귀포시 검은여로130번길 73,33.2493403,126.5895826,2
1148,유명펜션,제주특별자치도 서귀포시 표선면 일주동로 5756-39,33.3375159,126.8357825,1
1149,푸르미르,제주특별자치도 서귀포시 성산읍 한도로 207,33.467855,126.9239401,1
1150,풀스테이바르,제주특별자치도 제주시 구좌읍 해맞이해안로 1248,33.5291668,126.8538817,1
1151,커먼스테이,제주특별자치도 서귀포시 안덕면 대평로 21,33.2363801,126.3646237,0
1152,누가빌리지펜션,제주특별자치도 서귀포시 산록남로 2704,33.2967775,126.5733036,2
1153,뜨레피아펜션,제주특별자치도 서귀포시 월평하원로 111,33.2493289,126.4589332,0
1154,CS빌리지,제주특별자치도 제주시 애월읍 애월해안로 532-7,33.4784515,126.3603637,0
1155,소풍이야기펜션,제주특별자치도 제주시 애월읍 애월해안로 832,33.4782235,126.3665625,0
1156,스테이아하,제주특별자치도 제주시 한림읍 옹포남2길 43,33.400389,126.2552591,0
1157,비자림힐링펜션,제주특별자치도 제주시 구좌읍 다랑쉬북로 68-35,33.4845806,126.8321006,1
1158,젠틀리조트,제주특별자치도 제주시 한경면 일주서로 4010-2,33.3414039,126.1898997,0
1159,파라펜션,제주특별자치도 제주시 애월읍 애월해안로 748,33.4782235,126.3665625,0
1160,춤추는달,제주특별자치도 서귀포시 중문상로 230-6,33.2678259,126.4312514,0
1161,설렘펜션,제주특별자치도 제주시 애월읍 곽지9길 9,33.4516873,126.3076611,0
1162,포에마,제주특별자치도 제주시 한림읍 명월로 13,33.3805815,126.2726896,0
1163,중문올레펜션,제주특별자치도 서귀포시 안덕면 한밭로 61,33.2471067,126.354249,0
1164,오션베스트빌,제주특별자치도 제주시 조천읍 조함해안로 221,33.5530886,126.6447555,3
1165,곶자왈거문오름펜션,제주특별자치도 제주시 조천읍 선교로 371-10,33.472431,126.7090194,1
1166,예뜰,제주특별자치도 서귀포시 남원읍 하례로 379,33.28072,126.6217264,2
1167,시재시재,제주특별자치도 제주시 한경면 조수2길 25,33.3324683,126.2311173,0
1168,수펜션,제주특별자치도 서귀포시 안덕면 소기왓로 81-19,33.2415837,126.3680084,0
1169,제주힐링리조트,제주특별자치도 제주시 한림읍 금악서길 11,33.362018,126.292781,0
1170,제주삼양2022펜션,제주특별자치도 제주시 설촌로 13,33.5221806,126.5816862,3
1171,해미안,제주특별자치도 제주시 일주서로 7353,33.4938008,126.4322214,3
1172,비자림리조트,제주특별자치도 제주시 구좌읍 충렬로 141-1,33.5108743,126.8475292,1
1173,유러하우스펜션,제주특별자치도 서귀포시 막숙포로 136,33.2318082,126.50878,2
1174,추자도에코하우스펜션,제주특별자치도 제주시 추자면 추자로 657,33.9530197,126.3158619,3
1175,앙크레펜션,제주특별자치도 서귀포시 법환로58번길 39,33.2420512,126.5099011,2
1176,리조트 산수휴,제주특별자치도 제주시 1100로 3049,33.4561511,126.48637,3
1177,달비치펜션,제주특별자치도 제주시 구좌읍 해맞이해안로 474,33.5291668,126.8538817,1
1178,써니펜션,제주특별자치도 제주시 구좌읍 해맞이해안로 2228,33.5291668,126.8538817,1
1179,오름풍경펜션,제주특별자치도 서귀포시 안덕면 일주서로 1438,33.2562006,126.3351463,0
1180,하얀언덕,제주특별자치도 서귀포시 표선면 민속해안로 351,33.3114774,126.8340326,1
1181,스테이산타루치아,제주특별자치도 제주시 구좌읍 해맞이해안로 586,33.5291668,126.8538817,1
1182,하얀별펜션,제주특별자치도 제주시 애월읍 일주서로 6845,33.466277,126.3511114,0
1183,해마지펜션,제주특별자치도 서귀포시 성산읍 일주동로 5431,33.416346,126.889907,1
1184,해뜨는집펜션,제주특별자치도 서귀포시 성산읍 한도로 137,33.4691031,126.9225826,1
1185,하늘타리펜션,제주특별자치도 제주시 연대마을길 59,33.4938535,126.4245732,3
1186,마가렛펜션,제주특별자치도 서귀포시 예래로68번길 11-16,33.2555451,126.3978574,0
1187,제주늘보의오후,제주특별자치도 제주시 한경면 한경해안로 176,33.3328723,126.1697983,0
1188,외돌개나라펜션,제주특별자치도 서귀포시 남성로 122,33.2420328,126.5533987,2
1189,바위섬펜션,제주특별자치도 제주시 용담로7길 24,33.5145611,126.5106982,3
1190,지금여기에,제주특별자치도 제주시 한림읍 금능길 79,33.3881374,126.2294884,0
1191,메이플해피하우스,제주특별자치도 제주시 한림읍 명월로 108,33.383937,126.2675522,0
1192,타이스토리,제주특별자치도 서귀포시 표선면 서성일로 118-32,33.3972155,126.8076727,1
1193,포시즌펜션,제주특별자치도 서귀포시 칠십리로285번길 3,33.2486038,126.5835608,2
1194,빨강궁전,제주특별자치도 제주시 애월읍 고내봉길 42-9,33.4593876,126.335282,0
1195,동백바다펜션,제주특별자치도 서귀포시 남원읍 태위로360번길 46,33.2723813,126.6840879,2
1196,바다야펜션,제주특별자치도 제주시 조천읍 조함해안로 478,33.5440366,126.6537771,3
1197,제주클레르드륀펜션,제주특별자치도 제주시 애월읍 고내로11길 14,33.4663773,126.3397023,0
1198,뜨리바다펜션,제주특별자치도 서귀포시 남원읍 태위로510번길 31-16,33.2715279,126.6997188,2
1199,제주바다마루펜션,제주특별자치도 서귀포시 표선면 표선백사로60번길 70,33.3199491,126.8355481,1
1200,제주바당뜰펜션,제주특별자치도 서귀포시 안덕면 난드르로 49-39,33.2329435,126.3646105,0
1201,귤하우스펜션,제주특별자치도 서귀포시 남원읍 남한로 79-11,33.2854493,126.7135325,2
1202,제주마중,제주특별자치도 제주시 한림읍 금능9길 10-1,33.3892795,126.2303746,0
1203,길라임펜션,제주특별자치도 제주시 도두봉6길 27,33.5082095,126.4723209,3
1204,해가빛,제주특별자치도 제주시 한림읍 금능길 89,33.3891823,126.2325378,0
1205,저바다에누워펜션,제주특별자치도 제주시 한경면 판조로 3-5,33.351183,126.216621,0
1206,비에노즈,제주특별자치도 제주시 한림읍 한림해안로 674,33.4257892,126.2673117,0
1207,고래의꿈펜션,제주특별자치도 서귀포시 성산읍 독자봉로24번길 84,33.3859987,126.8741997,1
1208,마니주펜션,제주특별자치도 제주시 서해안로 248,33.5089545,126.4722988,3
1209,제주독채올레하우스,제주특별자치도 제주시 구좌읍 덕행로 450-23,33.5130041,126.7788515,1
1210,스테이헤이븐 펜션,제주특별자치도 제주시 애월읍 애월로 11,33.4600513,126.3113009,0
1211,월정씨하루펜션,제주특별자치도 제주시 구좌읍 월정중길 19-7,33.558165,126.7931872,1
1212,팀버하우스,제주특별자치도 제주시 애월읍 곽지7길 11,33.4511822,126.3078397,0
1213,바다의향기,제주특별자치도 서귀포시 대정읍 송악관광로177번길 254-6,33.2130528,126.292268,0
1214,공하우스,제주특별자치도 제주시 애월읍 고내3길 20,33.4641827,126.3361085,0
1215,드림인제주,제주특별자치도 서귀포시 성산읍 서성일로747번길 5-8,33.4377961,126.8628112,1
1216,쉼표펜션,"제주특별자치도 제주시 서해안로 504 2,3층",33.5194453,126.493001,3
1217,귤중옥펜션,제주특별자치도 서귀포시 안덕면 덕수서로163번길 34,33.2652961,126.3022586,0
1218,썬빌리지,제주특별자치도 서귀포시 예래해안로 195-8 4동,33.2432264,126.3876102,0
1219,서귀포통나무집,제주특별자치도 서귀포시 칠십리로503번길 1,33.2423359,126.6042263,2
1220,바그다드하우스 인디언키친,제주특별자치도 제주시 애월읍 애원로 191,33.4431304,126.3385993,0
1221,더프라이빗,제주특별자치도 제주시 한경면 신창상동길 20-1,33.3498605,126.1879104,0
1222,로맨스파파,제주특별자치도 제주시 한경면 한경해안로 474-20,33.3328723,126.1697983,0
1223,제주스테이대흘,제주특별자치도 제주시 조천읍 곱은달서길 60-24,33.5053556,126.6644401,3
1224,월정힐펜션,제주특별자치도 제주시 구좌읍 월정중길 19-9,33.558165,126.7931872,1
1225,동백동산,제주특별자치도 제주시 조천읍 북흘로 378,33.534457,126.7004904,1
1226,풍향빌리지,제주특별자치도 서귀포시 이어도로 770,33.2360566,126.4975457,2
1227,까사델마마223,제주특별자치도 제주시 조천읍 신촌서5길 99-1,33.5354905,126.6151871,3
1228,선스토리,제주특별자치도 서귀포시 표선면 표선백사로60번길 72,33.3199491,126.8355481,1
1229,소곤닥하우스,제주특별자치도 제주시 조천읍 신북로 497,33.5428478,126.6633545,3
1230,굿데이펜션,제주특별자치도 서귀포시 남성로115번길 2,33.2424538,126.5526182,2
1231,몽돌리조트,제주특별자치도 제주시 주르레길 23,33.4996213,126.5311884,3
1232,제주와요펜션,제주특별자치도 제주시 조천읍 조천남4길 4,33.5329839,126.6386315,3
1233,제주휴펜션,제주특별자치도 서귀포시 구산봉로21번길 62,33.2538767,126.453503,0
1234,제주프랜,제주특별자치도 제주시 한림읍 일주서로 5292,33.4095489,126.2638736,0
1235,틸다하우스,제주특별자치도 제주시 한경면 중산간서로 3367-1,33.3107701,126.2381055,0
1236,해비치풍경,제주특별자치도 서귀포시 표선면 가시로 134,33.3456001,126.7895359,1
1237,더스테어,제주특별자치도 제주시 구좌읍 평대7길 16-1,33.5294376,126.8436626,1
1238,낙원비치하우스,제주특별자치도 제주시 한북로 157-1,33.4636568,126.5332292,3
1239,가산토방,제주특별자치도 서귀포시 인정오름로86번길 3,33.287717,126.5776882,2
1240,춘자네펜션,제주특별자치도 서귀포시 안덕면 서광동로 77,33.2933045,126.3305324,0
1241,제주파인비치펜션,제주특별자치도 서귀포시 남원읍 태위로 976-10 나동,33.2875595,126.7489917,2
1242,멀왓스테이,제주특별자치도 제주시 한림읍 중산간서로 5102,33.3849521,126.2849685,0
1243,산방산에머물다,제주특별자치도 서귀포시 안덕면 사계로114번길 53-5,33.2437465,126.3042545,0
1244,더라온,제주특별자치도 서귀포시 표선면 번영로 2587-43,33.4045946,126.7861248,1
1245,마로펜션,제주특별자치도 제주시 한림읍 한림로 414-2,33.3983045,126.2462976,0
1246,빌라메르시,제주특별자치도 서귀포시 안덕면 소기왓로 81-22,33.2415837,126.3680084,0
1247,호텔창고펜션,제주특별자치도 서귀포시 남원읍 하례망장포로 37,33.261183,126.6381883,2
1248,마눌펜션,제주특별자치도 제주시 애월읍 고내봉서2길 73,33.4507407,126.335804,0
1249,제주펜션매듭,제주특별자치도 제주시 서해안로 502 1층,33.5194025,126.4927413,3
1250,코삿펜션,제주특별자치도 제주시 애월읍 구엄동3길 85,33.4792685,126.3810461,0
1251,절물길펜션,제주특별자치도 제주시 명림로 10-1,33.4629574,126.6161368,3
1252,머무르다,제주특별자치도 제주시 애월읍 금성1길 29-1,33.4469267,126.2998881,0
1253,하원가,제주특별자치도 서귀포시 이어도로 278,33.240469,126.493008,2
1254,밸리통나무빌리지,제주특별자치도 서귀포시 남원읍 하례로 292,33.2732006,126.6232058,2
1255,제주스카이라인 휴양펜션,제주특별자치도 제주시 주르레남길 19,33.4493335,126.4805239,3
1256,킹스통나무펜션,제주특별자치도 제주시 애월읍 도치돌길 283,33.4104327,126.3648229,0
1257,한라하이츠,제주특별자치도 서귀포시 고근산로202번길 94,33.2686727,126.5182746,2
1258,포에타펜션,제주특별자치도 서귀포시 안덕면 신화역사로 713,33.3066927,126.3380858,0
1259,아망뜨펜션,제주특별자치도 서귀포시 표선면 민속해안로 11,33.3060146,126.8063255,1
1260,코롱코롱,제주특별자치도 서귀포시 대정읍 노을해안로 216-6,33.2568116,126.1997011,0
1261,완이클라쓰펜션,제주특별자치도 제주시 애월읍 곽지8길 1 1층,33.4497164,126.3090783,0
1262,스테이반하나 애견동반펜션,제주특별자치도 서귀포시 남원읍 태신해안로 129,33.2921594,126.7624803,1
1263,소못소랑,제주특별자치도 제주시 한림읍 금능길 81-2,33.3893668,126.2320719,0
1264,에퀴녹스 협재,제주특별자치도 제주시 한림읍 협재로 210-55,33.3790957,126.2494332,0
1265,비엔토펜션,제주특별자치도 제주시 애월읍 금성5길 24,33.4468345,126.3026978,0
1266,제주올레프로방스,제주특별자치도 제주시 애월읍 광령평화2길 170-13,33.4312844,126.4308885,3
1267,쌩텀펜션,제주특별자치도 제주시 애월읍 광령평화2길 116-31,33.4346171,126.4329974,3
1268,섬타임즈제주펜션,제주특별자치도 제주시 연대마을길 66-1,33.4932872,126.4232868,3
1269,제주에서돌고래를만난다면펜션,제주특별자치도 제주시 구좌읍 해맞이해안로 1566,33.5291668,126.8538817,1
1270,제주 그린팜파스펜션,제주특별자치도 서귀포시 인정오름로 97,33.2865954,126.5763442,2
1271,아리아펜션,제주특별자치도 서귀포시 남원읍 태위로 594-2,33.280681,126.707391,2
1272,부띠끄풀빌라 나미브,제주특별자치도 제주시 한경면 판포4길 41-41,33.3650791,126.2032852,0
1273,모이라펜션,제주특별자치도 서귀포시 516로 296,33.3384938,126.61069,2
1274,해비치하우스,제주특별자치도 서귀포시 표선면 민속해안로 347,33.3112016,126.8335638,1
1275,스테이달꿈 오션뷰펜션,제주특별자치도 제주시 서해안로 468-4,33.518535,126.489466,3
1276,월정리 사남매하우스,제주특별자치도 제주시 구좌읍 행원로 20-15,33.5499726,126.7986861,1
1277,다래산장펜션,제주특별자치도 제주시 애월읍 납읍로10길 49-32,33.430589,126.3479122,0
1278,야자수풀빌라펜션,제주특별자치도 서귀포시 표선면 일주동로5661번길 33,33.3366218,126.845464,1
1279,더빌라스오션,제주특별자치도 서귀포시 남원읍 태신해안로 271,33.2969817,126.763215,1
1280,바당정원,제주특별자치도 제주시 한경면 판조로 23,33.351183,126.216621,0
1281,투데이제주펜션,제주특별자치도 서귀포시 예래로 267-2,33.2423033,126.3859064,0
1282,아라파니펜션,제주특별자치도 제주시 구좌읍 월정5길 18-16,33.5532554,126.7968391,1
1283,보메와산독채펜션,제주특별자치도 제주시 조천읍 미래로 53,33.4636331,126.6780733,3
1284,윈드밀108,제주특별자치도 제주시 한경면 두모1길 108,33.3560743,126.1819622,0
1285,로뎀제주,제주특별자치도 제주시 구좌읍 계룡길 25-20,33.5379111,126.834746,1
1286,바다드림펜션,제주특별자치도 제주시 어영길 18-9,33.5164423,126.4953058,3
1287,성산일출봉펜션,제주특별자치도 서귀포시 성산읍 일출로 271,33.4620002,126.9340709,1
1288,뜨레시옷,제주특별자치도 제주시 구좌읍 송당서3길 24,33.4667591,126.7706237,1
1289,피노&키오,제주특별자치도 제주시 구좌읍 일주동로 1853,33.5314441,126.8206181,1
1290,단겸펜션,제주특별자치도 제주시 구좌읍 월정3길 14 2동,33.5548267,126.7938243,1
1291,썸스테이,제주특별자치도 제주시 한림읍 한수1길 33,33.4220163,126.2622216,0
1292,오션스카이펜션,제주특별자치도 제주시 구좌읍 덕행로 450-16,33.5138756,126.7784474,1
1293,제주카사블랑카,제주특별자치도 서귀포시 학수암로 111,33.2704911,126.52813,2
1294,올리브낭,제주특별자치도 서귀포시 이어도로 1028-14,33.2433387,126.5219919,2
1295,로비나발리168,제주특별자치도 제주시 한림읍 한림해안로 714,33.4257892,126.2673117,0
1296,옛마을펜션,제주특별자치도 서귀포시 검은여로 80,33.2507973,126.5817291,2
1297,이야기별방펜션,제주특별자치도 제주시 구좌읍 해맞이해안로 2040,33.5291668,126.8538817,1
1298,꿈꾸는노마드,제주특별자치도 서귀포시 선반로 54,33.2424728,126.4832872,2
1299,스토리하우스,제주특별자치도 제주시 도리중길 37,33.5019633,126.4632175,3
1300,중문에코펜션,제주특별자치도 서귀포시 색달로61번길 5,33.261344,126.4096486,0
1301,라뷰테제주,제주특별자치도 서귀포시 대정읍 노을해안로 620-2,33.2568116,126.1997011,0
1302,고흐와 바흐,제주특별자치도 제주시 한림읍 명재로 142-21,33.3929136,126.2555637,0
1303,빌라노이제주,제주특별자치도 서귀포시 안덕면 사계리 321,33.2368693,126.303985,0
1304,제주 스테이협재10길펜션,제주특별자치도 제주시 한림읍 협재10길 3,33.3986256,126.2470081,0
1305,감수굴펜션,제주특별자치도 제주시 구좌읍 평대7길 48,33.5305126,126.8442773,1
1306,트레비앙제주,제주특별자치도 제주시 조천읍 중산간동로 1364,33.5029546,126.6942576,1
1307,모이모이펜션,제주특별자치도 제주시 한림읍 귀덕8길 39,33.4406593,126.2898087,0
1308,이호MH호텔,제주특별자치도 제주시 현사길 33 1~4층,33.4969752,126.4487625,3
1309,바다위올레,제주특별자치도 서귀포시 이어도로 826-13,33.2339546,126.5025264,2
1310,디어노이,제주특별자치도 제주시 구좌읍 덕행로 175-36 1동,33.5164517,126.782871,1
1311,바산올레펜션,제주특별자치도 서귀포시 안덕면 대평로 29,33.2365893,126.3639804,0
1312,잇츠힐펜션,제주특별자치도 제주시 애월읍 애월해안로 788,33.4867248,126.3835435,0
1313,포트에비뉴,제주특별자치도 서귀포시 대포동서로 63-19,33.241952,126.43797,0
1314,드렌도트,제주특별자치도 제주시 애월읍 애원로 246,33.4431304,126.3385993,0
1315,서호달빛,제주특별자치도 서귀포시 서호로 47,33.2583356,126.5223479,2
1316,씨더비양펜션,제주특별자치도 제주시 한림읍 동명7길 51,33.3968526,126.2664602,0
1317,화랑펜션,제주특별자치도 제주시 해안마을7다길 100-30,33.5028014,126.5042189,3
1318,용두암캐빈,제주특별자치도 제주시 어영길 32,33.518009,126.4964745,3
1319,펜션정원,제주특별자치도 서귀포시 남원읍 일주동로 6523,33.2835671,126.7051642,2
1320,가까이에파도소리펜션,제주특별자치도 제주시 연대마을길 44,33.4948563,126.424951,3
1321,쿠지홀리데이펜션,제주특별자치도 서귀포시 성산읍 난산로 100,33.4028897,126.8654196,1
1322,멍멍플레이스,제주특별자치도 제주시 애월읍 소길남길 244-5,33.4159965,126.3796199,0
1323,제주이로펜션,제주특별자치도 서귀포시 안덕면 대평감산로 75,33.244029,126.362855,0
1324,펀빌펜션,제주특별자치도 제주시 애월읍 곽지5길 21,33.4491695,126.3056679,0
1325,JB풀빌라 사계점,제주특별자치도 서귀포시 안덕면 사계북로41번길 69-26,33.2450192,126.2983614,0
1326,채움키즈풀빌라,제주특별자치도 서귀포시 대포중앙로 44,33.2456029,126.4324826,0
1327,해안성,제주특별자치도 서귀포시 태평로92번길 29,33.2417922,126.5321723,2
1328,제주하늬바람펜션,제주특별자치도 제주시 애월읍 신상로 258 4동,33.4494851,126.366594,0
1329,그리니제주,제주특별자치도 서귀포시 안덕면 덕수동로 149-21,33.2684915,126.3166486,0
1330,엔젤하우스,제주특별자치도 제주시 애월읍 신엄안3길 95 2층,33.4736903,126.3608227,0
1331,아이올레키즈풀빌라펜션,제주특별자치도 서귀포시 성산읍 난고로 457,33.4200962,126.8870067,1
1332,파크빌리지,제주특별자치도 제주시 애월읍 상귀서길 82-12,33.4651885,126.4053912,0
1333,산들애풀하우스,제주특별자치도 서귀포시 성산읍 서성일로 689-8,33.4268965,126.8647243,1
1334,썬레이크빌 제주,제주특별자치도 서귀포시 성산읍 한도로 49,33.467502,126.9134076,1
1335,JB풀빌라 남원점,제주특별자치도 서귀포시 남원읍 남위남성로94번길 30-1,33.2977536,126.7016438,2
1336,더파란,제주특별자치도 제주시 애월읍 구엄남길 36,33.4710429,126.3788471,0
1337,곱드락펜션,제주특별자치도 제주시 한림읍 협재2길 16,33.3925831,126.2414999,0
1338,제주달리펜션,제주특별자치도 제주시 구좌읍 행원로1길 32-1,33.5548917,126.8000825,1
1339,제주그래펜션,제주특별자치도 제주시 구좌읍 덕행로 167,33.5164517,126.782871,1
1340,독채펜션산들숲,제주특별자치도 서귀포시 안덕면 서광동로 93-11,33.2933045,126.3305324,0
1341,우도바람이야기펜션,제주특별자치도 제주시 우도면 우도해안길 828,33.5074342,126.954269,1
1342,엘쯔타운펜션,제주특별자치도 제주시 애월읍 유수암평화길 136,33.4362145,126.4054228,0
1343,반디앤로제이,제주특별자치도 제주시 조천읍 조함해안로 142-40,33.5477266,126.6407724,3
1344,성산포사랑펜션,제주특별자치도 서귀포시 성산읍 성산중앙로 30-4,33.4622982,126.9329625,1
1345,퀸스베이펜션,"제주특별자치도 제주시 애월읍 신엄안2길 54 2, 3층",33.4770905,126.3699554,0
1346,꿈꾸는제주펜션,제주특별자치도 서귀포시 남원읍 태위로894번길 32,33.2834497,126.7422384,2
1347,비긴어게인펜션,제주특별자치도 제주시 구좌읍 월정3길 5-1,33.5526604,126.7914708,1
1348,제주풀스테이 소랑제,제주특별자치도 서귀포시 안덕면 소기왓로 81,33.2415837,126.3680084,0
1349,제주하늘키즈펜션,제주특별자치도 제주시 계명2길 17,33.488848,126.4239668,3
1350,비양펜션,제주특별자치도 제주시 한림읍 옹포3길 25-2,33.4053831,126.2520877,0
1351,제주다시,제주특별자치도 제주시 한림읍 금능길 4,33.3881374,126.2294884,0
1352,느링느링스테이,제주특별자치도 서귀포시 성산읍 남산봉로 83-82,33.3627942,126.8319561,1
1353,채송화펜션,제주특별자치도 제주시 한경면 판포1길 21,33.3650442,126.1973317,0
1354,성산스타펜션,제주특별자치도 서귀포시 성산읍 성산중앙로64번길 5-1,33.464629,126.9356029,1
1355,이디오라게펜션,제주특별자치도 서귀포시 예래로 411,33.2451213,126.3852784,0
1356,채우리네펜션,제주특별자치도 서귀포시 검은여로 67,33.2563824,126.5857615,2
1357,제주키즈풀빌라 나무와아이,제주특별자치도 제주시 조천읍 비자림로 699-53 전체,33.4319106,126.696186,1
1358,글라글라펜션,제주특별자치도 서귀포시 중산간서로594번길 39,33.2651754,126.451766,0
1359,버닝레스트,제주특별자치도 제주시 애월읍 애월해안로 852,33.4782235,126.3665625,0
1360,달1037,제주특별자치도 서귀포시 성산읍 중산간동로 4204-12,33.4119114,126.8416603,1
1361,제주통나무휴양펜션,제주특별자치도 서귀포시 표선면 번영로 3328,33.3510659,126.82385,1
1362,제주도유,제주특별자치도 제주시 조천읍 신촌10길 40,33.5325288,126.6261615,3
1363,라메종베니인제주펜션,제주특별자치도 서귀포시 성산읍 신양로122번길 10-6,33.4358498,126.922128,1
1364,안녕바다야,제주특별자치도 제주시 애월읍 하귀12길 39,33.4871453,126.4093484,3
1365,푸른제주,제주특별자치도 서귀포시 성산읍 한도로 256,33.4658976,126.9345492,1
1366,물고기펜션,제주특별자치도 제주시 조천읍 조함해안로 48-1,33.5412634,126.6371882,3
1367,노을이야기,제주특별자치도 제주시 애월읍 애월해안로 352,33.4782235,126.3665625,0
1368,제주터닝포인트펜션,제주특별자치도 서귀포시 성산읍 일주동로 5199-11,33.3737817,126.8727479,1
1369,뉴그린펜션&모텔,제주특별자치도 서귀포시 표선면 표선백사로 119,33.326104,126.8365594,1
1370,네모펜션,제주특별자치도 서귀포시 호근북로 93,33.2691476,126.5306795,2
1371,라벤더스호텔앤리조트,제주특별자치도 서귀포시 색달중앙로252번길 50,33.2813719,126.4163764,0
1372,마루호텔앤카페,제주특별자치도 서귀포시 안덕면 평화로 486,33.3195978,126.342428,0
1373,힐호텔,제주특별자치도 제주시 애월읍 하소로 507,33.4549698,126.396056,0
1374,노벨리조트,제주특별자치도 제주시 서해안로 122,33.5023858,126.4623921,3
1375,C&P리조트,제주특별자치도 서귀포시 성산읍 중산간동로 4328-63,33.390235,126.8307766,1
1376,두모리에 리조트,제주특별자치도 제주시 한경면 두모11길 52-1,33.3572224,126.1827323,0
1377,라벤더스호텔앤리조트,제주특별자치도 서귀포시 색달중앙로252번길 50,33.2813719,126.4163764,0
1378,뷰티플리조트,제주특별자치도 서귀포시 이어도로253번길 2,33.2437471,126.4467566,0
1379,길리리조트,제주특별자치도 제주시 한림읍 명재로 100-47,33.3906913,126.2605282,0
1380,대웅황토리조트,제주특별자치도 제주시 애월읍 번드르길 27,33.4809248,126.387902,0
1381,더시크릿서귀포리조트&빌라,제주특별자치도 서귀포시 대정읍 노을해안로 216-6,33.2568116,126.1997011,0
1382,섬풍경펜션,제주특별자치도 제주시 한경면 노을해안로 1203-1,33.3071297,126.1684779,0
1383,휘닉스제주,제주특별자치도 서귀포시 성산읍 섭지코지로 107,33.4305782,126.9277688,1
1384,한화리조트 제주,제주특별자치도 제주시 명림로 575-107,33.4484669,126.6380972,3
1385,소노벨제주 신관,제주특별자치도 제주시 조천읍 신북로 577,33.5412863,126.6714847,3
1386,켄싱턴리조트 제주중문,제주특별자치도 서귀포시 중문관광로72번길 29-29,33.2475912,126.4125373,0
1387,더큐브리조트 제주,제주특별자치도 서귀포시 솔오름로105번길 24,33.3007625,126.5543432,2
1388,아이브리조트,제주특별자치도 서귀포시 산록남로 1966-34,33.3017887,126.5095926,2
1389,롯데리조트제주 아트빌라스,제주특별자치도 서귀포시 색달중앙로252번길 124,33.2812324,126.4158092,0
1390,와이리조트 제주,제주특별자치도 서귀포시 안덕면 화순중앙로124번길 75,33.241649,126.3336643,0
1391,베이힐풀앤빌라,제주특별자치도 서귀포시 예래로 424,33.2451213,126.3852784,0
1392,MJ리조트,제주특별자치도 제주시 구좌읍 해맞이해안로 1651,33.5291668,126.8538817,1
1393,씨사이드아덴리조트,제주특별자치도 서귀포시 중문관광로 124,33.2487954,126.4198849,0
1394,담앤루,제주특별자치도 서귀포시 이어도로343번길 63,33.2453084,126.4512913,0
1395,올레리조트,제주특별자치도 제주시 애월읍 부룡수길 33,33.4756942,126.3558489,0
1396,오션스퀘어,제주특별자치도 서귀포시 성산읍 환해장성로 667,33.4121987,126.9047711,1
1397,취다선리조트,제주특별자치도 서귀포시 성산읍 해맞이해안로 2688,33.4758294,126.9099122,1
1398,그림리조트,제주특별자치도 제주시 서해안로 620-1,33.516304,126.5036099,3
1399,라헨느리조트,제주특별자치도 제주시 명림로 374,33.454163,126.6144026,3
1400,로긴리조트,제주특별자치도 제주시 서해안로 442-11,33.5173051,126.4876813,3
1401,애월스테이인제주,제주특별자치도 제주시 애월읍 애월해안로 708,33.4828868,126.3773285,0
1402,썬앤문리조트,제주특별자치도 서귀포시 안덕면 사계남로 102,33.230173,126.3018116,0
1403,클럽이에스 제주리조트,제주특별자치도 서귀포시 1100로 501,33.2763665,126.4476633,0
1404,제주리조트,제주특별자치도 제주시 애월읍 가문동상4길 11,33.4846961,126.3876815,0
1405,젠하이드어웨이,제주특별자치도 서귀포시 안덕면 사계남로 186-8,33.2292312,126.3086165,0
1406,돈내코힐스파리조트,제주특별자치도 서귀포시 돈내코로 180,33.3053883,126.5774568,2
1407,서귀포월드컵리조트,제주특별자치도 서귀포시 월드컵로45번길 40,33.2443564,126.5110873,2
1408,벨룸리조트,제주특별자치도 서귀포시 516로277번길 45 1층,33.2812754,126.5784104,2
1409,더베이제주리조트,제주특별자치도 서귀포시 문필로35번길 46,33.2407806,126.5956557,2
1410,라온프라이빗타운,제주특별자치도 제주시 한림읍 금능남로 127,33.3760556,126.2441268,0
1411,오투힐 제주점,제주특별자치도 제주시 구좌읍 해맞이해안로 1590-6 오투힐리조트,33.528084,126.873762,1
1412,팜밸리리조트,제주특별자치도 서귀포시 중산간서로 193,33.2593949,126.4908125,2
1413,루시드엠,제주특별자치도 서귀포시 안덕면 사계북로 120,33.2355381,126.2966466,0
1414,물뜰에쉼팡리조트,제주특별자치도 제주시 한림읍 귀덕로 73,33.4175961,126.2998204,0
1415,카이리조트,제주특별자치도 제주시 한림읍 협재2길 10,33.3917519,126.2419452,0
1416,블라제리조트,제주특별자치도 서귀포시 표선면 녹산로 274,33.3792785,126.746889,1
1417,봄그리고가을리조트,제주특별자치도 서귀포시 성산읍 해맞이해안로 2660,33.474087,126.9110984,1
1418,메모리아리조트,제주특별자치도 서귀포시 성산읍 일주동로 5199-3,33.3737817,126.8727479,1
1419,씨오르리조트,제주특별자치도 서귀포시 이어도로 989,33.2422008,126.5191098,2
1420,파미유스파리조트,제주특별자치도 서귀포시 이어도로 826-6,33.2339546,126.5025264,2
1421,엘리시안제주 콘도,제주특별자치도 제주시 애월읍 평화로 1738-116,33.3719462,126.3817449,0
1422,돌과바람리조트,제주특별자치도 서귀포시 하신상로 166,33.2761847,126.6067488,2
1423,중문리조트,제주특별자치도 서귀포시 색달로 117,33.2623241,126.4157951,0
1424,하모니리조트,제주특별자치도 제주시 한림읍 협재로 213,33.3870114,126.24897,0
1425,두빛나래리조트,제주특별자치도 서귀포시 안덕면 사계북로 109,33.2355381,126.2966466,0
1426,제주바다목장 다이브리조트,제주특별자치도 제주시 한경면 한경해안로 565,33.3328723,126.1697983,0
1427,더세리리조트,제주특별자치도 서귀포시 법환상로2번길 97-17,33.2468934,126.5119875,2
1428,콤마앤리조트,제주특별자치도 서귀포시 안덕면 사계중앙로3번길 22,33.2297005,126.3018257,0
1429,샤모니리조트,제주특별자치도 서귀포시 중산간서로 68,33.2862497,126.3077305,0
1430,해밀리조트,제주특별자치도 제주시 애월읍 광상로 272 1~3층,33.4424202,126.3955874,0
1431,오션갤러리 호텔앤리조트,제주특별자치도 서귀포시 성산읍 환해장성로 231,33.4121987,126.9047711,1
1432,오크라리조트,제주특별자치도 서귀포시 표선면 번영로 3189,33.3726822,126.7971235,1
1433,캐슬렉스제주골프클럽 골프텔,제주특별자치도 서귀포시 안덕면 평화로 1241,33.3386094,126.3486899,0
1434,제주애월리조트,제주특별자치도 제주시 애월읍 광령평화2길 116-20,33.4346171,126.4329974,3
1435,나르샤리조트,제주특별자치도 서귀포시 안덕면 사계북로 52,33.2355381,126.2966466,0
1436,브릭216,제주특별자치도 서귀포시 이어도로 216,33.240469,126.493008,2
1437,바다스케치,제주특별자치도 서귀포시 안덕면 사계남로216번길 52,33.2349991,126.3099849,0
1438,훈데르트힐즈,제주특별자치도 제주시 우도면 우도해안길 32-24,33.5074342,126.954269,1
1439,스프링힐,제주특별자치도 서귀포시 천제연로 292,33.2509432,126.4374398,0
1440,스완지리조트,제주특별자치도 제주시 서해안로 84,33.5110314,126.4802212,3
1441,썬비치리조트,제주특별자치도 제주시 서해안로 114,33.5110314,126.4802212,3
1442,고투베드리조트,제주특별자치도 서귀포시 성산읍 서성일로 660,33.4268965,126.8647243,1
1443,제주원리조트,제주특별자치도 서귀포시 성산읍 서성일로 726-33,33.4277138,126.8614156,1
1444,제주휴리조트1,제주특별자치도 서귀포시 성산읍 난고로 228,33.4200962,126.8870067,1
1445,오시록헌 PM,제주특별자치도 제주시 한림읍 금능5길 19-3,33.3893046,126.2266406,0
1446,조이빌리조트,제주특별자치도 제주시 조천읍 와산남길 41,33.4835688,126.6769103,3
1447,애월파라다이스,제주특별자치도 제주시 애월읍 하소로 557-10,33.4341788,126.3968703,0
1448,사조리조트 제주지점,제주특별자치도 제주시 조천읍 일주동로 1616-7,33.5517805,126.7051569,1
1449,송당송당펜션&리조트,제주특별자치도 제주시 구좌읍 비자림로 1220,33.467852,126.7724183,1
1450,블루펄리조트,제주특별자치도 서귀포시 태평로92번길 35,33.2412,126.5319536,2
1451,더시에나리조트 (2023년5월예정),제주특별자치도 서귀포시 강정동 3772-1,33.2645974,126.4846111,2
1452,제주캐슬마운틴리조트,제주특별자치도 서귀포시 안덕면 산록남로 513-14,33.3380723,126.3630069,0
1453,인피니티리조트,제주특별자치도 제주시 조천읍 조함해안로 376-9,33.5440366,126.6537771,3
1454,벙커호텔앤리조트,제주특별자치도 서귀포시 중산간동로8183번길 16,33.2619641,126.5455687,2
1455,벨라비타,제주특별자치도 서귀포시 일주서로 809,33.2583693,126.4239193,0
1456,함덕리조텔,제주특별자치도 제주시 조천읍 조함해안로 514,33.5424913,126.667586,3
1457,남원큰엉해변,제주특별자치도 서귀포시 남원읍 태위로 522-17,33.2733787,126.7037541,2
1458,함덕해수욕장,제주특별자치도 제주시 조천읍 조함해안로 525,33.5427175,126.6692481,3
1459,협재해수욕장,제주특별자치도 제주시 한림읍 한림로 329-10,33.3938461,126.2397141,0
1460,이호테우해수욕장,제주특별자치도 제주시 이호일동 1665-13,33.4968145,126.4528609,3
1461,성산일출봉,제주특별자치도 서귀포시 성산읍 성산리 78,33.4587135,126.9390786,1
1462,김녕해수욕장,제주특별자치도 제주시 구좌읍 해맞이해안로 7-6,33.5291668,126.8538817,1
1463,섭지코지,제주특별자치도 서귀포시 성산읍 섭지코지로 107,33.4305782,126.9277688,1
1464,사려니숲길,제주특별자치도 제주시 조천읍 교래리 산 137-1,33.4276176,126.6665803,3
1465,금능해수욕장,제주특별자치도 제주시 한림읍 금능길 119-10,33.391126,126.2363373,0
1466,용머리해안,제주특별자치도 서귀포시 안덕면 사계리,33.237032,126.3020597,0
1467,곽지해수욕장,제주특별자치도 제주시 애월읍 곽지리 1565,33.4507522,126.3056339,0
1468,천지연폭포,제주특별자치도 서귀포시 서홍동 2565,33.2683636,126.5529615,2
1469,비자림,제주특별자치도 제주시 구좌읍 비자숲길 55,33.4913168,126.8113883,1
1470,황우지해안,제주특별자치도 서귀포시 천지동 765-7,33.2417089,126.5505189,2
1471,중문색달해수욕장,제주특별자치도 서귀포시 색달동 3039,33.2814107,126.4111118,0
1472,새별오름,제주특별자치도 제주시 애월읍 봉성리 산 59-8,33.3689588,126.3505941,0
1473,산방산,제주특별자치도 서귀포시 안덕면 사계리 산 16,33.2426249,126.3137339,0
1474,마라도,제주특별자치도 서귀포시 대정읍 마라로101번길 46,33.1185369,126.2673483,0
1475,중문대포주상절리대,제주특별자치도 서귀포시 이어도로 36-30,33.240469,126.493008,2
1476,9.81파크,제주특별자치도 제주시 애월읍 천덕로 880-24,33.4353027,126.3219516,0
1477,용두암,제주특별자치도 제주시 용두암길 15,33.5149624,126.5116869,3
1478,표선해수욕장,제주특별자치도 서귀포시 표선면 표선리,33.3225332,126.8228665,1
1479,세화해변,제주특별자치도 제주시 구좌읍 해녀박물관길 27,33.5234279,126.8624058,1
1480,정방폭포,제주특별자치도 서귀포시 동홍동 299-3,33.2450247,126.5716804,2
1481,만장굴,제주특별자치도 제주시 구좌읍 만장굴길 182,33.5291,126.7714308,1
1482,새연교,제주특별자치도 서귀포시 서홍동 707-4,33.2384632,126.5589787,2
1483,카멜리아힐,제주특별자치도 서귀포시 안덕면 병악로 166,33.2901143,126.3684044,0
1484,월정리해수욕장,제주특별자치도 제주시 구좌읍 월정리 33-3,33.5551183,126.7986235,1
1485,한라산국립공원,제주특별자치도 제주시 오등동 산 182,33.3718377,126.5298401,2
1486,산굼부리,제주특별자치도 제주시 조천읍 교래리 166-2,33.4276176,126.6665803,3
1487,쇠소깍,제주특별자치도 서귀포시 쇠소깍로 104,33.2542498,126.6224923,2
1488,도두동무지개해안도로,제주특별자치도 제주시 도두일동 1734,33.509258,126.4719749,3
1489,절물자연휴양림,제주특별자치도 제주시 명림로 584,33.4393726,126.6284479,3
1490,천제연폭포,제주특별자치도 서귀포시 천제연로 132 중문관광단지 내,33.2526783,126.4184383,0
1491,도두봉,제주특별자치도 제주시 도두일동 산 2,33.506984,126.4684484,3
1492,사계해변,제주특별자치도 서귀포시 안덕면 사계리,33.237032,126.3020597,0
1493,신창풍차해안도로,제주특별자치도 제주시 한경면 신창리 1322-1,33.3433767,126.1739996,0
1494,우도,제주특별자치도 제주시 우도면 연평리,33.5033191,126.9556775,1
1495,제주허브동산,제주특별자치도 서귀포시 표선면 돈오름로 170,33.3298498,126.8148541,1
1496,금오름,제주특별자치도 제주시 한림읍 금악리 산 1-1,33.355577,126.3056877,0
1497,한라수목원,제주특별자치도 제주시 수목원길 72,33.4699272,126.4932445,3
1498,윈드1947카트테마파크,제주특별자치도 서귀포시 토평공단로 78-27,33.2894549,126.5876107,2
1499,한림공원,제주특별자치도 제주시 한림읍 한림로 300,33.3894949,126.2396825,0
1500,서귀포치유의숲,제주특별자치도 서귀포시 산록남로 2271,33.3017887,126.5095926,2
1501,광치기해변,제주특별자치도 서귀포시 성산읍 고성리 224-33,33.4526753,126.9241174,1
1502,송악산,제주특별자치도 서귀포시 대정읍 상모리 산 2,33.1994088,126.2907797,0
1503,삼양해수욕장,제주특별자치도 제주시 삼양이동 1960-4,33.5254973,126.5853116,3
1504,수월봉,제주특별자치도 제주시 한경면 고산리 3760,33.294755,126.1634484,0
1505,거문오름,제주특별자치도 제주시 조천읍 선교로 569-36,33.4727191,126.7061921,1
1506,안돌오름,제주특별자치도 제주시 구좌읍 송당리 산 66-2,33.4575321,126.7558484,1
1507,항파두리 항몽유적지,제주특별자치도 제주시 애월읍 항파두리로 50,33.4521245,126.4074522,0
1508,메이즈랜드,제주특별자치도 제주시 구좌읍 비자림로 2134-47,33.467852,126.7724183,1
1509,애월해안도로,제주특별자치도 제주시 애월읍 신엄리 2719-3,33.4786484,126.3696874,0
1510,한담해안산책로,제주특별자치도 제주시 애월읍 곽지리 1359,33.45906,126.3105995,0
1511,서우봉,제주특별자치도 제주시 조천읍 함덕리 169-3,33.5457607,126.6776978,3
1512,코난해변,제주특별자치도 제주시 구좌읍 행원리 575-6,33.5575318,126.8112241,1
1513,용눈이오름,제주특별자치도 제주시 구좌읍 종달리 산 28,33.4880673,126.8804954,1
1514,백약이오름,제주특별자치도 서귀포시 표선면 성읍리 산 1,33.4372808,126.7901747,1
1515,비양도,제주특별자치도 제주시 한림읍 협재리,33.3807358,126.2482491,0
1516,수목원테마파크,제주특별자치도 제주시 은수길 69,33.4721583,126.4880259,3
1517,제주곶자왈도립공원,제주특별자치도 서귀포시 대정읍 에듀시티로 178,33.279349,126.2763069,0
1518,스누피가든,제주특별자치도 제주시 구좌읍 금백조로 916 2층,33.4434495,126.7797614,1
1519,화조원,제주특별자치도 제주시 애월읍 납읍리 58,33.4113881,126.3717903,0
1520,한라산1100고지,제주특별자치도 서귀포시 색달동 산 1-2,33.2569808,126.3864531,0
1521,소천지,제주특별자치도 서귀포시 보목동,33.2460103,126.6009132,2
1522,관덕정,제주특별자치도 제주시 관덕로 19,33.5133537,126.5214452,3
1523,이중섭거리,제주특별자치도 서귀포시 이중섭로 4-1,33.2476269,126.5641044,2
1524,아부오름,제주특별자치도 제주시 구좌읍 송당리 2263,33.4487771,126.7772808,1
1525,김녕미로공원,제주특별자치도 제주시 구좌읍 만장굴길 122,33.5365289,126.7721332,1
1526,다랑쉬오름,제주특별자치도 제주시 구좌읍 세화리 산 6,33.4765321,126.8218552,1
1527,원앙폭포,제주특별자치도 서귀포시 돈내코로 137,33.3005301,126.5817449,2
1528,브릭캠퍼스 제주,제주특별자치도 제주시 1100로 3047,33.4561511,126.48637,3
1529,군산,제주특별자치도 서귀포시 안덕면 창천리 산 3-1,33.2515773,126.3681156,0
1530,가파도,제주특별자치도 서귀포시 대정읍 가파리 276,33.1697902,126.2713039,0
1531,에코랜드테마파크,제주특별자치도 제주시 조천읍 번영로 1278-169,33.4555296,126.6681873,3
1532,논짓물해변,제주특별자치도 서귀포시 하예동,33.240031,126.3803208,0
1533,제주돌문화공원,제주특별자치도 제주시 조천읍 남조로 2023,33.4486627,126.6589493,3
1534,제주불빛정원,제주특별자치도 제주시 애월읍 평화로 2346,33.4221679,126.4093068,0
1535,창꼼,제주특별자치도 제주시 조천읍 북촌리 403-9,33.5523047,126.6978053,1
1536,청굴물,제주특별자치도 제주시 구좌읍 김녕리 1296,33.5579694,126.7513606,1
1537,제주레포츠랜드,제주특별자치도 제주시 조천읍 와흘상서2길 47,33.4823902,126.6386812,3
1538,엉또폭포,제주특별자치도 서귀포시 강정동 5628,33.26505,126.4903182,2
1539,따라비오름,제주특별자치도 서귀포시 표선면 가시리 산 63,33.3988071,126.7063341,1
1540,송악산둘레길,제주특별자치도 서귀포시 대정읍 상모리,33.2218976,126.2741296,0
1541,서귀포자연휴양림,제주특별자치도 서귀포시 하원동 산 1-1,33.3401998,126.4792115,2
1542,선녀와나무꾼 테마공원,제주특별자치도 제주시 조천읍 선교로 267,33.4786897,126.7030403,1
1543,돌염전,제주특별자치도 제주시 애월읍 구엄리,33.4797356,126.3819332,0
1544,형제해안도로,"제주특별자치도 서귀포시 안덕면 사계리 (군도14호선, 상모사계선)",33.2395779,126.2999173,0
1545,파더스가든,제주특별자치도 서귀포시 안덕면 병악로 44-33,33.2805107,126.3655186,0
1546,제주동백수목원,제주특별자치도 서귀포시 남원읍 위미리 927,33.3060336,126.6580882,2
1547,월령선인장군락지,제주특별자치도 제주시 한림읍 월령리 359-4,33.3778628,126.2154709,0
1548,소인국테마파크,제주특별자치도 서귀포시 안덕면 중산간서로 1878,33.2904213,126.322602,0
1549,제주4.3평화공원,제주특별자치도 제주시 명림로 430,33.4505801,126.6181207,3
1550,제주중문관광단지,제주특별자치도 서귀포시 중문동 2624-1,33.2457545,126.4205964,0
1551,안덕계곡,제주특별자치도 서귀포시 안덕면 감산리 1946,33.2563654,126.3518369,0
1552,사라봉,제주특별자치도 제주시 건입동 387-1,33.5180564,126.5460544,3
1553,동백포레스트,제주특별자치도 서귀포시 남원읍 생기악로 53-38,33.2974308,126.6375449,2
1554,쇠소깍관광지,제주특별자치도 서귀포시 하효동,33.2575864,126.6188654,2
1555,바운스슈퍼파크 제주센터,제주특별자치도 제주시 연사6길 61 1층,33.4857156,126.5082014,3
1556,저지오름,제주특별자치도 제주시 한경면 저지리 산 51,33.3330097,126.2509518,0
1557,서프라이즈테마파크,제주특별자치도 제주시 조천읍 남조로 2243,33.4845921,126.6554822,3
1558,한라생태숲,제주특별자치도 제주시 516로 2596,33.430924,126.595761,3
1559,교래자연휴양림,제주특별자치도 제주시 조천읍 남조로 2023,33.4486627,126.6589493,3
1560,추자도,제주특별자치도 제주시 추자면 묵리,33.9486489,126.3142954,3
1561,닭머르,제주특별자치도 제주시 조천읍 신촌리 3403,33.5377171,126.6131171,3
1562,박수기정,제주특별자치도 서귀포시 안덕면 감산리,33.2484955,126.3509503,0
1563,어승생,제주특별자치도 제주시 해안동 산 220-12,33.3835708,126.5068024,3
1564,혼인지,제주특별자치도 서귀포시 성산읍 온평리 1693,33.4149305,126.8941019,1
1565,액티브파크,제주특별자치도 제주시 한림읍 금능남로 76,33.3683483,126.2446125,0
1566,하도해변,제주특별자치도 제주시 구좌읍 하도리,33.5149849,126.8817696,1
1567,삼성혈,제주특별자치도 제주시 삼성로 22,33.5047027,126.529358,3
1568,붉은오름자연휴양림,제주특별자치도 서귀포시 표선면 남조로 1487-73,33.3788614,126.6823176,2
1569,지미봉,제주특별자치도 제주시 구좌읍 종달리 산 3-1,33.4880673,126.8804954,1
1570,제주코코몽에코파크,제주특별자치도 서귀포시 남원읍 태위로 536,33.2746312,126.7058491,2
1571,물영아리,제주특별자치도 서귀포시 남원읍 수망리 산 188,33.3680602,126.692221,2
1572,일출랜드,제주특별자치도 서귀포시 성산읍 중산간동로 4150-30,33.3835243,126.8413634,1
1573,별방진,제주특별자치도 제주시 구좌읍 하도리 3354,33.5261207,126.8843802,1
1574,마방목지,제주특별자치도 제주시 516로 2480,33.4453264,126.5663685,3
1575,엉덩물계곡,제주특별자치도 서귀포시 색달동 3384-4,33.2814107,126.4111118,0
1576,동백동산,제주특별자치도 제주시 조천읍 선흘리 산 12,33.5170339,126.7176118,1
1577,백록담,제주특별자치도 서귀포시 토평동 산 15-1,33.3468318,126.5364535,2
1578,용연계곡,제주특별자치도 제주시 용담일동 2581-4,33.5125972,126.5144321,3
1579,하례감귤체험농장,제주특별자치도 서귀포시 남원읍 중산간동로 6596-3,33.2992401,126.6811519,2
1580,곶자왈,제주특별자치도 서귀포시 대정읍 에듀시티로 178,33.279349,126.2763069,0
1581,서귀다원,제주특별자치도 서귀포시 516로 717,33.3126399,126.5967027,2
1582,유채꽃프라자,제주특별자치도 서귀포시 표선면 녹산로 464-65,33.390274,126.732908,1
1583,검멀레해변,제주특별자치도 제주시 우도면 연평리,33.5033191,126.9556775,1
1584,우도산호해변,제주특별자치도 제주시 우도면 연평리,33.5033191,126.9556775,1
1585,수월봉전망대,제주특별자치도 제주시 한경면 고산리 3760,33.294755,126.1634484,0
1586,산양큰엉곶,제주특별자치도 제주시 한경면 청수리 956-6,33.2908356,126.2501278,0
1587,삼다수숲길,제주특별자치도 제주시 조천읍 교래리 산 70-1,33.4276176,126.6665803,3
1588,한라산 성판악탐방안내소,제주특별자치도 제주시 조천읍 516로 1865,33.3848518,126.6195473,2
1589,알뜨르비행장,제주특별자치도 서귀포시 대정읍 상모리 1670,33.2046641,126.2727667,0
1590,상가리야자숲,제주특별자치도 제주시 애월읍 상가리 536,33.4391766,126.3583243,0
1591,신창풍차해안,제주특별자치도 제주시 한경면 신창리 1290-2,33.3452325,126.1775914,0
1592,수월봉지질트레일,제주특별자치도 제주시 한경면 고산리 3760,33.294755,126.1634484,0
1593,돈내코유원지,제주특별자치도 서귀포시 돈내코로 114,33.3003161,126.5847998,2
1594,수산봉,제주특별자치도 제주시 애월읍 수산리 산 1-1,33.4737592,126.3846826,0
1595,평대리해수욕장,제주특별자치도 제주시 구좌읍 평대리,33.5243749,126.8423829,1
1596,머체왓숲길 방문객지원센터,제주특별자치도 서귀포시 남원읍 서성로 755,33.3245683,126.6627718,2
1597,5.16도로숲터널,제주특별자치도 서귀포시 남원읍 신례리,33.299995,126.6297939,2
1598,아끈다랑쉬오름,제주특별자치도 제주시 구좌읍 세화리 2593-2,33.474032,126.8314889,1
1599,방림원,제주특별자치도 제주시 한경면 용금로 864,33.3370712,126.2687794,0
1600,제주유채꽃도로,제주특별자치도 서귀포시 표선면 가시리,33.3988071,126.7063341,1
1601,큰노꼬메오름,제주특별자치도 제주시 애월읍 유수암리 산 138,33.3923111,126.4152399,0
1602,황우지선녀탕,제주특별자치도 서귀포시 서홍동,33.2639577,126.5507293,2
1603,영주산,제주특별자치도 서귀포시 표선면 성읍리 산 18-1,33.4040171,126.7990445,1
1604,오늘은카트레이싱,제주특별자치도 서귀포시 표선면 중산간동로 4776,33.3662211,126.7805125,1
1605,하고수동해변,제주특별자치도 제주시 우도면 연평리,33.5033191,126.9556775,1
1606,흑돼지거리,제주특별자치도 제주시 일도일동 1492-1,33.5142565,126.5275314,3
1607,제주올레여행자센터,제주특별자치도 서귀포시 중정로 22,33.2474043,126.5587322,2
1608,태웃개,제주특별자치도 서귀포시 남원읍 위미리 69,33.3060336,126.6580882,2
1609,신화워터파크,제주특별자치도 서귀포시 안덕면 신화역사로304번길 38,33.3066927,126.3380858,0
1610,용담해안도로,제주특별자치도 제주시 용담2동,33.5114842,126.5117554,3
1611,엉알해안,제주특별자치도 제주시 한경면 고산리,33.3040691,126.1881455,0
1612,세리월드,제주특별자치도 서귀포시 법환상로2번길 97-17,33.2468934,126.5119875,2
1613,위미동백나무군락,제주특별자치도 서귀포시 남원읍 위미중앙로300번길 23-7,33.2732577,126.6759355,2
1614,문도지오름,제주특별자치도 제주시 한림읍 금악리 3445,33.3266713,126.295129,0
1615,신양섭지해수욕장,제주특별자치도 서귀포시 성산읍 섭지코지로 88,33.4354584,126.9225361,1
1616,차귀도,제주특별자치도 제주시 한경면 고산리 125,33.3010997,126.2056913,0
1617,소정방폭포,제주특별자치도 서귀포시 토평동,33.2844099,126.5796743,2
1618,새별프렌즈,제주특별자치도 제주시 애월읍 평화로 1529,33.3628158,126.3633602,0
1619,사려니숲길 관광안내소,제주특별자치도 서귀포시 표선면 가시리 산 158,33.3988071,126.7063341,1
1620,종달리해변,제주특별자치도 제주시 구좌읍 종달리 622-5,33.4880673,126.8804954,1
1621,고근산,제주특별자치도 서귀포시 서호동 1286-1,33.2663637,126.5123088,2
1622,사라오름,제주특별자치도 서귀포시 남원읍 신례리 산 2-1,33.299995,126.6297939,2
1623,송당무끈모루,제주특별자치도 제주시 구좌읍 송당리 2793,33.4549996,126.7793479,1
1624,성읍랜드,제주특별자치도 서귀포시 표선면 번영로 2650,33.3987468,126.7873305,1
1625,제주목 관아,제주특별자치도 제주시 관덕로 25,33.5140904,126.5222108,3
1626,한라산,제주특별자치도 서귀포시 서홍동 산 1-1,33.3447515,126.5248428,2
1627,하효쇠소깍해변,제주특별자치도 서귀포시 하효동 997-3,33.2514571,126.6224567,2
1628,강정천,제주특별자치도 서귀포시 강정동 5647,33.2566679,126.4748067,2
1629,종달리수국길,제주특별자치도 제주시 구좌읍 종달리,33.4880673,126.8804954,1
1630,금능석물원,제주특별자치도 제주시 한림읍 한림로 176,33.384592,126.2268717,0
1631,민오름,제주특별자치도 제주시 오라이동 산 28-1,33.4752267,126.5072534,3
1632,산물관광농원,제주특별자치도 서귀포시 남원읍 하례로 90,33.2588658,126.6258143,2
1633,몽돌해변,제주특별자치도 제주시 내도동 465-2,33.4960701,126.4408718,3
1634,세기알해변,제주특별자치도 제주시 구좌읍 김녕리 1200-5,33.5576649,126.7564015,1
1635,오저여,제주특별자치도 제주시 구좌읍 행원리 1-91,33.5487399,126.8186267,1
1636,당산봉,제주특별자치도 제주시 한경면 용수리 산 28,33.3082191,126.1729076,0
1637,저지예술인마을,제주특별자치도 제주시 한경면 저지14길 28-4,33.3393046,126.266731,0
1638,붉은오름,제주특별자치도 서귀포시 표선면 가시리 산 158,33.3988071,126.7063341,1
1639,짱구네 유채꽃밭,제주특별자치도 서귀포시 성산읍 수산리 1021,33.4396163,126.8786456,1
1640,서귀포천문과학문화관,제주특별자치도 서귀포시 1100로 506-1,33.2876905,126.4619885,2
1641,조천만세동산,제주특별자치도 제주시 조천읍 신북로 303,33.5415236,126.6425739,3
1642,주상절리관광안내소,제주특별자치도 서귀포시 이어도로 36-30,33.240469,126.493008,2
1643,제주카페거리,제주특별자치도 제주시 용담삼동,33.5164659,126.4922919,3
1644,비양도망대,제주특별자치도 제주시 우도면 연평리,33.5033191,126.9556775,1
1645,추사유배지,제주특별자치도 서귀포시 대정읍 추사로 44,33.249837,126.2786308,0
1646,사려니숲,제주특별자치도 서귀포시 남원읍 수망리,33.3508829,126.6980129,2
1647,도구리알,제주특별자치도 서귀포시 대정읍,33.2268151,126.2522254,0
1648,신흥해수욕장,제주특별자치도 제주시 조천읍 신흥리,33.5447774,126.650164,3
1649,월평마을 아왜낭목 쉼터,제주특별자치도 서귀포시 월평동 738,33.2434851,126.4585916,0
1650,한라산둘레길 수악길,제주특별자치도 서귀포시 남원읍 하례리 산 10-12,33.3420367,126.5884214,2
1651,산천단,제주특별자치도 제주시 아라일동 375-4,33.4473312,126.5545059,3
1652,검은오름,제주특별자치도 제주시 연동 산 110-1,33.4421218,126.4990315,3
1653,쇠머리오름,제주특별자치도 제주시 우도면 연평리 산 23,33.4917225,126.9638534,1
1654,정물오름,제주특별자치도 제주시 한림읍 금악리 산 52-1,33.3376384,126.330349,0
1655,송악산 전망대,제주특별자치도 서귀포시 대정읍 상모리 산 2-13,33.1984435,126.2938879,0
1656,산방산랜드,제주특별자치도 서귀포시 안덕면 사계리 117-2,33.2340862,126.3117458,0
1657,종달리해안도로,제주특별자치도 제주시 구좌읍 종달리 630-1,33.4880673,126.8804954,1
1658,용두암 인증센터,제주특별자치도 제주시 용담이동 493-6,33.5152731,126.5111316,3
1659,올티스,제주특별자치도 제주시 조천읍 거문오름길 23-58,33.4582729,126.7133204,1
1660,화순 곶자왈생태탐방숲길,제주특별자치도 서귀포시 안덕면 화순리,33.2522985,126.3330875,0
1661,한림공원 협재굴,제주특별자치도 제주시 한림읍 협재리,33.3807358,126.2482491,0
1662,제주올레 7코스 여행자센터,제주특별자치도 서귀포시 중정로 22,33.2474043,126.5587322,2
1663,이승이오름,제주특별자치도 서귀포시 남원읍 신례리 산 2-4,33.299995,126.6297939,2
1664,전농로왕벚꽃거리,제주특별자치도 제주시 삼도일동 585-30,33.5043636,126.5184535,3
1665,갯깍주상절리대,제주특별자치도 서귀포시 색달동,33.2814107,126.4111118,0
1666,서우봉 산책로,제주특별자치도 제주시 조천읍 함덕리 163,33.5460806,126.6757452,3
1667,부림온천,제주특별자치도 제주시 과원로 70,33.4758336,126.4914113,3
1668,천아계곡,제주특별자치도 제주시 애월읍 광령리 산 183-2,33.3701721,126.4819697,3
1669,천주교용수성지,제주특별자치도 제주시 한경면 용수1길 108,33.3227927,126.1677958,0
1670,월대천,제주특별자치도 제주시 외도이동 2551,33.4935955,126.4365185,3
1671,소금막해변,제주특별자치도 서귀포시 표선면 표선리,33.3225332,126.8228665,1
1672,돈내코계곡,제주특별자치도 서귀포시 돈내코로 137,33.3005301,126.5817449,2
1673,큰바리메,제주특별자치도 제주시 애월읍 어음리 산 21,33.3783196,126.3875801,0
1674,새섬,제주특별자치도 서귀포시 서귀동 산 3-2,33.2363626,126.5614819,2
1675,생이기정,제주특별자치도 제주시 한경면 용수리,33.3227424,126.1818541,0
1676,고스트타운,제주특별자치도 제주시 애월읍 부룡수길 35-14,33.4749472,126.3553798,0
1677,설록다원도순,제주특별자치도 서귀포시 중산간서로356번길 152-41,33.272975,126.4830571,2
1678,큰엉,제주특별자치도 서귀포시 남원읍 남원리,33.288528,126.7041357,2
1679,제지기오름,제주특별자치도 서귀포시 보목동 275-1,33.240809,126.6101421,2
1680,화순곶자왈,제주특별자치도 서귀포시 안덕면 화순리,33.2522985,126.3330875,0
1681,보롬왓수국길,제주특별자치도 서귀포시 표선면 성읍리,33.4112985,126.7819256,1
1682,제주삼나무길,제주특별자치도 제주시 봉개동,33.4560252,126.609871,3
1683,한라산 웃세붉은오름,제주특별자치도 서귀포시 서호동 산 183-1,33.2804402,126.5170582,2
1684,제주올레1코스 공식안내소,제주특별자치도 서귀포시 성산읍 시흥상동로53번길 88-46,33.4746223,126.8860014,1
1685,두산봉,제주특별자치도 서귀포시 성산읍 시흥리 2661,33.4769611,126.8873013,1
1686,별도봉,제주특별자치도 제주시 화북일동 4472,33.519308,126.5530793,3
1687,애월돌고래전망대,제주특별자치도 제주시 애월읍 신엄리 2731,33.4785983,126.3635626,0
1688,베릿내오름,제주특별자치도 서귀포시 중문동 3712,33.2514303,126.4348243,0
1689,윗세오름,제주특별자치도 서귀포시 서호동 산 1-1,33.3450493,126.5201639,2
1690,외돌개 전망대,제주특별자치도 서귀포시 서홍동 794-11,33.2400137,126.5461007,2
1691,쉬리의언덕,제주특별자치도 서귀포시 색달동 3039-41,33.2814107,126.4111118,0
1692,거슨세미오름,제주특별자치도 제주시 구좌읍 송당리 산 145,33.4505745,126.759182,1
1693,수산저수지,제주특별자치도 제주시 애월읍 수산리,33.4629834,126.3888949,0
1694,제주커피수목원,제주특별자치도 서귀포시 안덕면 사계리 3136,33.2385352,126.2873322,0
1695,트로이테마농원,제주특별자치도 서귀포시 안덕면 녹차분재로 56,33.2923161,126.2996588,0
1696,한림공원 아열대식물원,제주특별자치도 제주시 한림읍 한림로 300,33.3894949,126.2396825,0
1697,제주웰컴센터,제주특별자치도 제주시 선덕로 23,33.4863166,126.4990979,3
1698,제주탐나라공화국,제주특별자치도 제주시 한림읍 한창로 897,33.3497668,126.3055719,0
1699,성산일출해양도립공원,제주특별자치도 서귀포시 성산읍 성산리,33.4699253,126.932416,1
1700,김녕성세기해변 인증센터,제주특별자치도 제주시 구좌읍 김녕리 497-4,33.5569898,126.7601985,1
1701,한남시험림탐방,제주특별자치도 서귀포시 남원읍 서성로651번길 235,33.3369241,126.6478671,2
1702,1100고지습지 람사르습지,제주특별자치도 서귀포시 색달동 산 1-1,33.2569808,126.3864531,0
1703,산지천,제주특별자치도 제주시 일도1동,33.515012,126.5265039,3
1704,강정천유원지,제주특별자치도 서귀포시 강정동,33.2615636,126.49447,2
1705,알작지해변,제주특별자치도 제주시 내도동 465-2,33.4960701,126.4408718,3
1706,함덕서우봉해변 인증센터,제주특별자치도 제주시 조천읍 함덕리 산 14-53,33.5424495,126.6681379,3
1707,단산,제주특별자치도 서귀포시 대정읍 인성리 21-2,33.2423313,126.2869083,0
1708,느지리오름,제주특별자치도 제주시 한림읍 상명리 산 5,33.3653429,126.2613767,0
1709,녹차동굴,제주특별자치도 서귀포시 표선면 성읍리 2192,33.3815749,126.7869091,1
1710,섯알오름,제주특별자치도 서귀포시 대정읍 상모리 1593-2,33.2065743,126.281281,0
1711,산양곶자왈,제주특별자치도 제주시 한경면 청수리 6,33.3188801,126.2615687,0
1712,대록산,제주특별자치도 서귀포시 표선면 가시리 산 68-9,33.3988071,126.7063341,1
1713,비블리아성서식물원,제주특별자치도 제주시 한림읍 조성로 17,33.352739,126.2776266,0
1714,어음리억새군락지,제주특별자치도 제주시 애월읍 어음리 산 68-5,33.3800321,126.367823,0
1715,월정리카페거리,제주특별자치도 제주시 구좌읍 월정리 652-4,33.5565713,126.794969,1
1716,새미동산,제주특별자치도 제주시 조천읍 종인내길 133,33.4920507,126.6263481,3
1717,귤의 정원 바령,제주특별자치도 제주시 조천읍 선흘남3길 87,33.4777041,126.7135515,1
1718,남원용암해수풀장,제주특별자치도 서귀포시 남원읍 남태해안로 140,33.2812109,126.7340308,2
1719,일출랜드 미천굴,제주특별자치도 서귀포시 성산읍 중산간동로 4150-30,33.3835243,126.8413634,1
1720,우도정원,제주특별자치도 제주시 우도면 연평리 1964,33.5019025,126.947025,1
1721,위미동백나무군락,제주특별자치도 서귀포시 남원읍 위미중앙로300번길 15,33.2729065,126.6750488,2
1722,루나폴,제주특별자치도 서귀포시 안덕면 일주서로 1836,33.256807,126.321633,0
1723,제주성지,제주특별자치도 제주시 오현길 61,33.5101353,126.525622,3
1724,연북정,제주특별자치도 제주시 조천읍 조천리 2690,33.5401445,126.6360419,3
1725,절물오름,제주특별자치도 제주시 봉개동 산 78-1,33.4393726,126.6284479,3
1726,오드싱오름,제주특별자치도 제주시 오등동 1554,33.471431,126.5216101,3
1727,알오름,제주특별자치도 제주시 구좌읍 종달리 산 13-1,33.4880673,126.8804954,1
1728,수산한못,제주특별자치도 서귀포시 성산읍 수산리 3990,33.4288322,126.8432339,1
1729,돔베낭골,제주특별자치도 서귀포시 호근동,33.2613388,126.5332641,2
1730,절물자연휴양림 장생의숲길,제주특별자치도 제주시 봉개동 산 78-1,33.4393726,126.6284479,3
1731,제주 종달리전망대,제주특별자치도 제주시 구좌읍 해맞이해안로 2196,33.5291668,126.8538817,1
1732,영락리 방파제,제주특별자치도 서귀포시 대정읍 무릉리 3783-3,33.270264,126.2004199,0
1733,과물노천탕,제주특별자치도 제주시 애월읍 곽지리 1566,33.4499354,126.3041839,0
1734,제주올레19코스 공식안내소,제주특별자치도 제주시 조천읍 조천북6길 44,33.5344076,126.6342455,3
1735,거린사슴 전망대,제주특별자치도 서귀포시 1100로 823,33.3073168,126.4548441,0
1736,성산일출봉 인증센터,제주특별자치도 서귀포시 성산읍 오조리 2-3,33.4685956,126.9242488,1
1737,다락쉼터 인증센터,제주특별자치도 제주시 애월읍 고내리 462,33.4699842,126.3403826,0
1738,법환바당 인증센터,제주특별자치도 서귀포시 막숙포로 61,33.2357749,126.5151584,2
1739,황우치해변,제주특별자치도 서귀포시 안덕면 사계리 79-4,33.2390556,126.3170618,0
1740,대수산봉,제주특별자치도 서귀포시 성산읍 고성리 2039-1,33.4382802,126.9036728,1
1741,황우지해안열두굴,제주특별자치도 서귀포시 서홍동 764-1,33.2419727,126.5507892,2
1742,라온쥬,제주특별자치도 제주시 한림읍 월림리 2365 더마파크 내,33.3542436,126.243167,0
1743,잃어버린마을곤을동,제주특별자치도 제주시 화북일동 4440,33.5217207,126.5571865,3
1744,광치기중간,제주특별자치도 서귀포시 성산읍 고성리,33.4445754,126.9095025,1
1745,삼매봉,제주특별자치도 서귀포시 서홍동 819,33.2439423,126.5463564,2
1746,복자 김기량 순교현양비,제주특별자치도 제주시 조천읍 일주동로 1216,33.5393114,126.6638893,3
1747,왕이메,제주특별자치도 서귀포시 안덕면 광평리 산 79,33.340233,126.374785,0
1748,원당봉,제주특별자치도 제주시 조천읍 신촌리 산 1,33.5256504,126.6006948,3
1749,아라고나이트 고온천,제주특별자치도 서귀포시 안덕면 산록남로762번길 71 디아넥스 1층,33.3057651,126.3888509,0
1750,송악산 진지동굴,제주특별자치도 서귀포시 대정읍 상모리,33.2218976,126.2741296,0
1751,식산봉,제주특별자치도 서귀포시 성산읍 오조리 313,33.4656758,126.9196473,1
1752,송악산 인증센터,제주특별자치도 서귀포시 대정읍 상모리 157-2,33.2067186,126.2895952,0
1753,세미양오름,제주특별자치도 제주시 아라일동 산 24-2 일대,33.4398125,126.5619905,3
1754,서건도,제주특별자치도 서귀포시 강정동 산 1,33.23033,126.4984729,2
1755,보목해안도로,제주특별자치도 서귀포시 보목동,33.2460103,126.6009132,2
1756,올레요7쉼터,제주특별자치도 서귀포시 이어도로 826-86,33.2339546,126.5025264,2
1757,김녕금속공예벽화마을,제주특별자치도 제주시 구좌읍 김녕리 4026,33.558005,126.7465001,1
1758,선인장자생지,제주특별자치도 제주시 한림읍 월령리,33.3699811,126.2246483,0
1759,한라산 정상안내소,제주특별자치도 서귀포시 상효동,33.3306923,126.5673572,2
1760,감사공묘역,제주특별자치도 제주시 조천읍 함대로 362,33.5130047,126.66087,3
1761,수산봉둘레길,제주특별자치도 제주시 애월읍 구엄리,33.4797356,126.3819332,0
1762,제주모슬포알뜨르비행장 일제 지하벙커,제주특별자치도 서귀포시 대정읍 상모리 1670,33.2046641,126.2727667,0
1763,새별오름관광타운,제주특별자치도 제주시 애월읍 평화로 1529,33.3628158,126.3633602,0
1764,치유의숲 방문자센터,제주특별자치도 서귀포시 산록남로 2271,33.3017887,126.5095926,2
1765,김녕사굴,제주특별자치도 제주시 구좌읍 김녕리 201-4,33.5439116,126.7755357,1
1766,제주올레16코스 공식안내소,제주특별자치도 제주시 애월읍 고내리 1103-1,33.4671246,126.3387774,0
1767,추억의숲길,제주특별자치도 서귀포시 산록남로 2271,33.3017887,126.5095926,2
1768,솜반천,제주특별자치도 서귀포시 서홍동 1212-4,33.25239,126.5536702,2
1769,한라산영실,제주특별자치도 서귀포시 도순동 산 1,33.3098899,126.4744626,2
1770,표선해안도로,제주특별자치도 서귀포시 표선면 표선리,33.3225332,126.8228665,1
1771,붉은오름,제주특별자치도 서귀포시 성산읍 섭지코지로 261,33.4257554,126.931741,1
1772,돛오름,제주특별자치도 제주시 구좌읍 송당리 산 3,33.4803459,126.7995911,1
1773,형제섬,제주특별자치도 서귀포시 안덕면 사계리 산 44,33.210003,126.3144328,0
1774,제주곶자왈도립공원 탐방안내소,제주특별자치도 서귀포시 대정읍 에듀시티로 178,33.279349,126.2763069,0
1775,매오름,제주특별자치도 서귀포시 표선면 세화리 산 7,33.318663,126.811817,1
1776,바농오름,제주특별자치도 제주시 조천읍 교래리 산 108,33.4276176,126.6665803,3
1777,해거름마을공원 인증센터,제주특별자치도 제주시 한경면 판포리 1608-4,33.3700163,126.206681,0
1778,대정향교,제주특별자치도 서귀포시 안덕면 향교로 165-17,33.2393513,126.2883891,0
1779,제주올레5코스 공식안내소,제주특별자치도 서귀포시 남원읍 남태해안로 140,33.2812109,126.7340308,2
1780,동검은이오름,제주특별자치도 제주시 구좌읍 종달리 산 70,33.4880673,126.8804954,1
1781,월라봉,제주특별자치도 서귀포시 안덕면 감산리 1144,33.2439695,126.3497832,0
1782,편백나무숲,제주특별자치도 제주시 아라일동 산 31-8,33.443698,126.5562976,3
1783,당오름,제주특별자치도 제주시 구좌읍 송당리 산 199-1,33.4684776,126.7757638,1
1784,높은오름,제주특별자치도 제주시 구좌읍 송당리 산 213-1,33.4576129,126.7921824,1
1785,열리해안도로,제주특별자치도 서귀포시 하예동,33.240031,126.3803208,0
1786,안세미오름,제주특별자치도 제주시 봉개동 산 2,33.4682542,126.6063061,3
1787,무병장수테마파크,제주특별자치도 제주시 애월읍 어음13길 196,33.3954527,126.3610827,0
1788,관곶,제주특별자치도 제주시 조천읍 신흥리,33.5447774,126.650164,3
1789,원물오름,제주특별자치도 서귀포시 안덕면 동광리 산 41,33.3226391,126.3456997,0
1790,도두추억애거리,제주특별자치도 제주시 도두일동,33.500359,126.4729644,3
1791,별도봉산책로,제주특별자치도 제주시 화북일동 4558,33.5199823,126.5551563,3
1792,숫모르숲길,제주특별자치도 제주시 516로 2596,33.430924,126.595761,3
1793,제주4.3 안덕 평화공원,제주특별자치도 서귀포시 안덕면 사계리 3630,33.2412295,126.3223524,0
1794,송당본향당,제주특별자치도 제주시 구좌읍 송당리 산 199-1,33.4684776,126.7757638,1
1795,개오름,제주특별자치도 서귀포시 표선면 성읍리 2974,33.4239746,126.7687182,1
1796,범섬,제주특별자치도 서귀포시 법환동,33.2444206,126.5108962,2
1797,한라산사라오름 산정호수,제주특별자치도 서귀포시 남원읍 신례리 산 2-1,33.299995,126.6297939,2
1798,신화가든,제주특별자치도 서귀포시 안덕면 서광리 산 24-8,33.3017501,126.3206458,0
1799,모슬봉,제주특별자치도 서귀포시 대정읍 동일리 2081-3,33.2400794,126.2581715,0
1800,민오름,제주특별자치도 제주시 봉개동 산 64 일대,33.4363994,126.6366437,3
1801,고근산 산책로,제주특별자치도 서귀포시 서호동 1286-1,33.2663637,126.5123088,2
1802,미악산,제주특별자치도 서귀포시 동홍동 2195,33.2663197,126.5671727,2
1803,제주향농원,제주특별자치도 서귀포시 일주서로 661,33.2584326,126.4353135,0
1804,이중섭거주지,제주특별자치도 서귀포시 이중섭로 29,33.2455319,126.564526,2
1805,족은노꼬메오름,제주특별자치도 제주시 애월읍 유수암리 산 138,33.3923111,126.4152399,0
1806,우뭇개해안,제주특별자치도 서귀포시 성산읍 성산리,33.4699253,126.932416,1
1807,서우봉 일몰지,제주특별자치도 제주시 조천읍 함덕리 129,33.5482434,126.6772573,3
1808,정난주마리아묘,제주특별자치도 서귀포시 대정읍 동일리 10-1,33.2544822,126.2607808,0
1809,제주올레14코스 공식안내소,제주특별자치도 제주시 한경면 저지리 1843-4,33.3337472,126.2562749,0
1810,개다리폭포,제주특별자치도 서귀포시 색달동 3101-1,33.2814107,126.4111118,0
1811,세리월드 카트레이싱,제주특별자치도 서귀포시 법환동 881-2,33.2467308,126.5116619,2
1812,톨칸이해변,제주특별자치도 제주시 우도면 연평리,33.5033191,126.9556775,1
1813,다랑쉬굴,제주특별자치도 제주시 구좌읍 세화리 2608-3,33.4680066,126.8314966,1
1814,중엄새물,제주특별자치도 제주시 애월읍 신엄리,33.4663359,126.3688876,0
