place,address,Latitude,Longitude,category,k_means_cluster,인기지수,환경,친환경
고집돌우럭중문점,제주특별자치도 서귀포시 일주서로 879 1층,33.2579925,126.4167597,식당,0,0.6271542959535511,5,2
칠돈가본점,제주특별자치도 제주시 서천길 1 1층,33.501532,126.5106976,식당,3,0.108777224807422,2,0
돈이랑본점,제주특별자치도 서귀포시 일주서로 953,33.257733,126.4087182,식당,0,0.3485572388814646,2,0
성산일출봉청운식당,제주특별자치도 서귀포시 성산읍 일출로 285 1층,33.4630532,126.9348949,식당,1,0.3018159037116524,2,0
선흘곶,제주특별자치도 제주시 조천읍 동백로 102,33.5081874,126.718049,식당,1,0.1993341281201427,2,0
산방산초가집,제주특별자치도 서귀포시 안덕면 화순해안로 189,33.2455947,126.3387238,식당,0,0.2379104791564677,2,0
숙성도중문점,"제주특별자치도 서귀포시 일주서로 966 1,2층",33.2584326,126.4353135,식당,0,0.1806740456250061,2,0
돈사돈월정점,제주특별자치도 제주시 구좌읍 한동북1길 29-3 1층,33.5411284,126.8280985,식당,1,0.1258507672765236,2,0
모메존흑돼지,제주특별자치도 제주시 구좌읍 세화1길 17 1층,33.5253289,126.8544273,식당,1,0.175735849237523,2,0
우진해장국,제주특별자치도 제주시 서사로 11,33.5114884,126.5200864,식당,3,0.4233903254750907,1,0
미영이네식당,제주특별자치도 서귀포시 대정읍 하모항구로 42,33.2176507,126.2499045,식당,0,0.2585270052505473,1,0
해왓,제주특별자치도 서귀포시 성산읍 신고로 30-1,33.43851,126.9171019,식당,1,0.2013801290129051,1,0
다정이네올레시장본점,제주특별자치도 서귀포시 동문로 59-1,33.2494552,126.5669792,식당,2,0.231372078756762,1,0
흑돼지BBQ,제주특별자치도 서귀포시 태평로353번길 7,33.2468281,126.5597385,식당,2,0.2822755023800236,1,0
복자씨연탄구이,제주특별자치도 서귀포시 성산읍 해맞이해안로 2764,33.4692355,126.9198688,식당,1,0.2699489390433338,1,0
돈사돈별관,제주특별자치도 제주시 광평동로 15 1층,33.4816791,126.470795,식당,3,0.1422951592014509,1,0
램앤블랙(구.램하우스),제주특별자치도 제주시 조천읍 교래1길 45,33.4362496,126.6736319,식당,3,0.3329917621056861,1,0
흑돼지패밀리,제주특별자치도 서귀포시 남원읍 중산간동로 6924,33.2882567,126.6510896,식당,2,0.2472806800949676,1,0
올레삼다정,제주특별자치도 서귀포시 태평로537번길 48,33.2530797,126.569959,식당,2,0.2478436525209793,1,0
애월연어,제주특별자치도 제주시 애월읍 하소로 660,33.4256269,126.3957718,식당,0,0.2576976989577023,1,0
스시권,제주특별자치도 제주시 노형로 401,33.4854144,126.4779779,식당,3,0.2128381360762574,1,0
함쉐프키친,제주특별자치도 서귀포시 대포중앙로 116,33.2456029,126.4324826,식당,0,0.1930155961598373,1,0
갈치공장,제주특별자치도 제주시 구좌읍 해맞이해안로 1296,33.5291668,126.8538817,식당,1,0.3075990069995106,1,0
연리지가든,제주특별자치도 제주시 한경면 두조로 190-20 다동 1층,33.3444986,126.2027639,식당,0,0.1135810767902272,0,1
연돈,제주특별자치도 서귀포시 일주서로 968-10 1층,33.2589317,126.4072788,식당,0,0.1983721315322084,0,0
숙성도노형점,제주특별자치도 제주시 원노형로 41,33.4850283,126.4850965,식당,3,0.1758675405415577,0,0
고집돌우럭제주공항점,제주특별자치도 제주시 임항로 30,33.5163432,126.5281752,식당,3,0.3975667949569949,0,0
고집돌우럭함덕점,제주특별자치도 제주시 조천읍 신북로 491-9 2층,33.5430312,126.6627219,식당,3,0.4340923513665669,0,0
색달식당중문갈치조림구이본점,제주특별자치도 서귀포시 예래로 255-18 하예동350 색달식당중문본점,33.2451213,126.3852784,식당,0,0.3818664902120424,0,0
이춘옥의원조고등어쌈밥,제주특별자치도 제주시 애월읍 일주서로 7213 1층,33.4889528,126.4187075,식당,3,0.2274042221120036,0,0
제주김만복본점,제주특별자치도 제주시 오라로 41,33.4968071,126.5111965,식당,3,0.1977523895571004,0,0
중문수두리보말칼국수,제주특별자치도 서귀포시 천제연로 192 1층,33.2515765,126.4251078,식당,0,0.2905110812465405,0,0
맛나식당,제주특별자치도 서귀포시 성산읍 동류암로 41,33.4485794,126.9160712,식당,1,0.1829231554856518,0,0
곰막식당,제주특별자치도 제주시 구좌읍 구좌해안로 64,33.5570179,126.7278068,식당,1,0.2041089090165276,0,0
춘심이네본점,제주특별자치도 서귀포시 안덕면 창천중앙로24번길 16,33.2647393,126.3705871,식당,0,0.2140180134225493,0,0
은희네해장국본점,제주특별자치도 제주시 고마로13길 8,33.5085228,126.5408037,식당,3,0.0625426895814885,0,0
착한집,제주특별자치도 제주시 서광로 98,33.4999552,126.5070561,식당,3,0.2469347305635031,0,0
한림칼국수,제주특별자치도 제주시 한림읍 한림해안로 141,33.4155701,126.2615642,식당,0,0.1253924992512432,0,0
바다를본돼지제주협재판포본점,제주특별자치도 제주시 한경면 판포1길 16 1층,33.3654583,126.1979731,식당,0,0.1204540888085192,0,0
더바루시아,제주특별자치도 서귀포시 안덕면 난드르로 49-19,33.2349631,126.363794,식당,0,0.1158638793239814,0,0
제주김만복애월점,제주특별자치도 제주시 애월읍 애월해안로 255 2층,33.4782235,126.3665625,식당,0,0.1978503342854484,0,0
김희선제주몸국,제주특별자치도 제주시 어영길 45-6 1층,33.5185392,126.4981208,식당,3,0.2016177306371439,0,0
제주오성식당,제주특별자치도 서귀포시 중문관광로 27 2층,33.2487954,126.4198849,식당,0,0.291851370928829,0,0
신설오름,제주특별자치도 제주시 고마로17길 2,33.505459,126.5416299,식당,3,0.2012622835179176,0,0
바다를본돼지제주서귀포점,제주특별자치도 서귀포시 칠십리로 123 2층,33.2431104,126.5675903,식당,2,0.2055163144727169,0,0
삼대국수회관본점,제주특별자치도 제주시 삼성로 41,33.5068926,126.5301142,식당,3,0.1203767149624849,0,0
제주김만복동문시장점,제주특별자치도 제주시 북성로 65 1층,33.5156844,126.5208593,식당,3,0.2445389192457076,0,0
갈치왕중문점,제주특별자치도 서귀포시 일주서로 1146,33.2646227,126.3908426,식당,0,0.2992302212623879,0,0
국수마당본점,제주특별자치도 제주시 삼성로 65,33.5080638,126.5322532,식당,3,0.1492962828931538,0,0
고이정본점,제주특별자치도 제주시 애월읍 애월로 6 A동 1층,33.4630969,126.3173357,식당,0,0.2987625395950697,0,0
상춘재,제주특별자치도 제주시 조천읍 선진길 26 1층,33.4586588,126.7048435,식당,1,0.2416913450964434,0,0
살아있는해물뚝배기어마장장,제주특별자치도 제주시 성지로 62,33.5110843,126.5299184,식당,3,0.2167949732126998,0,0
당케올레국수,제주특별자치도 서귀포시 표선면 민속해안로 584,33.3229914,126.8248631,식당,1,0.1389821487898377,0,0
국수바다본점,제주특별자치도 서귀포시 일주서로 982,33.2584326,126.4353135,식당,0,0.1211959892993407,0,0
만덕이네,제주특별자치도 서귀포시 표선면 서성일로 16,33.3933279,126.8012316,식당,1,0.1172065350906507,0,0
원담,제주특별자치도 제주시 동광로1길 13,33.5021631,126.5288339,식당,3,0.2212198018977133,0,0
일통이반,제주특별자치도 제주시 중앙로2길 25 1층,33.5170648,126.5221484,식당,3,0.0332783479097677,0,0
큰돈가중문점,"제주특별자치도 서귀포시 천제연로 89 1,2층",33.2551064,126.4152612,식당,0,0.2499721568049234,0,0
국시트멍,제주특별자치도 제주시 진군길 31-3 1층,33.4793473,126.4813944,식당,3,0.1938532914797212,0,0
충민정,제주특별자치도 제주시 남성로 26-1,33.5025067,126.5132852,식당,3,0.3504769107631633,0,0
스시애월,제주특별자치도 제주시 애월읍 애월로9길 50-3,33.4665125,126.3193173,식당,0,0.2363001878976305,0,0
제주어멍통갈치,제주특별자치도 제주시 서해안로 372,33.5116588,126.4843053,식당,3,0.2588262451402409,0,0
솔지식당,제주특별자치도 제주시 월랑로 88,33.4924474,126.4726221,식당,3,0.1671429953422605,0,0
문개항아리조천본점,제주특별자치도 제주시 조천읍 조함해안로 217-1,33.5534876,126.6440569,식당,3,0.4148304247934296,0,0
치저스,제주특별자치도 제주시 구좌읍 비자림로 1785,33.467852,126.7724183,식당,1,0.2548444132732355,0,0
동해미락,제주특별자치도 서귀포시 칠십리로 133,33.2436722,126.5683032,식당,2,0.2113809141175608,0,0
해월정,제주특별자치도 제주시 구좌읍 해맞이해안로 2340,33.5291668,126.8538817,식당,1,0.2010996344844682,0,0
모살물,제주특별자치도 제주시 삼무로3길 14,33.4904731,126.4945135,식당,3,0.0587934217873302,0,0
제주에가면,제주특별자치도 제주시 탑동로 119 1층,33.5147226,126.5180767,식당,3,0.2359506130358152,0,0
별돈별정원점,제주특별자치도 제주시 한경면 고산로8길 21-15 1층,33.3079882,126.1803326,식당,0,0.1427145116049017,0,0
다가미,제주특별자치도 제주시 도남로 111,33.4904468,126.5287275,식당,3,0.1282134144130263,0,0
골막식당,제주특별자치도 제주시 천수로 12,33.5024655,126.5384668,식당,3,0.1781694727327221,0,0
제주김만복김밥서귀포점,제주특별자치도 서귀포시 월드컵로 117 1층,33.2390498,126.5068234,식당,2,0.2038396720092434,0,0
고씨네천지국수,제주특별자치도 서귀포시 중앙로79번길 4,33.2517365,126.560833,식당,2,0.2637183415164951,0,0
올레왕갈치,제주특별자치도 서귀포시 중앙로42번길 9 1층,33.248556,126.5628176,식당,2,0.2461124832307298,0,0
도토리키친본점,제주특별자치도 제주시 북성로 59 1층,33.5153851,126.5186671,식당,3,0.1828087135368149,0,0
산방식당,제주특별자치도 서귀포시 대정읍 하모이삼로 62,33.223395,126.2543017,식당,0,0.133224686657064,0,0
연동마라도횟집,제주특별자치도 제주시 신광로8길 3,33.4868335,126.4895539,식당,3,0.1310123952728845,0,0
뽈살집제주본점,제주특별자치도 서귀포시 중정로91번길 41 1층,33.2508467,126.5629443,식당,2,0.2530833727129246,0,0
산도롱맨도롱,제주특별자치도 제주시 구좌읍 해맞이해안로 2284 1층,33.5291668,126.8538817,식당,1,0.0352518220955836,0,0
신우성흑돼지,제주특별자치도 서귀포시 중문관광로72번길 29-9,33.2496778,126.4113633,식당,0,0.3305215268821272,0,0
국수만찬,제주특별자치도 제주시 은남3길 1,33.4871347,126.4955611,식당,3,0.2486269392720551,0,0
옥만이네,제주특별자치도 제주시 한림읍 한림해안로 160 1층,33.4164432,126.2635216,식당,0,0.1261272320719011,0,0
훈남횟집,제주특별자치도 제주시 조천읍 함덕13길 7 1층,33.5420803,126.6679293,식당,3,0.2341707991223992,0,0
은혜전복,제주특별자치도 제주시 애월읍 애월로1길 24-3,33.4624642,126.3102678,식당,0,0.1932239037411686,0,0
산지해장국,제주특별자치도 제주시 임항로 34 1층,33.5163515,126.5285668,식당,3,0.2203418660180985,0,0
제주마당,제주특별자치도 제주시 도리로 50 2층,33.5008197,126.4643053,식당,3,0.1554774498729327,0,0
이금돈지,제주특별자치도 제주시 노연로 143,33.4860864,126.4954286,식당,3,0.1196646138158307,0,0
효퇴국수,제주특별자치도 제주시 서사로 122-1,33.5015363,126.5196628,식당,3,0.137701011472641,0,0
데미안,제주특별자치도 제주시 한경면 고조로 492-15 1층,33.3158471,126.2025732,식당,0,0.3375858464677487,0,0
부두식당,제주특별자치도 서귀포시 대정읍 하모항구로 62,33.2187678,126.2511222,식당,0,0.1506522482077135,0,0
바당길,제주특별자치도 제주시 한림읍 한림서길 18,33.4097548,126.2585778,식당,0,0.1537023255305135,0,0
자리돔횟집,제주특별자치도 서귀포시 동홍동로 7,33.2555395,126.5747673,식당,2,0.1966378330586401,0,0
소금바치순이네,제주특별자치도 제주시 구좌읍 해맞이해안로 2196,33.5291668,126.8538817,식당,1,0.2472520620997204,0,0
은희네해장국서귀포점,제주특별자치도 서귀포시 516로 84,33.3384938,126.61069,식당,2,0.2013206544839676,0,0
시골길,제주특별자치도 제주시 연동13길 9,33.4888428,126.494786,식당,3,0.2054549085872769,0,0
로빙화,"제주특별자치도 서귀포시 남원읍 남태해안로 13 1, 2층",33.2751317,126.7093291,식당,2,0.2437621904939145,0,0
은희네해장국함덕점,제주특별자치도 제주시 조천읍 조함해안로 480,33.5430105,126.6642252,식당,3,0.1220660081601316,0,0
애월흑돼지애월그때그집본점,제주특별자치도 제주시 애월읍 애월해안로 97 1층,33.4782235,126.3665625,식당,0,0.2847022637821544,0,0
깡촌흑돼지,제주특별자치도 제주시 조천읍 함덕14길 2,33.5412881,126.6671156,식당,3,0.2262747174973861,0,0
천짓골식당,제주특별자치도 서귀포시 중앙로41번길 4,33.2482417,126.5613677,식당,2,0.1935123788655696,0,0
바다속고등어쌈밥,제주특별자치도 제주시 애월읍 일주서로 7089,33.4842697,126.4068534,식당,3,0.0788863171674457,0,0
가시식당,제주특별자치도 서귀포시 표선면 가시로565번길 22,33.3531055,126.7715294,식당,1,0.1142808396706973,0,0
산지물본점,제주특별자치도 제주시 임항로 26,33.5162775,126.5275789,식당,3,0.0400968009082022,0,0
몬스터살롱,제주특별자치도 제주시 애월읍 일주서로 6017,33.4482531,126.3072817,식당,0,0.2414652014046203,0,0
제주판타스틱버거,제주특별자치도 서귀포시 표선면 토산중앙로15번길 6,33.3084898,126.7790718,식당,1,0.2074727374780114,0,0
한림칼국수공항점,제주특별자치도 제주시 광평중길 82,33.4788593,126.4676751,식당,3,0.158833901838101,0,0
난드르바당,제주특별자치도 서귀포시 하예하동로16번길 11-1,33.2346331,126.3712777,식당,0,0.1569097650393181,0,0
갈치요리전문점만족한상회,제주특별자치도 서귀포시 중문상로 58-5 1층,33.2532837,126.4267136,식당,0,0.288833157497923,0,0
남춘식당,제주특별자치도 제주시 청귤로 12,33.4996504,126.5375918,식당,3,0.2013662819971615,0,0
진아떡집,제주특별자치도 제주시 동문로4길 7-1,33.5123688,126.5284577,식당,3,0.2434449443460025,0,0
봉순이네흑돼지,제주특별자치도 서귀포시 대정읍 영어도시로 64 1층,33.2798179,126.2737676,식당,0,0.2330701467659316,0,0
촌촌해녀촌,제주특별자치도 제주시 구좌읍 동복로 35,33.5534723,126.710211,식당,1,0.098790935364123,0,0
제주늘봄,제주특별자치도 제주시 고사마루길 6,33.4797692,126.4717107,식당,3,0.0304032496039813,0,0
제주한라국수,제주특별자치도 서귀포시 천제연로188번길 17,33.2502561,126.4245006,식당,0,0.1304131092301493,0,0
곱들락,제주특별자치도 제주시 조천읍 함덕18길 19 101호,33.5386457,126.6711623,식당,3,0.2321437153962259,0,0
태광식당,제주특별자치도 제주시 탑동로 142,33.5126542,126.5187352,식당,3,0.1552042196036428,0,0
안녕협재씨제주협재점,제주특별자치도 제주시 한림읍 금능길 12 1층,33.3881374,126.2294884,식당,0,0.2083197413811794,0,0
은희네해장국2호점,제주특별자치도 제주시 연북로 178,33.481375,126.5003537,식당,3,0.1117266258920273,0,0
제주약수터본점,제주특별자치도 서귀포시 중앙로 35 1층,33.2477094,126.5617231,식당,2,0.2570976953109025,0,0
오롯,제주특별자치도 제주시 신설로11길 2-10 1층,33.4912804,126.5445739,식당,3,0.2153303065709504,0,0
장수물식당,제주특별자치도 제주시 연문2길 18,33.491902,126.4986712,식당,3,0.1987417390327452,0,0
닻,제주특별자치도 제주시 애월읍 하귀2리 2726,33.4860879,126.3921047,식당,0,0.1269092193375807,0,0
황해식당,제주특별자치도 제주시 우정로 6 1층,33.4923356,126.4307048,식당,3,0.2208811029218615,0,0
하원가흑돼지,제주특별자치도 서귀포시 이어도로 278,33.240469,126.493008,식당,2,0.3128311136260198,0,0
정직한돈본점,제주특별자치도 제주시 애월읍 애월해안로 253,33.4675271,126.339144,식당,0,0.2583320683395633,0,0
골목,제주특별자치도 제주시 조천읍 함덕7길 6-14,33.5438536,126.6618188,식당,3,0.5942535664054652,0,0
만월당,제주특별자치도 제주시 구좌읍 월정1길 56 1층,33.5561414,126.7930377,식당,1,0.2481635585853776,0,0
고등어쌈밥,제주특별자치도 서귀포시 성산읍 섭지코지로25번길 122-5,33.4494963,126.920717,식당,1,0.0509455554415574,0,0
공천포식당,제주특별자치도 서귀포시 남원읍 공천포로 89,33.2664055,126.6426731,식당,2,0.1943710446300569,0,0
식당마요네즈,제주특별자치도 제주시 다랑곶3길 18 1층,33.4888858,126.4787446,식당,3,0.1739112511557177,0,0
순수한둠비,제주특별자치도 제주시 서문로 37-11 1층,33.5111219,126.5145499,식당,3,0.2068358081252371,0,0
더꽃돈협재점,제주특별자치도 제주시 한림읍 한림로 366 1층,33.3953254,126.2426345,식당,0,0.2114526823387584,0,0
부촌,제주특별자치도 서귀포시 성산읍 동류암로 33,33.4489266,126.9170058,식당,1,0.218855309422504,0,0
제주본참숯불갈비,제주특별자치도 제주시 원노형남1길 31,33.4840958,126.4838238,식당,3,0.2109509444004821,0,0
제주순풍신제주본점,제주특별자치도 제주시 진군남4길 7-8,33.4751419,126.4804727,식당,3,0.0270444042595942,0,0
제주육대표,제주특별자치도 제주시 일주서로 7895,33.49416,126.490252,식당,3,0.2141666635090977,0,0
오현돼지불백,제주특별자치도 제주시 성지로 58-2,33.5110174,126.5296752,식당,3,0.1768036876694119,0,0
대춘해장국본점,제주특별자치도 제주시 연북로 398 1층,33.4858923,126.518754,식당,3,0.2259346454569231,0,0
공항흑돼지시청그때그집,제주특별자치도 제주시 동광로1길 11 1층,33.501931,126.5289562,식당,3,0.2499152509620771,0,0
미스칠,제주특별자치도 제주시 일주서로 7831 1층,33.4870785,126.4162422,식당,3,0.1737743554796792,0,0
용두암해촌,제주특별자치도 제주시 서해안로 614,33.5169913,126.5028155,식당,3,0.3120541870051631,0,0
제주국담,제주특별자치도 제주시 신대로12길 17,33.4885955,126.4947633,식당,3,0.2197776771893752,0,0
순천미향,제주특별자치도 서귀포시 안덕면 사계남로216번길 24-73,33.2356687,126.3125597,식당,0,0.2667531726727455,0,0
88버거,제주특별자치도 서귀포시 동문로 63,33.2492549,126.5672067,식당,2,0.2763325456281649,0,0
돈블랙서귀포본점,제주특별자치도 서귀포시 서호남로32번길 24,33.2541205,126.560076,식당,2,0.2852417537142895,0,0
바다를본돼지제주노형점,제주특별자치도 제주시 정존15길 42 1층,33.4873081,126.476879,식당,3,0.1111316647439005,0,0
대기정,제주특별자치도 서귀포시 이어도로 41,33.2403093,126.4286681,식당,0,0.22669879156606,0,0
산지물신제주점,제주특별자치도 제주시 신대로10길 53,33.4907865,126.4910735,식당,3,0.112298852590468,0,0
코코분식,제주특별자치도 제주시 신성로 104,33.4967757,126.530085,식당,3,0.1358252019061648,0,0
코코마마성산점,제주특별자치도 서귀포시 성산읍 일출로 258-11,33.4610216,126.9343367,식당,1,0.2064881820759024,0,0
가람돌솥밥,제주특별자치도 서귀포시 중문관광로 332,33.2496037,126.431444,식당,0,0.1878168746794534,0,0
제주미담,제주특별자치도 제주시 가령로 19,33.5023425,126.5373625,식당,3,0.1385890799568438,0,0
큰돈가본점,제주특별자치도 서귀포시 대정읍 형제해안로 296,33.210157,126.2914269,식당,0,0.2043161728042226,0,0
재연식당,제주특별자치도 제주시 구좌읍 세화3길 27-2,33.5251868,126.8561005,식당,1,0.153886671655149,0,0
문치비,제주특별자치도 서귀포시 신서로32번길 14 1층,33.2533714,126.5056409,식당,2,0.2315178768092179,0,0
나원회포차,제주특별자치도 서귀포시 동문동로 4,33.2496757,126.5675722,식당,2,0.2995801805205538,0,0
오가네전복설렁탕서귀포본점,제주특별자치도 서귀포시 중산간동로 7738,33.2682594,126.589636,식당,2,0.2986136226642557,0,0
시흥해녀의집,제주특별자치도 서귀포시 성산읍 시흥하동로 114,33.4779795,126.9083492,식당,1,0.2253661528882583,0,0
도갈비,제주특별자치도 제주시 한라대학로 85 1층,33.4765167,126.479361,식당,3,0.2706500504878932,0,0
포도원흑돼지,제주특별자치도 제주시 1100로 3155,33.4681983,126.4847601,식당,3,0.1760884806453838,0,0
낭쿰낭쿰,제주특별자치도 서귀포시 중앙로79번길 4 1층 낭쿰낭쿰,33.2516805,126.5608349,식당,2,0.2602920809693332,0,0
홍성방,제주특별자치도 서귀포시 대정읍 하모항구로 76,33.220115,126.2517883,식당,0,0.2334048677369979,0,0
낭뜰에쉼팡,제주특별자치도 제주시 조천읍 남조로 2343,33.4735321,126.6571882,식당,3,0.1700952828138014,0,0
잇칸시타,제주특별자치도 제주시 애월읍 신엄안2길 54-1,33.4770905,126.3699554,식당,0,0.2265655289433586,0,0
형제도식당본점,제주특별자치도 서귀포시 일주서로 915 형제도식당 본점,33.2584326,126.4353135,식당,0,0.2517732860196043,0,0
논짓물,제주특별자치도 제주시 신대로12길 41,33.4886496,126.4922457,식당,3,0.0666553067671585,0,0
정직한돈협재직영점,제주특별자치도 제주시 한림읍 일주서로 5083 2층,33.389078,126.2504324,식당,0,0.2890370744204334,0,0
남양수산,제주특별자치도 서귀포시 성산읍 고성동서로56번길 11,33.4501348,126.9142244,식당,1,0.1965054546253786,0,0
칠돈가서광직영점,제주특별자치도 서귀포시 안덕면 서광사수동로20번길 27 1층,33.2874033,126.3042052,식당,0,0.1768643014746432,0,0
서서방숯불닭갈비,제주특별자치도 제주시 신광로 61 1층,33.486651,126.4903307,식당,3,0.1688935503087173,0,0
태하횟집,"제주특별자치도 제주시 동한두기길 31-2 1, 2층",33.5166474,126.5152928,식당,3,0.2397865038858092,0,0
노조미,제주특별자치도 제주시 국기로2길 2-3 1층,33.4795149,126.4903136,식당,3,0.2130650497811984,0,0
제주예찬,제주특별자치도 제주시 1100로 2997 1층,33.4561511,126.48637,식당,3,0.1488439364624993,0,0
표선우동가게,제주특별자치도 서귀포시 표선면 표선관정로 105-1,33.3240774,126.8314,식당,1,0.198938681541875,0,0
돌집식당,제주특별자치도 서귀포시 표선면 서성일로 23,33.3940309,126.8006415,식당,1,0.2164061779179173,0,0
제주돗,제주특별자치도 제주시 한경면 조수2길 34,33.3324683,126.2311173,식당,0,0.2097729684792576,0,0
민경이네어등포해녀촌,제주특별자치도 제주시 구좌읍 해맞이해안로 830 1층,33.5291668,126.8538817,식당,1,0.0862416622857031,0,0
탐라우돈정육식당,제주특별자치도 제주시 다랑곶2길 52 1층,33.4908253,126.4759744,식당,3,0.2851810262292212,0,0
중문흑돼지천국,제주특별자치도 서귀포시 천제연로 107 중문흑돼지천국,33.254877,126.417186,식당,0,0.3100495320818103,0,0
솔동산고기국수,제주특별자치도 서귀포시 부두로 23,33.2430043,126.5653506,식당,2,0.1708687407754696,0,0
김지순의낭푼밥상,제주특별자치도 제주시 연동6길 28,33.483483,126.4890064,식당,3,0.1391869200604227,0,0
금박돈,제주특별자치도 서귀포시 성산읍 일출로 261 1층,33.4613726,126.9335321,식당,1,0.1876590172209255,0,0
뚱보아저씨,제주특별자치도 제주시 한경면 중산간서로 3651,33.3306389,126.2554594,식당,0,0.1935176154036036,0,0
도두반점제주사수본점,제주특별자치도 제주시 서해안로 317 2층,33.5095328,126.4792906,식당,3,0.131402076938163,0,0
형돈,제주특별자치도 제주시 구남로 22 1층,33.4893377,126.5329674,식당,3,0.145161758874217,0,0
연미정,제주특별자치도 제주시 구좌읍 세평항로 14,33.5261548,126.8546643,식당,1,0.2257166832347927,0,0
제주김만복성산점,제주특별자치도 서귀포시 성산읍 성산등용로17번길 55 성산리치유클래시아 상가 1층 108호,33.4607468,126.9297175,식당,1,0.1439418674125872,0,0
덕승식당,제주특별자치도 서귀포시 대정읍 하모항구로 66,33.2192451,126.2513444,식당,0,0.1199625377402837,0,0
백리향,제주특별자치도 제주시 조천읍 신북로 244,33.5370188,126.6385048,식당,3,0.1409429879788258,0,0
한라전복(본점),제주특별자치도 서귀포시 대정읍 대한로 33 1층,33.2406592,126.2451919,식당,0,0.1218605585694193,0,0
제갈양,제주특별자치도 제주시 한림읍 한림로 155,33.3989324,126.2421759,식당,0,0.2720508127169396,0,0
연북로해물탕,제주특별자치도 제주시 연북로 221,33.4858923,126.518754,식당,3,0.1849891026503154,0,0
짱구분식,제주특별자치도 서귀포시 중동로48번길 3,33.2501459,126.5672963,식당,2,0.1338742522253085,0,0
만선식당,제주특별자치도 서귀포시 대정읍 하모항구로 44,33.2178539,126.2499284,식당,0,0.1910301792895875,0,0
인디언키친,제주특별자치도 제주시 애월읍 애원로 191,33.4431304,126.3385993,식당,0,0.1898117912837652,0,0
문개항아리애월점,제주특별자치도 제주시 애월읍 가문동길 38,33.4857824,126.3925353,식당,0,0.3518701005125752,0,0
해심가든,제주특별자치도 서귀포시 천제연로 203-4,33.2519011,126.4266075,식당,0,0.1078920511824351,0,0
모이세해장국본점,제주특별자치도 제주시 연북로 221,33.4858923,126.518754,식당,3,0.0260302904886203,0,0
곤밥2,제주특별자치도 제주시 서부두남길 8,33.5149292,126.5277707,식당,3,0.2684702444810317,0,0
임금님밥상,제주특별자치도 제주시 오광로 128 1층,33.4849476,126.4609875,식당,3,0.121728846632436,0,0
춘미향식당,제주특별자치도 서귀포시 안덕면 산방로 378,33.231437,126.2965741,식당,0,0.2155604343852233,0,0
제주고집,제주특별자치도 제주시 서해안로 368-10,33.5108295,126.4852691,식당,3,0.2098021753228628,0,0
제주올래국수,제주특별자치도 제주시 월성로 39,33.5008987,126.506051,식당,3,0.1868687873808418,0,0
스시도모다찌제주점,제주특별자치도 제주시 광양8길 1 2층,33.4999781,126.5292507,식당,3,0.1623011627861989,0,0
옥돔식당,제주특별자치도 서귀포시 대정읍 신영로36번길 62,33.2199418,126.2490877,식당,0,0.12292443031826,0,0
돈향기,제주특별자치도 제주시 관덕로15길 30,33.5158029,126.5270908,식당,3,0.195678572863907,0,0
제주곰집,제주특별자치도 서귀포시 이어도로 703-4,33.240469,126.493008,식당,2,0.3004046115680259,0,0
칠돈가표선직영점,제주특별자치도 서귀포시 표선면 표선당포로 13-1,33.3258601,126.8441421,식당,1,0.0387097441323277,0,0
순풍해장국함덕본점,제주특별자치도 제주시 조천읍 신북로 604 1층,33.5386704,126.6458435,식당,3,0.0278481012658228,0,0
옹포바다횟집,제주특별자치도 제주시 한림읍 옹포1길 24,33.4038406,126.2517757,식당,0,0.205156638196383,0,0
범일분식,제주특별자치도 서귀포시 남원읍 태위로 658,33.2784057,126.7170064,식당,2,0.1778730035750062,0,0
제주곱,제주특별자치도 제주시 신대로16길 42 1층,33.4870195,126.4923138,식당,3,0.2456391124353643,0,0
커큐민흑돼지,제주특별자치도 서귀포시 성산읍 일출로 84,33.4542884,126.9242718,식당,1,0.1379662138890909,0,0
글라글라하와이,제주특별자치도 서귀포시 대정읍 하모항구로 70,33.2194985,126.2515431,식당,0,0.2051229084473144,0,0
짬뽕에취한날,제주특별자치도 제주시 귀아랑2길 4,33.491147,126.4978956,식당,3,0.1145624794001423,0,0
이스트포레스트,제주특별자치도 제주시 구좌읍 종달로1길 26-1 1층,33.4958799,126.8988279,식당,1,0.218717211731746,0,0
더스푼,제주특별자치도 제주시 구남동1길 45 1층,33.4916487,126.5389939,식당,3,0.1730395243359533,0,0
김녕오라이,제주특별자치도 제주시 구좌읍 김녕로21길 21,33.5577318,126.7552547,식당,1,0.269067622795616,0,0
센트로,제주특별자치도 서귀포시 태평로 449 1층,33.2466881,126.56768,식당,2,0.2583059306312041,0,0
제주해물밥,제주특별자치도 제주시 월대3길 14-6,33.4946999,126.4340183,식당,3,0.1035395640704516,0,0
성산갈치조림순덕이네,제주특별자치도 서귀포시 성산읍 온평서로 48,33.4098171,126.8970456,식당,1,0.1193007150716328,0,0
섭지코지해녀밥상,제주특별자치도 서귀포시 성산읍 신양로122번길 60-6,33.4357261,126.9175484,식당,1,0.1960017161021999,0,0
강식당,제주특별자치도 제주시 한림읍 협재1길 30 1층,33.397854,126.2435702,식당,0,0.1890148615280416,0,0
뚱딴지,제주특별자치도 제주시 애월읍 부룡수길 17,33.4746872,126.3550977,식당,0,0.1517273280698127,0,0
알동네집,제주특별자치도 제주시 한경면 연명로 543,33.3001516,126.2511949,식당,0,0.1373218670034974,0,0
중문색달통갈치,제주특별자치도 서귀포시 일주서로 993,33.2584326,126.4353135,식당,0,0.282666934368275,0,0
윤옥,제주특별자치도 제주시 구남동2길 19-4 혁진빌 1층,33.4894052,126.5360124,식당,3,0.2349170513495938,0,0
돈고팡본점,제주특별자치도 제주시 서해안로 248 1층,33.5089545,126.4722988,식당,3,0.1565830303504476,0,0
돈카츠서황,제주특별자치도 제주시 애월읍 장소로 205-2 1층,33.4348196,126.3800658,식당,0,0.1515577456778378,0,0
삼성혈해물탕1호점,제주특별자치도 제주시 도두항서7길 23 1층,33.5038785,126.4654199,식당,3,0.1854061125202193,0,0
한라전복성산본점,제주특별자치도 서귀포시 성산읍 해맞이해안로 2732,33.4709507,126.9170084,식당,1,0.2362396045431291,0,0
화성식당,제주특별자치도 제주시 일주동로 383,33.521372,126.5860472,식당,3,0.1583083053942328,0,0
해월정서귀포점,제주특별자치도 서귀포시 대정읍 형제해안로 262,33.210157,126.2914269,식당,0,0.2483443109355064,0,0
하하호호우도본점,제주특별자치도 제주시 우도면 우도해안길 532,33.5208272,126.948574,식당,1,0.1256168466772096,0,0
어조횟집,제주특별자치도 서귀포시 성산읍 일출로 233,33.460409,126.9308418,식당,1,0.1792265761172009,0,0
올레마당,제주특별자치도 서귀포시 안덕면 사계남로 224,33.2331477,126.3088244,식당,0,0.2718382228982334,0,0
서광보말칼국수,제주특별자치도 서귀포시 안덕면 중산간서로 1882,33.2862497,126.3077305,식당,0,0.1449779191354397,0,0
두툼한고기돈돼지,제주특별자치도 제주시 조천읍 함덕19길 3 1층,33.5410492,126.6698885,식당,3,0.2734401543675297,0,0
중문그때그집,제주특별자치도 서귀포시 상예로 181-28,33.2628964,126.3899545,식당,0,0.3235722693597728,0,0
어박사한림본점,제주특별자치도 제주시 한림읍 한림로 564 1층,33.4076458,126.2581716,식당,0,0.2685881037355165,0,0
임순이네,제주특별자치도 제주시 애월읍 곽지1길 26-7,33.4488627,126.3042586,식당,0,0.2492004528655225,0,0
칠돈가제주공항직영점,제주특별자치도 제주시 신대로 144 1층,33.4844492,126.4959551,식당,3,0.1557739970068612,0,0
천리식당천리민박,제주특별자치도 제주시 구좌읍 송당6길 30,33.4686317,126.7846454,식당,1,0.2095731416588572,0,0
꽃가람,제주특별자치도 서귀포시 성산읍 고성동서로 73,33.4509234,126.9150116,식당,1,0.1944269701504533,0,0
요기소바본점,제주특별자치도 제주시 원노형6길 3-4 1층,33.4853506,126.483364,식당,3,0.1781846440491298,0,0
용담밭담,제주특별자치도 제주시 서천길 16 1층,33.501532,126.5106976,식당,3,0.2816392048310522,0,0
제주오누이,"제주특별자치도 제주시 구좌읍 해맞이해안로 972 1,2층",33.5291668,126.8538817,식당,1,0.1912314950924944,0,0
성산흑돼지두루치기,제주특별자치도 서귀포시 성산읍 한도로 255,33.4661549,126.9348021,식당,1,0.1885624431340539,0,0
삼다도횟집본점,제주특별자치도 제주시 서해안로 572,33.5190034,126.4993699,식당,3,0.1392923516898332,0,0
귤품은흑돼지제주공항점,제주특별자치도 제주시 도두항서길 42 2층,33.5063348,126.4640001,식당,3,0.2642556268932733,0,0
원조마라도짜장면집,제주특별자치도 서귀포시 대정읍 마라로101번길 48,33.1185831,126.2669135,식당,0,0.1903681150967778,0,0
동복뚝배기,제주특별자치도 제주시 구좌읍 동복로 30-2 1층,33.5532201,126.7123162,식당,1,0.2473576208605586,0,0
오전열한시,제주특별자치도 서귀포시 상예로 248,33.2667236,126.3944186,식당,0,0.1759727765923339,0,0
회춘,제주특별자치도 제주시 조천읍 신북로 489 1층,33.5431462,126.6625984,식당,3,0.1504028518414349,0,0
종달수다뜰,제주특별자치도 제주시 구좌읍 용눈이오름로 8,33.4918686,126.893156,식당,1,0.1752601776975679,0,0
교래흑돼지본점,제주특별자치도 제주시 조천읍 교래4길 73,33.4236987,126.6750861,식당,3,0.2349436843221224,0,0
바로족발보쌈,제주특별자치도 제주시 진군1길 25,33.4788623,126.4794115,식당,3,0.2223428802180187,0,0
도민상회,제주특별자치도 제주시 한림읍 한림로3길 8,33.4132616,126.260303,식당,0,0.2912442022796686,0,0
뜰에,제주특별자치도 제주시 애월읍 애월로11길 23-1,33.4663286,126.3205148,식당,0,0.1851115243635002,0,0
제일수산횟집,제주특별자치도 서귀포시 중앙로79번길 8,33.2514372,126.5604451,식당,2,0.2236780404736659,0,0
삼대전통고기국수,제주특별자치도 제주시 신대로5길 17,33.4929576,126.4986605,식당,3,0.1293402725256125,0,0
대춘해장국노형점,제주특별자치도 제주시 원노형로 11 1층,33.4876006,126.4845223,식당,3,0.266671682048866,0,0
장모식탁,제주특별자치도 제주시 연신로 51 1층,33.4967502,126.5470327,식당,3,0.2464924387262955,0,0
수영밥상본점,제주특별자치도 제주시 우령안1길 29-1 1층,33.4862168,126.4297167,식당,3,0.2741142452236504,0,0
탐라가든,제주특별자치도 제주시 서사로 51,33.5078115,126.5203642,식당,3,0.1430189797858904,0,0
달이뜨는식탁,제주특별자치도 제주시 구좌읍 월정1길 14,33.5562274,126.793166,식당,1,0.3382207524612624,0,0
맨도롱해장국,제주특별자치도 서귀포시 태평로353번길 11,33.2470831,126.5601903,식당,2,0.1363884215847662,0,0
섬소나이,제주특별자치도 제주시 우도면 우도해안길 814,33.5074342,126.954269,식당,1,0.2672806200267256,0,0
제주선채향,제주특별자치도 서귀포시 안덕면 사계남로84번길 6,33.2263368,126.2990704,식당,0,0.3037573239396549,0,0
흑돼지제주정,제주특별자치도 서귀포시 표선면 민속해안로 577,33.3248304,126.8439441,식당,1,0.2694054882297717,0,0
참맛나김밥,제주특별자치도 제주시 한라대학로 31 1층,33.4772209,126.476779,식당,3,0.1413036933646697,0,0
그리운바다성산포,제주특별자치도 서귀포시 성산읍 성산등용로 94,33.4697602,126.9300546,식당,1,0.1896898950173925,0,0
담다,제주특별자치도 제주시 한림읍 협재4길 8 1층,33.3939189,126.2417404,식당,0,0.1426884398779864,0,0
희야국수,제주특별자치도 제주시 다호5길 11 1층,33.5027912,126.4892074,식당,3,0.2245148459125106,0,0
까망돼지서귀포점,제주특별자치도 서귀포시 일주동로 8524,33.2551463,126.5775949,식당,2,0.2544034798175954,0,0
중문신라원,제주특별자치도 서귀포시 법환하로28번길 6,33.2343546,126.5123622,식당,2,0.1116994296373908,0,0
스시도모다찌칠성점,제주특별자치도 제주시 관덕로13길 3 1층,33.5134667,126.5258614,식당,3,0.2370327274921132,0,0
오멍가멍흑돼지본점,제주특별자치도 제주시 서해안로 272 1층,33.5092575,126.4747946,식당,3,0.2116039764890585,0,0
흑본오겹함덕점,제주특별자치도 제주시 조천읍 신북로 454,33.5386704,126.6458435,식당,3,0.2395319991187927,0,0
선흘방주할머니식당,제주특별자치도 제주시 조천읍 선교로 212,33.4727191,126.7061921,식당,1,0.2302570692504027,0,0
영빈횟집,제주특별자치도 서귀포시 칠십리로 129,33.2432869,126.5679629,식당,2,0.2451023015243409,0,0
용두암오메기떡,제주특별자치도 제주시 용담로7길 6,33.5129348,126.51064,식당,3,0.1157935425992831,0,0
다미진횟집,제주특별자치도 서귀포시 표선면 민속해안로 578-1,33.3250737,126.8441192,식당,1,0.3091044073666429,0,0
수복강녕,제주특별자치도 제주시 선덕로3길 40,33.4883918,126.4994484,식당,3,0.2909703756391697,0,0
오가네전복설렁탕함덕점,제주특별자치도 제주시 조천읍 조함해안로 496 2층,33.5440366,126.6537771,식당,3,0.2543540464230267,0,0
천돈가,제주특별자치도 서귀포시 일주서로 873 1층,33.2584326,126.4353135,식당,0,0.2452870086811676,0,0
운산식당,제주특별자치도 제주시 북성로 28 1층,33.5159338,126.521961,식당,3,0.2088351296673352,0,0
만지식당,제주특별자치도 제주시 애월읍 고내로 13-1 1층,33.4632506,126.3389717,식당,0,0.2066053357790461,0,0
한라축산정육식당,제주특별자치도 제주시 1100로 3128,33.4561511,126.48637,식당,3,0.0279964210207324,0,0
마마무말가든,제주특별자치도 제주시 아연로 157,33.4723452,126.508143,식당,3,0.2268901864541837,0,0
용꽈배기,제주특별자치도 제주시 서광로30길 3,33.4999102,126.5270264,식당,3,0.2087661684827071,0,0
고미,제주특별자치도 서귀포시 서문로 46,33.2492888,126.5575788,식당,2,0.2228103446417429,0,0
성읍칠십리식당,제주특별자치도 서귀포시 표선면 성읍정의현로 74,33.3892637,126.8012691,식당,1,0.1092601524276942,0,0
한라산아래첫마을,제주특별자치도 서귀포시 안덕면 산록남로 675,33.3280571,126.366103,식당,0,0.1949306631720924,0,0
돌하르방식당본점,제주특별자치도 제주시 신산로11길 53,33.5100471,126.5387935,식당,3,0.1811934900542495,0,0
연탄과친한돼지,제주특별자치도 제주시 원노형로 61,33.483166,126.4851235,식당,3,0.1790124893398035,0,0
청파식당횟집,제주특별자치도 제주시 구좌읍 세평항로 12 1층,33.5244994,126.8536448,식당,1,0.2734128944418749,0,0
해비치호텔앤리조트제주이디,제주특별자치도 서귀포시 표선면 민속해안로 537 1층,33.3234478,126.8447796,식당,1,0.3334337954591119,0,0
캠퍼트리호텔앤리조트더뷰,제주특별자치도 제주시 해안마을서4길 100,33.4536956,126.4503561,식당,3,0.3334337954591119,0,0
황가네뚝배기,제주특별자치도 제주시 삼무로11길 24,33.4915586,126.4958537,식당,3,0.1236519954810461,0,0
씨에스호텔씨에스다이닝,제주특별자치도 서귀포시 중문관광로 198,33.2429044,126.4204352,식당,0,0.3333333333333333,0,0
포도호텔레스토랑,제주특별자치도 서귀포시 안덕면 산록남로 863 1층,33.3053535,126.3937346,식당,0,0.1732790312975436,0,0
씨에스호텔카노푸스다이닝,제주특별자치도 서귀포시 중문관광로 196,33.2435041,126.4198772,식당,0,0.1896812243866953,0,0
