place,address,Latitude,Longitude
미르빌펜션&리조트,제주특별자치도 서귀포시 안덕면 사계로114번길 87,33.2460023,126.3060521
에코그린리조트,제주특별자치도 제주시 한림읍 귀덕6길 94,33.4307735,126.2899617
라임오렌지빌,제주특별자치도 서귀포시 칠십리로 332,33.2462086,126.5873228
풀빌라소랑,제주특별자치도 제주시 조천읍 곱은달남길 218,33.5026669,126.6713054
통나무파크,제주특별자치도 제주시 애월읍 도치돌길 293,33.4102422,126.3660337
엠스테이펜션,제주특별자치도 제주시 구좌읍 해맞이해안로 1481,33.5291668,126.8538817
편운산장,제주특별자치도 서귀포시 성산읍 서성일로 898-38,33.4374516,126.8751784
아르츠스파&풀빌라,제주특별자치도 제주시 구좌읍 해맞이해안로 2486-23,33.5291668,126.8538817
제이라움,제주특별자치도 서귀포시 대정읍 노을해안로 420,33.2568116,126.1997011
더갤러리펜션,제주특별자치도 제주시 조천읍 남조로 1717-24,33.42215,126.6753634
아침해변펜션,제주특별자치도 제주시 조천읍 조함해안로 76-9,33.5439418,126.6380689
보물섬,제주특별자치도 서귀포시 성산읍 한도로242번길 10-11,33.4663543,126.9315713
제주브릭스,제주특별자치도 서귀포시 태평로 121,33.247167,126.5510603
드라마2015풀빌라,제주특별자치도 제주시 애월읍 금성5길 42-15 3층,33.4478775,126.3012418
바다위에펜션,제주특별자치도 제주시 애월읍 일주서로 7219-1,33.4894019,126.419076
골든비치펜션,제주특별자치도 제주시 서해안로 486-3,33.5186252,126.49125
호랑호랑펜션,제주특별자치도 서귀포시 성산읍 일출로 86 D동,33.4542884,126.9242718
표선해비치펜션,"제주특별자치도 서귀포시 표선면 가마행남로 16-1 다미타운하우스 106,109,111동",33.3057187,126.8026626
은빌레펜션,제주특별자치도 서귀포시 남원읍 의귀리 794,33.3117075,126.7168645
뭉클펜션,제주특별자치도 제주시 조천읍 북촌북길 17-1,33.548133,126.6906193
제주에코스위츠,제주특별자치도 서귀포시 중문상로 207-13,33.2696393,126.4289254
큐티파이호텔,제주특별자치도 제주시 애월읍 애월해안로 610,33.4778706,126.3688144
부티크스테이스놉,제주특별자치도 서귀포시 예래해안로 17,33.2432264,126.3876102
해뜨는성펜션,제주특별자치도 서귀포시 성산읍 한도로 267,33.4661446,126.9359092
가시리유채꽃길펜션,제주특별자치도 서귀포시 표선면 녹산로 45,33.390274,126.732908
제주봄스테이,제주특별자치도 서귀포시 검은여로130번길 68-16,33.2512773,126.5870201
나인스파빌,제주특별자치도 제주시 애월읍 하광로 518,33.4621944,126.4227085
홍스랜드,제주특별자치도 제주시 애월읍 어음13길 25-45,33.3981204,126.352168
코코스펜션,제주특별자치도 제주시 한림읍 협재2길 26,33.3925125,126.24256
제주담스파빌,제주특별자치도 제주시 한림읍 한림로 162,33.3989324,126.2421759
비앤썬펜션,제주특별자치도 서귀포시 성산읍 환해장성로 929-7,33.4121987,126.9047711
빈티지1950카페펜션,제주특별자치도 제주시 구좌읍 덕행로 175-42,33.5164517,126.782871
해담은스파빌,제주특별자치도 서귀포시 안덕면 사계북로 157-15,33.2394018,126.3039897
조유암펜션,제주특별자치도 서귀포시 안덕면 난드르로21번길 25,33.2338299,126.3669024
끄라비펜션,제주특별자치도 서귀포시 토평로148번길 28,33.2819643,126.5917812
제주올레돔펜션,제주특별자치도 서귀포시 성산읍 온평포구로54번길 54,33.3985583,126.8986343
디오션힐,제주특별자치도 서귀포시 안덕면 사계북로 208,33.2355381,126.2966466
뷰티플하우스,제주특별자치도 서귀포시 이어도로253번길 2,33.2437471,126.4467566
나디아펜션,제주특별자치도 제주시 애월읍 애원로 74,33.4431304,126.3385993
건축학개론펜션,제주특별자치도 서귀포시 성산읍 신풍하동로 224-33,33.3617848,126.8477299
W오션펜션,제주특별자치도 서귀포시 대포로 32-4,33.2464178,126.4308947
제주솔한옥펜션,제주특별자치도 제주시 애월읍 천덕로 399-92,33.4235532,126.341484
마녀의언덕,제주특별자치도 서귀포시 예래해안로 203-1,33.2432264,126.3876102
브라운캐빈,제주특별자치도 제주시 애월읍 소길남길 190-40,33.4169117,126.3756972
솔펜션,제주특별자치도 제주시 구좌읍 해맞이해안로 2478,33.5291668,126.8538817
해바라기펜션,제주특별자치도 서귀포시 표선면 일주동로6285번길 13-12,33.3056563,126.8003194
더비비스제주,제주특별자치도 서귀포시 이어도로 760,33.240469,126.493008
애월바다향기펜션,제주특별자치도 제주시 애월읍 일주서로 6847,33.466277,126.3511114
보우힐리조트&펜션,제주특별자치도 서귀포시 대포연대로 50,33.2412852,126.4299298
달토끼펜션,제주특별자치도 제주시 구좌읍 세평항로 45-11,33.5273357,126.8550887
감귤향기힐링파크,제주특별자치도 제주시 한경면 두조로 307,33.3430426,126.2096635
펜션연리,제주특별자치도 서귀포시 논짓물로48번길 3,33.2404109,126.3863939
아모르하우스,제주특별자치도 제주시 구좌읍 해맞이해안로 2060-18,33.5291668,126.8538817
제이앤클로이,제주특별자치도 서귀포시 대정읍 무릉중앙로 203,33.2694453,126.1994878
중문통나무펜션&리조트,제주특별자치도 서귀포시 중산간서로594번길 7-8,33.2633327,126.4510473
게우지코지펜션,제주특별자치도 서귀포시 보목포로 177,33.2421595,126.6100897
마린포트리조트,제주특별자치도 서귀포시 이어도로 744,33.240469,126.493008
지미안펜션,제주특별자치도 제주시 구좌읍 종달로1길 91-22,33.4958871,126.9055364
제주아비앙또,제주특별자치도 서귀포시 성산읍 병문로 130,33.4592762,126.9012432
제주파도소리펜션,제주특별자치도 제주시 구좌읍 해맞이해안로 1950,33.5291668,126.8538817
제주팜파스펜션,제주특별자치도 제주시 조천읍 교래1길 41-12,33.4361058,126.6739309
푸르다오션펜션,제주특별자치도 제주시 한림읍 월령3길 39-5,33.379157,126.2168274
낭만제주펜션,제주특별자치도 제주시 도두5길 23,33.5047017,126.4723574
돈내코펜션,제주특별자치도 서귀포시 돈내코로67번길 30,33.2961745,126.5872574
한담풍경하우스,제주특별자치도 제주시 애월읍 애월로 6,33.4630969,126.3173357
로그밸리펜션,제주특별자치도 제주시 애월읍 소길남길 190-19,33.4169117,126.3756972
함덕서우재,제주특별자치도 제주시 조천읍 평사길 19,33.5437998,126.6739948
쉬멍놀멍,제주특별자치도 제주시 한림읍 협재2길 30,33.3925015,126.2428009
북촌플레이스,제주특별자치도 제주시 조천읍 일주동로 1437,33.5393114,126.6638893
해와돌바라기 펜션,제주특별자치도 서귀포시 쇠소깍로 209,33.254188,126.6213171
이루다펜션,제주특별자치도 서귀포시 대정읍 평화로 225,33.2611736,126.2910361
스타하우스,제주특별자치도 제주시 애월읍 하광로 540-66,33.4411527,126.4288763
큰엉해올레펜션,제주특별자치도 서귀포시 남원읍 태위로510번길 31-8,33.2720576,126.7001146
오션하우스,제주특별자치도 서귀포시 안덕면 사계남로216번길 42,33.2347618,126.3100431
쥬디스펜션,제주특별자치도 제주시 현사안길 40,33.4965477,126.4507695
고내1101,제주특별자치도 제주시 애월읍 애월해안로 246,33.4782235,126.3665625
제주다모르,제주특별자치도 서귀포시 성산읍 오조로 149-33,33.4648822,126.910567
솔라시도펜션,제주특별자치도 서귀포시 막숙포로 83,33.2343512,126.5134198
화이트캐슬펜션,제주특별자치도 서귀포시 이어도로 1060,33.2456917,126.5241798
성산해맞이펜션,제주특별자치도 서귀포시 성산읍 한도로242번길 10-9,33.4662562,126.9322212
월령코지펜션,제주특별자치도 제주시 한림읍 월령3길 39-22,33.380458,126.2155168
뽀요요펜션카페,제주특별자치도 제주시 우도면 우도해안길 128,33.4942494,126.9467981
올레하우스펜션 본관,제주특별자치도 서귀포시 안덕면 사계북로41번길 188-14,33.2450192,126.2983614
제주펜션오다,제주특별자치도 제주시 서해안로 452,33.51774,126.4878545
해모랏펜션,제주특별자치도 서귀포시 성산읍 환해장성로 803,33.4121987,126.9047711
더썸펜션,제주특별자치도 서귀포시 성산읍 난고로42번길 110,33.4433216,126.9065691
늘바다통나무펜션,제주특별자치도 서귀포시 안덕면 대평로 38,33.237247,126.3636731
646미터퍼세크,"제주특별자치도 제주시 한경면 일주서로 4469 1,2,3층",33.3414039,126.1898997
노인과바다펜션,제주특별자치도 서귀포시 남원읍 남태해안로 11-12,33.275126,126.7100827
조이랜드,제주특별자치도 제주시 애월읍 애원로 116-5,33.4547384,126.3251781
씨에나펜션,제주특별자치도 서귀포시 예래로 267,33.2421162,126.3858015
달빛바다펜션,제주특별자치도 제주시 어영길 64-12,33.5182347,126.4960844
보름펜션,제주특별자치도 서귀포시 대정읍 상모와우로 64-8,33.2232473,126.2746649
귤한가,제주특별자치도 제주시 한림읍 명월성로 234-1,33.3768233,126.2607583
라비아펜션,제주특별자치도 서귀포시 일주서로43번길 8-2,33.2514296,126.5041685
제주삼다호스텔펜션,제주특별자치도 제주시 서해안로 456-6,33.5179776,126.488268
제주올레로,제주특별자치도 제주시 일주서로 7335-1,33.4937504,126.4300165
플라이진하우스,제주특별자치도 제주시 구좌읍 김녕항1길 22,33.5571253,126.7452787
해변산책,제주특별자치도 제주시 애월읍 곽지9길 7,33.4519929,126.308092
바다풍경펜션,제주특별자치도 제주시 애월읍 애월해안로 923,33.4839152,126.3939136
바다그리기,제주특별자치도 제주시 한림읍 옹포2길 16,33.399358,126.2500953
룸엣155,제주특별자치도 서귀포시 남원읍 태신해안로 245-8,33.3005878,126.7674646
바닷가하우스펜션,제주특별자치도 서귀포시 대정읍 형제해안로 254,33.2122165,126.2921599
타워펜션,제주특별자치도 제주시 용두암길 2,33.5145621,126.5109318
그랑빌펜션,제주특별자치도 서귀포시 중문관광로 17,33.25639,126.4151672
밧돌펜션하우스,제주특별자치도 제주시 구좌읍 비자림로 1771,33.467852,126.7724183
제주행복스케치펜션,제주특별자치도 서귀포시 예래로68번길 44-31,33.2587944,126.4014961
성산우리집펜션,제주특별자치도 서귀포시 성산읍 한도로255번길 9,33.467061,126.9350063
제주그린나래,제주특별자치도 서귀포시 성산읍 서성일로 615,33.4278422,126.8508998
웨스티하우스,제주특별자치도 서귀포시 안덕면 일주서로1488번길 9,33.260905,126.3568076
소담펜션,제주특별자치도 서귀포시 막숙포로 146,33.2359288,126.513206
두리안펜션,제주특별자치도 서귀포시 남원읍 태위로 551-3,33.2759215,126.7057667
제주애월풀빌라,제주특별자치도 제주시 애월읍 중산간서로 5409 1층,33.4470046,126.3747347
서문레지던스,제주특별자치도 제주시 서문로4길 16-8,33.5104636,126.5175467
애월해안누리펜션,제주특별자치도 제주시 애월읍 애월해안로 298 B동,33.4704594,126.3416719
별빛두방울펜션,제주특별자치도 제주시 한림읍 협재10길 33-6,33.3983225,126.2470561
반하크라펜션,제주특별자치도 제주시 명림로 61,33.4629574,126.6161368
캠프해리,제주특별자치도 제주시 구좌읍 세송로 623-1,33.4998219,126.8364269
오렌지슈가펜션,제주특별자치도 제주시 애월읍 신상로 258,33.4494851,126.366594
삼일삼오,제주특별자치도 제주시 구좌읍 해맞이해안로 1542-4,33.5291668,126.8538817
자멍펜션,제주특별자치도 제주시 구좌읍 해맞이해안로 2286-2,33.5291668,126.8538817
루나마르풀리조트,제주특별자치도 제주시 구좌읍 월정1길 34,33.5562274,126.793166
보롬코지펜션,제주특별자치도 제주시 구좌읍 해맞이해안로 402,33.5291668,126.8538817
소울펜션,제주특별자치도 서귀포시 예래로 210-6,33.2452714,126.3912767
풀스토리풀빌라,제주특별자치도 제주시 구좌읍 월정중길 12,33.558165,126.7931872
벨루가,제주특별자치도 서귀포시 대정읍 영락하동로85번길 41-1,33.2520487,126.2025572
허브인휴양펜션,제주특별자치도 제주시 한림읍 귀덕6길 92-17,33.4356437,126.2902931
씨에코비치,제주특별자치도 제주시 조천읍 신흥관전길 89-5,33.5481907,126.6472622
제주다온재,제주특별자치도 서귀포시 성산읍 산성효자로114번길 125-10,33.4521356,126.9044579
세도나중문풀빌라,제주특별자치도 서귀포시 색달중앙로121번길 77,33.2647931,126.4082394
대정펜션,제주특별자치도 서귀포시 대정읍 하모백사로 29,33.2146551,126.2592212
고스트하우스,제주특별자치도 제주시 애월읍 부룡수길 35-12,33.4749472,126.3553798
서귀포귤림성,제주특별자치도 서귀포시 일주동로 8941,33.2504829,126.5367012
금단영펜션,제주특별자치도 제주시 한경면 일주서로 4466,33.3414039,126.1898997
섯동네펜션,제주특별자치도 제주시 구좌읍 월정중길 55,33.558165,126.7931872
팜스빌리지,제주특별자치도 제주시 한림읍 귀덕7길 17 1~3층,33.4430396,126.2848544
우도피아펜션,제주특별자치도 제주시 우도면 영일진사길 51-40,33.5063957,126.9604218
제주빌레성통나무휴양펜션,제주특별자치도 서귀포시 성산읍 온평포구로 42,33.4016122,126.8994391
스테이빌펜션,제주특별자치도 서귀포시 태평로92번길 22,33.2419086,126.5321557
산방산에펜션,제주특별자치도 서귀포시 안덕면 사계북로41번길 151,33.2463108,126.2970216
초록마을펜션,제주특별자치도 제주시 조천읍 와흘로 372,33.4731044,126.6449005
바다아리,제주특별자치도 제주시 한림읍 한림로 361,33.3953897,126.2422086
카스빌리지,제주특별자치도 제주시 한림읍 협재남2길 105-24,33.3781756,126.2447681
제주가좋아서,제주특별자치도 제주시 구좌읍 비자림로 1569,33.467852,126.7724183
제니빌펜션,제주특별자치도 서귀포시 남원읍 태위로 604-15,33.2764638,126.7124943
스테리나잇제주펜션,제주특별자치도 제주시 애월읍 애월로 37,33.4630969,126.3173357
선양빌리지돔,제주특별자치도 제주시 조천읍 와흘로 350,33.4745476,126.6437279
미소가펜션,제주특별자치도 서귀포시 남원읍 태위로44번길 2-1,33.2738854,126.6532488
다몰펜션,제주특별자치도 제주시 조천읍 함덕27길 32-8,33.5420322,126.6726878
블루마운틴커피랜드&리조트,제주특별자치도 서귀포시 성산읍 중산간동로 4255,33.4119114,126.8416603
키아오라리조트,제주특별자치도 서귀포시 성산읍 난고로42번길 3,33.4342204,126.9050229
비치펜션,제주특별자치도 제주시 애월읍 애월해안로 384-12,33.471894,126.3495201
레드클레이펜션,제주특별자치도 제주시 애월읍 신상로 266,33.4561281,126.3655302
엔게디하우스,제주특별자치도 제주시 한림읍 협재3길 9,33.3983745,126.2444051
금오름가는길,제주특별자치도 제주시 한림읍 한창로 1244-9,33.3497668,126.3055719
돌담에꽃머무는집,제주특별자치도 서귀포시 안덕면 대평로 46,33.237762,126.362801
제주혼디펜션,제주특별자치도 제주시 애월읍 신엄안3길 20,33.4742823,126.3646948
성산아침노을펜션,제주특별자치도 서귀포시 성산읍 한도로255번길 14-1,33.4667192,126.9350943
산방산탄산온천펜션,제주특별자치도 서귀포시 안덕면 사계북로41번길 192,33.2481936,126.2989561
랑데뷰펜션,제주특별자치도 제주시 애월읍 애월해안로 470,33.4774578,126.3547689
바다랑파도랑펜션,제주특별자치도 서귀포시 남원읍 태위로 594-10,33.280681,126.707391
위미향펜션,제주특별자치도 서귀포시 남원읍 위미중앙로246번길 10,33.2718048,126.6693167
귤낭하우스,제주특별자치도 서귀포시 이어도로 1028-12 D동,33.2433387,126.5219919
코이노니아펜션,제주특별자치도 제주시 한림읍 금능6길 19,33.3886234,126.2312724
서귀포 탐라도다펜션,제주특별자치도 서귀포시 안덕면 신화역사로682번길 17,33.3066927,126.3380858
여누스테이,제주특별자치도 제주시 조천읍 남조로 1842 1~3층,33.4845921,126.6554822
로그맨하우스,제주특별자치도 제주시 애월읍 소길남길 179,33.4192072,126.3757791
제주무지개하우스,제주특별자치도 제주시 조천읍 평사길 8-6,33.5432186,126.6731025
비울채울펜션,제주특별자치도 서귀포시 검은여로130번길 73,33.2493403,126.5895826
유명펜션,제주특별자치도 서귀포시 표선면 일주동로 5756-39,33.3375159,126.8357825
푸르미르,제주특별자치도 서귀포시 성산읍 한도로 207,33.467855,126.9239401
풀스테이바르,제주특별자치도 제주시 구좌읍 해맞이해안로 1248,33.5291668,126.8538817
커먼스테이,제주특별자치도 서귀포시 안덕면 대평로 21,33.2363801,126.3646237
누가빌리지펜션,제주특별자치도 서귀포시 산록남로 2704,33.2967775,126.5733036
뜨레피아펜션,제주특별자치도 서귀포시 월평하원로 111,33.2493289,126.4589332
CS빌리지,제주특별자치도 제주시 애월읍 애월해안로 532-7,33.4784515,126.3603637
소풍이야기펜션,제주특별자치도 제주시 애월읍 애월해안로 832,33.4782235,126.3665625
스테이아하,제주특별자치도 제주시 한림읍 옹포남2길 43,33.400389,126.2552591
비자림힐링펜션,제주특별자치도 제주시 구좌읍 다랑쉬북로 68-35,33.4845806,126.8321006
젠틀리조트,제주특별자치도 제주시 한경면 일주서로 4010-2,33.3414039,126.1898997
파라펜션,제주특별자치도 제주시 애월읍 애월해안로 748,33.4782235,126.3665625
춤추는달,제주특별자치도 서귀포시 중문상로 230-6,33.2678259,126.4312514
설렘펜션,제주특별자치도 제주시 애월읍 곽지9길 9,33.4516873,126.3076611
포에마,제주특별자치도 제주시 한림읍 명월로 13,33.3805815,126.2726896
중문올레펜션,제주특별자치도 서귀포시 안덕면 한밭로 61,33.2471067,126.354249
오션베스트빌,제주특별자치도 제주시 조천읍 조함해안로 221,33.5530886,126.6447555
곶자왈거문오름펜션,제주특별자치도 제주시 조천읍 선교로 371-10,33.472431,126.7090194
예뜰,제주특별자치도 서귀포시 남원읍 하례로 379,33.28072,126.6217264
시재시재,제주특별자치도 제주시 한경면 조수2길 25,33.3324683,126.2311173
수펜션,제주특별자치도 서귀포시 안덕면 소기왓로 81-19,33.2415837,126.3680084
제주힐링리조트,제주특별자치도 제주시 한림읍 금악서길 11,33.362018,126.292781
제주삼양2022펜션,제주특별자치도 제주시 설촌로 13,33.5221806,126.5816862
해미안,제주특별자치도 제주시 일주서로 7353,33.4938008,126.4322214
비자림리조트,제주특별자치도 제주시 구좌읍 충렬로 141-1,33.5108743,126.8475292
유러하우스펜션,제주특별자치도 서귀포시 막숙포로 136,33.2318082,126.50878
추자도에코하우스펜션,제주특별자치도 제주시 추자면 추자로 657,33.9530197,126.3158619
앙크레펜션,제주특별자치도 서귀포시 법환로58번길 39,33.2420512,126.5099011
리조트 산수휴,제주특별자치도 제주시 1100로 3049,33.4561511,126.48637
달비치펜션,제주특별자치도 제주시 구좌읍 해맞이해안로 474,33.5291668,126.8538817
써니펜션,제주특별자치도 제주시 구좌읍 해맞이해안로 2228,33.5291668,126.8538817
오름풍경펜션,제주특별자치도 서귀포시 안덕면 일주서로 1438,33.2562006,126.3351463
하얀언덕,제주특별자치도 서귀포시 표선면 민속해안로 351,33.3114774,126.8340326
스테이산타루치아,제주특별자치도 제주시 구좌읍 해맞이해안로 586,33.5291668,126.8538817
하얀별펜션,제주특별자치도 제주시 애월읍 일주서로 6845,33.466277,126.3511114
해마지펜션,제주특별자치도 서귀포시 성산읍 일주동로 5431,33.416346,126.889907
해뜨는집펜션,제주특별자치도 서귀포시 성산읍 한도로 137,33.4691031,126.9225826
하늘타리펜션,제주특별자치도 제주시 연대마을길 59,33.4938535,126.4245732
마가렛펜션,제주특별자치도 서귀포시 예래로68번길 11-16,33.2555451,126.3978574
제주늘보의오후,제주특별자치도 제주시 한경면 한경해안로 176,33.3328723,126.1697983
외돌개나라펜션,제주특별자치도 서귀포시 남성로 122,33.2420328,126.5533987
바위섬펜션,제주특별자치도 제주시 용담로7길 24,33.5145611,126.5106982
지금여기에,제주특별자치도 제주시 한림읍 금능길 79,33.3881374,126.2294884
메이플해피하우스,제주특별자치도 제주시 한림읍 명월로 108,33.383937,126.2675522
타이스토리,제주특별자치도 서귀포시 표선면 서성일로 118-32,33.3972155,126.8076727
포시즌펜션,제주특별자치도 서귀포시 칠십리로285번길 3,33.2486038,126.5835608
빨강궁전,제주특별자치도 제주시 애월읍 고내봉길 42-9,33.4593876,126.335282
동백바다펜션,제주특별자치도 서귀포시 남원읍 태위로360번길 46,33.2723813,126.6840879
바다야펜션,제주특별자치도 제주시 조천읍 조함해안로 478,33.5440366,126.6537771
제주클레르드륀펜션,제주특별자치도 제주시 애월읍 고내로11길 14,33.4663773,126.3397023
뜨리바다펜션,제주특별자치도 서귀포시 남원읍 태위로510번길 31-16,33.2715279,126.6997188
제주바다마루펜션,제주특별자치도 서귀포시 표선면 표선백사로60번길 70,33.3199491,126.8355481
제주바당뜰펜션,제주특별자치도 서귀포시 안덕면 난드르로 49-39,33.2329435,126.3646105
귤하우스펜션,제주특별자치도 서귀포시 남원읍 남한로 79-11,33.2854493,126.7135325
제주마중,제주특별자치도 제주시 한림읍 금능9길 10-1,33.3892795,126.2303746
길라임펜션,제주특별자치도 제주시 도두봉6길 27,33.5082095,126.4723209
해가빛,제주특별자치도 제주시 한림읍 금능길 89,33.3891823,126.2325378
저바다에누워펜션,제주특별자치도 제주시 한경면 판조로 3-5,33.351183,126.216621
비에노즈,제주특별자치도 제주시 한림읍 한림해안로 674,33.4257892,126.2673117
고래의꿈펜션,제주특별자치도 서귀포시 성산읍 독자봉로24번길 84,33.3859987,126.8741997
마니주펜션,제주특별자치도 제주시 서해안로 248,33.5089545,126.4722988
제주독채올레하우스,제주특별자치도 제주시 구좌읍 덕행로 450-23,33.5130041,126.7788515
스테이헤이븐 펜션,제주특별자치도 제주시 애월읍 애월로 11,33.4600513,126.3113009
월정씨하루펜션,제주특별자치도 제주시 구좌읍 월정중길 19-7,33.558165,126.7931872
팀버하우스,제주특별자치도 제주시 애월읍 곽지7길 11,33.4511822,126.3078397
바다의향기,제주특별자치도 서귀포시 대정읍 송악관광로177번길 254-6,33.2130528,126.292268
공하우스,제주특별자치도 제주시 애월읍 고내3길 20,33.4641827,126.3361085
드림인제주,제주특별자치도 서귀포시 성산읍 서성일로747번길 5-8,33.4377961,126.8628112
쉼표펜션,"제주특별자치도 제주시 서해안로 504 2,3층",33.5194453,126.493001
귤중옥펜션,제주특별자치도 서귀포시 안덕면 덕수서로163번길 34,33.2652961,126.3022586
썬빌리지,제주특별자치도 서귀포시 예래해안로 195-8 4동,33.2432264,126.3876102
서귀포통나무집,제주특별자치도 서귀포시 칠십리로503번길 1,33.2423359,126.6042263
바그다드하우스 인디언키친,제주특별자치도 제주시 애월읍 애원로 191,33.4431304,126.3385993
더프라이빗,제주특별자치도 제주시 한경면 신창상동길 20-1,33.3498605,126.1879104
로맨스파파,제주특별자치도 제주시 한경면 한경해안로 474-20,33.3328723,126.1697983
제주스테이대흘,제주특별자치도 제주시 조천읍 곱은달서길 60-24,33.5053556,126.6644401
월정힐펜션,제주특별자치도 제주시 구좌읍 월정중길 19-9,33.558165,126.7931872
동백동산,제주특별자치도 제주시 조천읍 북흘로 378,33.534457,126.7004904
풍향빌리지,제주특별자치도 서귀포시 이어도로 770,33.2360566,126.4975457
까사델마마223,제주특별자치도 제주시 조천읍 신촌서5길 99-1,33.5354905,126.6151871
선스토리,제주특별자치도 서귀포시 표선면 표선백사로60번길 72,33.3199491,126.8355481
소곤닥하우스,제주특별자치도 제주시 조천읍 신북로 497,33.5428478,126.6633545
굿데이펜션,제주특별자치도 서귀포시 남성로115번길 2,33.2424538,126.5526182
몽돌리조트,제주특별자치도 제주시 주르레길 23,33.4996213,126.5311884
제주와요펜션,제주특별자치도 제주시 조천읍 조천남4길 4,33.5329839,126.6386315
제주휴펜션,제주특별자치도 서귀포시 구산봉로21번길 62,33.2538767,126.453503
제주프랜,제주특별자치도 제주시 한림읍 일주서로 5292,33.4095489,126.2638736
틸다하우스,제주특별자치도 제주시 한경면 중산간서로 3367-1,33.3107701,126.2381055
해비치풍경,제주특별자치도 서귀포시 표선면 가시로 134,33.3456001,126.7895359
더스테어,제주특별자치도 제주시 구좌읍 평대7길 16-1,33.5294376,126.8436626
낙원비치하우스,제주특별자치도 제주시 한북로 157-1,33.4636568,126.5332292
가산토방,제주특별자치도 서귀포시 인정오름로86번길 3,33.287717,126.5776882
춘자네펜션,제주특별자치도 서귀포시 안덕면 서광동로 77,33.2933045,126.3305324
제주파인비치펜션,제주특별자치도 서귀포시 남원읍 태위로 976-10 나동,33.2875595,126.7489917
멀왓스테이,제주특별자치도 제주시 한림읍 중산간서로 5102,33.3849521,126.2849685
산방산에머물다,제주특별자치도 서귀포시 안덕면 사계로114번길 53-5,33.2437465,126.3042545
더라온,제주특별자치도 서귀포시 표선면 번영로 2587-43,33.4045946,126.7861248
마로펜션,제주특별자치도 제주시 한림읍 한림로 414-2,33.3983045,126.2462976
빌라메르시,제주특별자치도 서귀포시 안덕면 소기왓로 81-22,33.2415837,126.3680084
호텔창고펜션,제주특별자치도 서귀포시 남원읍 하례망장포로 37,33.261183,126.6381883
마눌펜션,제주특별자치도 제주시 애월읍 고내봉서2길 73,33.4507407,126.335804
제주펜션매듭,제주특별자치도 제주시 서해안로 502 1층,33.5194025,126.4927413
코삿펜션,제주특별자치도 제주시 애월읍 구엄동3길 85,33.4792685,126.3810461
절물길펜션,제주특별자치도 제주시 명림로 10-1,33.4629574,126.6161368
머무르다,제주특별자치도 제주시 애월읍 금성1길 29-1,33.4469267,126.2998881
하원가,제주특별자치도 서귀포시 이어도로 278,33.240469,126.493008
밸리통나무빌리지,제주특별자치도 서귀포시 남원읍 하례로 292,33.2732006,126.6232058
제주스카이라인 휴양펜션,제주특별자치도 제주시 주르레남길 19,33.4493335,126.4805239
킹스통나무펜션,제주특별자치도 제주시 애월읍 도치돌길 283,33.4104327,126.3648229
한라하이츠,제주특별자치도 서귀포시 고근산로202번길 94,33.2686727,126.5182746
포에타펜션,제주특별자치도 서귀포시 안덕면 신화역사로 713,33.3066927,126.3380858
아망뜨펜션,제주특별자치도 서귀포시 표선면 민속해안로 11,33.3060146,126.8063255
코롱코롱,제주특별자치도 서귀포시 대정읍 노을해안로 216-6,33.2568116,126.1997011
완이클라쓰펜션,제주특별자치도 제주시 애월읍 곽지8길 1 1층,33.4497164,126.3090783
스테이반하나 애견동반펜션,제주특별자치도 서귀포시 남원읍 태신해안로 129,33.2921594,126.7624803
소못소랑,제주특별자치도 제주시 한림읍 금능길 81-2,33.3893668,126.2320719
에퀴녹스 협재,제주특별자치도 제주시 한림읍 협재로 210-55,33.3790957,126.2494332
비엔토펜션,제주특별자치도 제주시 애월읍 금성5길 24,33.4468345,126.3026978
제주올레프로방스,제주특별자치도 제주시 애월읍 광령평화2길 170-13,33.4312844,126.4308885
쌩텀펜션,제주특별자치도 제주시 애월읍 광령평화2길 116-31,33.4346171,126.4329974
섬타임즈제주펜션,제주특별자치도 제주시 연대마을길 66-1,33.4932872,126.4232868
제주에서돌고래를만난다면펜션,제주특별자치도 제주시 구좌읍 해맞이해안로 1566,33.5291668,126.8538817
제주 그린팜파스펜션,제주특별자치도 서귀포시 인정오름로 97,33.2865954,126.5763442
아리아펜션,제주특별자치도 서귀포시 남원읍 태위로 594-2,33.280681,126.707391
부띠끄풀빌라 나미브,제주특별자치도 제주시 한경면 판포4길 41-41,33.3650791,126.2032852
모이라펜션,제주특별자치도 서귀포시 516로 296,33.3384938,126.61069
해비치하우스,제주특별자치도 서귀포시 표선면 민속해안로 347,33.3112016,126.8335638
스테이달꿈 오션뷰펜션,제주특별자치도 제주시 서해안로 468-4,33.518535,126.489466
월정리 사남매하우스,제주특별자치도 제주시 구좌읍 행원로 20-15,33.5499726,126.7986861
다래산장펜션,제주특별자치도 제주시 애월읍 납읍로10길 49-32,33.430589,126.3479122
야자수풀빌라펜션,제주특별자치도 서귀포시 표선면 일주동로5661번길 33,33.3366218,126.845464
더빌라스오션,제주특별자치도 서귀포시 남원읍 태신해안로 271,33.2969817,126.763215
바당정원,제주특별자치도 제주시 한경면 판조로 23,33.351183,126.216621
투데이제주펜션,제주특별자치도 서귀포시 예래로 267-2,33.2423033,126.3859064
아라파니펜션,제주특별자치도 제주시 구좌읍 월정5길 18-16,33.5532554,126.7968391
보메와산독채펜션,제주특별자치도 제주시 조천읍 미래로 53,33.4636331,126.6780733
윈드밀108,제주특별자치도 제주시 한경면 두모1길 108,33.3560743,126.1819622
로뎀제주,제주특별자치도 제주시 구좌읍 계룡길 25-20,33.5379111,126.834746
바다드림펜션,제주특별자치도 제주시 어영길 18-9,33.5164423,126.4953058
성산일출봉펜션,제주특별자치도 서귀포시 성산읍 일출로 271,33.4620002,126.9340709
뜨레시옷,제주특별자치도 제주시 구좌읍 송당서3길 24,33.4667591,126.7706237
피노&키오,제주특별자치도 제주시 구좌읍 일주동로 1853,33.5314441,126.8206181
단겸펜션,제주특별자치도 제주시 구좌읍 월정3길 14 2동,33.5548267,126.7938243
썸스테이,제주특별자치도 제주시 한림읍 한수1길 33,33.4220163,126.2622216
오션스카이펜션,제주특별자치도 제주시 구좌읍 덕행로 450-16,33.5138756,126.7784474
제주카사블랑카,제주특별자치도 서귀포시 학수암로 111,33.2704911,126.52813
올리브낭,제주특별자치도 서귀포시 이어도로 1028-14,33.2433387,126.5219919
로비나발리168,제주특별자치도 제주시 한림읍 한림해안로 714,33.4257892,126.2673117
옛마을펜션,제주특별자치도 서귀포시 검은여로 80,33.2507973,126.5817291
이야기별방펜션,제주특별자치도 제주시 구좌읍 해맞이해안로 2040,33.5291668,126.8538817
꿈꾸는노마드,제주특별자치도 서귀포시 선반로 54,33.2424728,126.4832872
스토리하우스,제주특별자치도 제주시 도리중길 37,33.5019633,126.4632175
중문에코펜션,제주특별자치도 서귀포시 색달로61번길 5,33.261344,126.4096486
라뷰테제주,제주특별자치도 서귀포시 대정읍 노을해안로 620-2,33.2568116,126.1997011
고흐와 바흐,제주특별자치도 제주시 한림읍 명재로 142-21,33.3929136,126.2555637
빌라노이제주,제주특별자치도 서귀포시 안덕면 사계리 321,33.2368693,126.303985
제주 스테이협재10길펜션,제주특별자치도 제주시 한림읍 협재10길 3,33.3986256,126.2470081
감수굴펜션,제주특별자치도 제주시 구좌읍 평대7길 48,33.5305126,126.8442773
트레비앙제주,제주특별자치도 제주시 조천읍 중산간동로 1364,33.5029546,126.6942576
모이모이펜션,제주특별자치도 제주시 한림읍 귀덕8길 39,33.4406593,126.2898087
이호MH호텔,제주특별자치도 제주시 현사길 33 1~4층,33.4969752,126.4487625
바다위올레,제주특별자치도 서귀포시 이어도로 826-13,33.2339546,126.5025264
디어노이,제주특별자치도 제주시 구좌읍 덕행로 175-36 1동,33.5164517,126.782871
바산올레펜션,제주특별자치도 서귀포시 안덕면 대평로 29,33.2365893,126.3639804
잇츠힐펜션,제주특별자치도 제주시 애월읍 애월해안로 788,33.4867248,126.3835435
포트에비뉴,제주특별자치도 서귀포시 대포동서로 63-19,33.241952,126.43797
드렌도트,제주특별자치도 제주시 애월읍 애원로 246,33.4431304,126.3385993
서호달빛,제주특별자치도 서귀포시 서호로 47,33.2583356,126.5223479
씨더비양펜션,제주특별자치도 제주시 한림읍 동명7길 51,33.3968526,126.2664602
화랑펜션,제주특별자치도 제주시 해안마을7다길 100-30,33.5028014,126.5042189
용두암캐빈,제주특별자치도 제주시 어영길 32,33.518009,126.4964745
펜션정원,제주특별자치도 서귀포시 남원읍 일주동로 6523,33.2835671,126.7051642
가까이에파도소리펜션,제주특별자치도 제주시 연대마을길 44,33.4948563,126.424951
쿠지홀리데이펜션,제주특별자치도 서귀포시 성산읍 난산로 100,33.4028897,126.8654196
멍멍플레이스,제주특별자치도 제주시 애월읍 소길남길 244-5,33.4159965,126.3796199
제주이로펜션,제주특별자치도 서귀포시 안덕면 대평감산로 75,33.244029,126.362855
펀빌펜션,제주특별자치도 제주시 애월읍 곽지5길 21,33.4491695,126.3056679
JB풀빌라 사계점,제주특별자치도 서귀포시 안덕면 사계북로41번길 69-26,33.2450192,126.2983614
채움키즈풀빌라,제주특별자치도 서귀포시 대포중앙로 44,33.2456029,126.4324826
해안성,제주특별자치도 서귀포시 태평로92번길 29,33.2417922,126.5321723
제주하늬바람펜션,제주특별자치도 제주시 애월읍 신상로 258 4동,33.4494851,126.366594
그리니제주,제주특별자치도 서귀포시 안덕면 덕수동로 149-21,33.2684915,126.3166486
엔젤하우스,제주특별자치도 제주시 애월읍 신엄안3길 95 2층,33.4736903,126.3608227
아이올레키즈풀빌라펜션,제주특별자치도 서귀포시 성산읍 난고로 457,33.4200962,126.8870067
파크빌리지,제주특별자치도 제주시 애월읍 상귀서길 82-12,33.4651885,126.4053912
산들애풀하우스,제주특별자치도 서귀포시 성산읍 서성일로 689-8,33.4268965,126.8647243
썬레이크빌 제주,제주특별자치도 서귀포시 성산읍 한도로 49,33.467502,126.9134076
JB풀빌라 남원점,제주특별자치도 서귀포시 남원읍 남위남성로94번길 30-1,33.2977536,126.7016438
더파란,제주특별자치도 제주시 애월읍 구엄남길 36,33.4710429,126.3788471
곱드락펜션,제주특별자치도 제주시 한림읍 협재2길 16,33.3925831,126.2414999
제주달리펜션,제주특별자치도 제주시 구좌읍 행원로1길 32-1,33.5548917,126.8000825
제주그래펜션,제주특별자치도 제주시 구좌읍 덕행로 167,33.5164517,126.782871
독채펜션산들숲,제주특별자치도 서귀포시 안덕면 서광동로 93-11,33.2933045,126.3305324
우도바람이야기펜션,제주특별자치도 제주시 우도면 우도해안길 828,33.5074342,126.954269
엘쯔타운펜션,제주특별자치도 제주시 애월읍 유수암평화길 136,33.4362145,126.4054228
반디앤로제이,제주특별자치도 제주시 조천읍 조함해안로 142-40,33.5477266,126.6407724
성산포사랑펜션,제주특별자치도 서귀포시 성산읍 성산중앙로 30-4,33.4622982,126.9329625
퀸스베이펜션,"제주특별자치도 제주시 애월읍 신엄안2길 54 2, 3층",33.4770905,126.3699554
꿈꾸는제주펜션,제주특별자치도 서귀포시 남원읍 태위로894번길 32,33.2834497,126.7422384
비긴어게인펜션,제주특별자치도 제주시 구좌읍 월정3길 5-1,33.5526604,126.7914708
제주풀스테이 소랑제,제주특별자치도 서귀포시 안덕면 소기왓로 81,33.2415837,126.3680084
제주하늘키즈펜션,제주특별자치도 제주시 계명2길 17,33.488848,126.4239668
비양펜션,제주특별자치도 제주시 한림읍 옹포3길 25-2,33.4053831,126.2520877
제주다시,제주특별자치도 제주시 한림읍 금능길 4,33.3881374,126.2294884
느링느링스테이,제주특별자치도 서귀포시 성산읍 남산봉로 83-82,33.3627942,126.8319561
채송화펜션,제주특별자치도 제주시 한경면 판포1길 21,33.3650442,126.1973317
성산스타펜션,제주특별자치도 서귀포시 성산읍 성산중앙로64번길 5-1,33.464629,126.9356029
이디오라게펜션,제주특별자치도 서귀포시 예래로 411,33.2451213,126.3852784
채우리네펜션,제주특별자치도 서귀포시 검은여로 67,33.2563824,126.5857615
제주키즈풀빌라 나무와아이,제주특별자치도 제주시 조천읍 비자림로 699-53 전체,33.4319106,126.696186
글라글라펜션,제주특별자치도 서귀포시 중산간서로594번길 39,33.2651754,126.451766
버닝레스트,제주특별자치도 제주시 애월읍 애월해안로 852,33.4782235,126.3665625
달1037,제주특별자치도 서귀포시 성산읍 중산간동로 4204-12,33.4119114,126.8416603
제주통나무휴양펜션,제주특별자치도 서귀포시 표선면 번영로 3328,33.3510659,126.82385
제주도유,제주특별자치도 제주시 조천읍 신촌10길 40,33.5325288,126.6261615
라메종베니인제주펜션,제주특별자치도 서귀포시 성산읍 신양로122번길 10-6,33.4358498,126.922128
안녕바다야,제주특별자치도 제주시 애월읍 하귀12길 39,33.4871453,126.4093484
푸른제주,제주특별자치도 서귀포시 성산읍 한도로 256,33.4658976,126.9345492
물고기펜션,제주특별자치도 제주시 조천읍 조함해안로 48-1,33.5412634,126.6371882
노을이야기,제주특별자치도 제주시 애월읍 애월해안로 352,33.4782235,126.3665625
제주터닝포인트펜션,제주특별자치도 서귀포시 성산읍 일주동로 5199-11,33.3737817,126.8727479
뉴그린펜션&모텔,제주특별자치도 서귀포시 표선면 표선백사로 119,33.326104,126.8365594
네모펜션,제주특별자치도 서귀포시 호근북로 93,33.2691476,126.5306795
라벤더스호텔앤리조트,제주특별자치도 서귀포시 색달중앙로252번길 50,33.2813719,126.4163764
마루호텔앤카페,제주특별자치도 서귀포시 안덕면 평화로 486,33.3195978,126.342428
힐호텔,제주특별자치도 제주시 애월읍 하소로 507,33.4549698,126.396056
노벨리조트,제주특별자치도 제주시 서해안로 122,33.5023858,126.4623921
C&P리조트,제주특별자치도 서귀포시 성산읍 중산간동로 4328-63,33.390235,126.8307766
두모리에 리조트,제주특별자치도 제주시 한경면 두모11길 52-1,33.3572224,126.1827323
라벤더스호텔앤리조트,제주특별자치도 서귀포시 색달중앙로252번길 50,33.2813719,126.4163764
뷰티플리조트,제주특별자치도 서귀포시 이어도로253번길 2,33.2437471,126.4467566
길리리조트,제주특별자치도 제주시 한림읍 명재로 100-47,33.3906913,126.2605282
대웅황토리조트,제주특별자치도 제주시 애월읍 번드르길 27,33.4809248,126.387902
더시크릿서귀포리조트&빌라,제주특별자치도 서귀포시 대정읍 노을해안로 216-6,33.2568116,126.1997011
섬풍경펜션,제주특별자치도 제주시 한경면 노을해안로 1203-1,33.3071297,126.1684779