place,address,Latitude,Longitude
휘닉스제주,제주특별자치도 서귀포시 성산읍 섭지코지로 107,33.4305782,126.9277688
한화리조트 제주,제주특별자치도 제주시 명림로 575-107,33.4484669,126.6380972
소노벨제주 신관,제주특별자치도 제주시 조천읍 신북로 577,33.5412863,126.6714847
켄싱턴리조트 제주중문,제주특별자치도 서귀포시 중문관광로72번길 29-29,33.2475912,126.4125373
더큐브리조트 제주,제주특별자치도 서귀포시 솔오름로105번길 24,33.3007625,126.5543432
아이브리조트,제주특별자치도 서귀포시 산록남로 1966-34,33.3017887,126.5095926
롯데리조트제주 아트빌라스,제주특별자치도 서귀포시 색달중앙로252번길 124,33.2812324,126.4158092
와이리조트 제주,제주특별자치도 서귀포시 안덕면 화순중앙로124번길 75,33.241649,126.3336643
베이힐풀앤빌라,제주특별자치도 서귀포시 예래로 424,33.2451213,126.3852784
MJ리조트,제주특별자치도 제주시 구좌읍 해맞이해안로 1651,33.5291668,126.8538817
씨사이드아덴리조트,제주특별자치도 서귀포시 중문관광로 124,33.2487954,126.4198849
담앤루,제주특별자치도 서귀포시 이어도로343번길 63,33.2453084,126.4512913
올레리조트,제주특별자치도 제주시 애월읍 부룡수길 33,33.4756942,126.3558489
오션스퀘어,제주특별자치도 서귀포시 성산읍 환해장성로 667,33.4121987,126.9047711
취다선리조트,제주특별자치도 서귀포시 성산읍 해맞이해안로 2688,33.4758294,126.9099122
그림리조트,제주특별자치도 제주시 서해안로 620-1,33.516304,126.5036099
라헨느리조트,제주특별자치도 제주시 명림로 374,33.454163,126.6144026
로긴리조트,제주특별자치도 제주시 서해안로 442-11,33.5173051,126.4876813
애월스테이인제주,제주특별자치도 제주시 애월읍 애월해안로 708,33.4828868,126.3773285
썬앤문리조트,제주특별자치도 서귀포시 안덕면 사계남로 102,33.230173,126.3018116
클럽이에스 제주리조트,제주특별자치도 서귀포시 1100로 501,33.2763665,126.4476633
제주리조트,제주특별자치도 제주시 애월읍 가문동상4길 11,33.4846961,126.3876815
젠하이드어웨이,제주특별자치도 서귀포시 안덕면 사계남로 186-8,33.2292312,126.3086165
돈내코힐스파리조트,제주특별자치도 서귀포시 돈내코로 180,33.3053883,126.5774568
서귀포월드컵리조트,제주특별자치도 서귀포시 월드컵로45번길 40,33.2443564,126.5110873
벨룸리조트,제주특별자치도 서귀포시 516로277번길 45 1층,33.2812754,126.5784104
더베이제주리조트,제주특별자치도 서귀포시 문필로35번길 46,33.2407806,126.5956557
라온프라이빗타운,제주특별자치도 제주시 한림읍 금능남로 127,33.3760556,126.2441268
오투힐 제주점,제주특별자치도 제주시 구좌읍 해맞이해안로 1590-6 오투힐리조트,33.528084,126.873762
팜밸리리조트,제주특별자치도 서귀포시 중산간서로 193,33.2593949,126.4908125
루시드엠,제주특별자치도 서귀포시 안덕면 사계북로 120,33.2355381,126.2966466
물뜰에쉼팡리조트,제주특별자치도 제주시 한림읍 귀덕로 73,33.4175961,126.2998204
카이리조트,제주특별자치도 제주시 한림읍 협재2길 10,33.3917519,126.2419452
블라제리조트,제주특별자치도 서귀포시 표선면 녹산로 274,33.3792785,126.746889
봄그리고가을리조트,제주특별자치도 서귀포시 성산읍 해맞이해안로 2660,33.474087,126.9110984
메모리아리조트,제주특별자치도 서귀포시 성산읍 일주동로 5199-3,33.3737817,126.8727479
씨오르리조트,제주특별자치도 서귀포시 이어도로 989,33.2422008,126.5191098
파미유스파리조트,제주특별자치도 서귀포시 이어도로 826-6,33.2339546,126.5025264
엘리시안제주 콘도,제주특별자치도 제주시 애월읍 평화로 1738-116,33.3719462,126.3817449
돌과바람리조트,제주특별자치도 서귀포시 하신상로 166,33.2761847,126.6067488
중문리조트,제주특별자치도 서귀포시 색달로 117,33.2623241,126.4157951
하모니리조트,제주특별자치도 제주시 한림읍 협재로 213,33.3870114,126.24897
두빛나래리조트,제주특별자치도 서귀포시 안덕면 사계북로 109,33.2355381,126.2966466
제주바다목장 다이브리조트,제주특별자치도 제주시 한경면 한경해안로 565,33.3328723,126.1697983
더세리리조트,제주특별자치도 서귀포시 법환상로2번길 97-17,33.2468934,126.5119875
콤마앤리조트,제주특별자치도 서귀포시 안덕면 사계중앙로3번길 22,33.2297005,126.3018257
샤모니리조트,제주특별자치도 서귀포시 중산간서로 68,33.2862497,126.3077305
해밀리조트,제주특별자치도 제주시 애월읍 광상로 272 1~3층,33.4424202,126.3955874
오션갤러리 호텔앤리조트,제주특별자치도 서귀포시 성산읍 환해장성로 231,33.4121987,126.9047711
오크라리조트,제주특별자치도 서귀포시 표선면 번영로 3189,33.3726822,126.7971235
캐슬렉스제주골프클럽 골프텔,제주특별자치도 서귀포시 안덕면 평화로 1241,33.3386094,126.3486899
제주애월리조트,제주특별자치도 제주시 애월읍 광령평화2길 116-20,33.4346171,126.4329974
나르샤리조트,제주특별자치도 서귀포시 안덕면 사계북로 52,33.2355381,126.2966466
브릭216,제주특별자치도 서귀포시 이어도로 216,33.240469,126.493008
바다스케치,제주특별자치도 서귀포시 안덕면 사계남로216번길 52,33.2349991,126.3099849
훈데르트힐즈,제주특별자치도 제주시 우도면 우도해안길 32-24,33.5074342,126.954269
스프링힐,제주특별자치도 서귀포시 천제연로 292,33.2509432,126.4374398
스완지리조트,제주특별자치도 제주시 서해안로 84,33.5110314,126.4802212
썬비치리조트,제주특별자치도 제주시 서해안로 114,33.5110314,126.4802212
고투베드리조트,제주특별자치도 서귀포시 성산읍 서성일로 660,33.4268965,126.8647243
제주원리조트,제주특별자치도 서귀포시 성산읍 서성일로 726-33,33.4277138,126.8614156
제주휴리조트1,제주특별자치도 서귀포시 성산읍 난고로 228,33.4200962,126.8870067
오시록헌 PM,제주특별자치도 제주시 한림읍 금능5길 19-3,33.3893046,126.2266406
조이빌리조트,제주특별자치도 제주시 조천읍 와산남길 41,33.4835688,126.6769103
애월파라다이스,제주특별자치도 제주시 애월읍 하소로 557-10,33.4341788,126.3968703
사조리조트 제주지점,제주특별자치도 제주시 조천읍 일주동로 1616-7,33.5517805,126.7051569
송당송당펜션&리조트,제주특별자치도 제주시 구좌읍 비자림로 1220,33.467852,126.7724183
블루펄리조트,제주특별자치도 서귀포시 태평로92번길 35,33.2412,126.5319536
더시에나리조트 (2023년5월예정),제주특별자치도 서귀포시 강정동 3772-1,33.2645974,126.4846111
제주캐슬마운틴리조트,제주특별자치도 서귀포시 안덕면 산록남로 513-14,33.3380723,126.3630069
인피니티리조트,제주특별자치도 제주시 조천읍 조함해안로 376-9,33.5440366,126.6537771
벙커호텔앤리조트,제주특별자치도 서귀포시 중산간동로8183번길 16,33.2619641,126.5455687
벨라비타,제주특별자치도 서귀포시 일주서로 809,33.2583693,126.4239193
함덕리조텔,제주특별자치도 제주시 조천읍 조함해안로 514,33.5424913,126.667586