place,address,Latitude,Longitude
마레보비치호텔,제주특별자치도 제주시 애월읍 곽지1길 23,33.4482177,126.3039055
제주엘루이호텔,제주특별자치도 제주시 서광로21길 1,33.5001908,126.5218918
신신호텔 서귀포점,제주특별자치도 서귀포시 서귀동 486-1,33.2455472,126.5625707
코자호텔,제주특별자치도 서귀포시 대정읍 최남단해안로 44,33.2122848,126.2625612
아인스호스텔,제주특별자치도 서귀포시 태평로 432,33.2454258,126.566501
아라팰리스호텔,제주특별자치도 제주시 남성로26길 26,33.5071707,126.5237824
대동호텔,제주특별자치도 제주시 관덕로15길 6,33.5138044,126.5272635
시티홀호텔,제주특별자치도 제주시 동광로4길 9-4,33.5008332,126.5316414
오라스테이,제주특별자치도 제주시 무근성길 44,33.5142867,126.5199978
아루미호텔 협재점,제주특별자치도 제주시 한림읍 한림로 545,33.4063694,126.2564471
호텔G,제주특별자치도 제주시 남성로 117,33.5090013,126.51793
성산아쿠아비치호텔,제주특별자치도 서귀포시 성산읍 일주동로 4258,33.4483373,126.9119979
메종드씨엘하버39 호텔앤리조트,제주특별자치도 서귀포시 천지연로 39,33.2423238,126.5622458
제주R호텔,제주특별자치도 제주시 서광로14길 5,33.4994236,126.5179716
트루엘레지던스,제주특별자치도 서귀포시 서귀동 486-1,33.2455472,126.5625707
마로호스텔,제주특별자치도 제주시 동광로21길 5,33.5097655,126.5422917
노형호텔,제주특별자치도 제주시 수덕1길 7,33.4861711,126.4777358
호텔DK,제주특별자치도 서귀포시 중앙로54번길 12,33.2496807,126.5634895
베누스무인텔,제주특별자치도 제주시 애월읍 유수암평화5길 92,33.424382,126.4051687
메이플호텔,제주특별자치도 제주시 원노형3길 41,33.4865192,126.4817631
호텔탑아일랜드,제주특별자치도 제주시 용남1길 47,33.5050015,126.5129304
르네상스호텔,제주특별자치도 제주시 서사로14길 1,33.5034197,126.5195135
바다해호텔,제주특별자치도 서귀포시 천지연로 3-1,33.2413301,126.5655131
신세계호텔,제주특별자치도 서귀포시 중앙로 2-2,33.2447039,126.562385
늘송파크텔,제주특별자치도 제주시 원노형5길 22,33.4875634,126.483248
호텔랑주,제주특별자치도 서귀포시 김정문화로27번길 23-3,33.2539331,126.5082261
에메랄드호텔에이스,제주특별자치도 제주시 오복5길 4,33.4974151,126.5366502
골든파크호텔,제주특별자치도 제주시 서광로2길 9,33.4992347,126.5130474
헤라무인텔,제주특별자치도 제주시 애월읍 평화로 2820-67,33.4566025,126.4445171
제주올레호텔,제주특별자치도 제주시 삼무로5길 8,33.4902565,126.492014
성산호텔,제주특별자치도 서귀포시 성산읍 성산등용로 8,33.4647524,126.9336962
이채호텔,제주특별자치도 제주시 은남1길 3,33.4889958,126.495431
스마트무인텔,제주특별자치도 서귀포시 안덕면 중산간서로 1913-58,33.2862497,126.3077305
모나코모텔,제주특별자치도 제주시 제원1길 1,33.4891942,126.4892128
제주스위트호텔,제주특별자치도 제주시 삼무로3길 9,33.4901961,126.494939
오케이모텔,제주특별자치도 제주시 서광로2길 25,33.4984832,126.513453
뷰무인텔,제주특별자치도 제주시 애월읍 평화로 2841,33.4099645,126.3988615
라임모텔,제주특별자치도 제주시 서광로25길 4-3,33.5003275,126.5242881
꿈의바다,제주특별자치도 제주시 애월읍 신엄9길 65-11,33.4769528,126.3659334
진모텔,제주특별자치도 서귀포시 중앙로47번길 7-1,33.2485234,126.560774
풀하우스호텔,제주특별자치도 제주시 서광로25길 4,33.5003275,126.5242881
초이호스텔제주,제주특별자치도 서귀포시 태평로335번길 11-1,33.246995,126.5585844
남산모텔,제주특별자치도 제주시 서광로2길 5-6,33.499347,126.5136082
타기모텔,제주특별자치도 제주시 중앙로5길 12,33.515181,126.5259712
호텔버킹검,제주특별자치도 제주시 삼무로9길 39,33.4901971,126.4948013
호호네미니호텔,제주특별자치도 제주시 중앙로2길 11,33.5166608,126.5236503
찰리호텔,제주특별자치도 제주시 서사로 128,33.5009447,126.5196492
기린모텔,제주특별자치도 제주시 산지로 1-4,33.5162077,126.5310362
휴모텔,제주특별자치도 제주시 서광로25길 8,33.5006331,126.5242066
이아호텔,제주특별자치도 서귀포시 중정로 36,33.2473206,126.5603045
호텔더레드,제주특별자치도 제주시 동광로6길 10,33.5010293,126.5319039
벨라유나,제주특별자치도 제주시 조천읍 신북로 621,33.5404303,126.6758249
소담여관,제주특별자치도 제주시 한림읍 한림로19길 7,33.4170974,126.2640773
호텔더단잠,제주특별자치도 제주시 은남3길 46,33.4875307,126.4911321
스타성모텔,제주특별자치도 서귀포시 중앙로71번길 15-4,33.2502396,126.5597995
한라모텔,제주특별자치도 제주시 한림읍 한림로3길 10-9,33.4138257,126.260539
글로벌모텔,제주특별자치도 제주시 중앙로1길 14-1,33.5161465,126.5262626
호텔모닝캄,제주특별자치도 제주시 원노형2길 21,33.4843849,126.4812215
휴 무인텔,제주특별자치도 제주시 애월읍 평화로 2519,33.4099645,126.3988615
사쿠라호텔,제주특별자치도 제주시 원노형6길 18,33.4846325,126.4827353
서사라호텔,제주특별자치도 제주시 서사로 99,33.5034493,126.5201759
록산모텔,제주특별자치도 서귀포시 중앙로47번길 11,33.2484585,126.5604693
쌈지모텔,제주특별자치도 제주시 서사로4길 15-1,33.5095659,126.5186996
한울드라이브인호텔,제주특별자치도 제주시 애월읍 하광로 540-12,33.4437888,126.4311474
프린스장모텔,제주특별자치도 서귀포시 성산읍 동류암로36번길 2,33.4493406,126.9169157
비양도모텔,제주특별자치도 제주시 한림읍 한림해안로 134,33.4147539,126.2612805
탑모텔,제주특별자치도 제주시 중앙로8길 5,33.5147135,126.5241892
캐피탈모텔,제주특별자치도 제주시 서광로2길 11-11,33.4991344,126.5139272
제주영성모텔,제주특별자치도 제주시 동문로10길 1,33.5129142,126.5314847
제주산올레모텔,제주특별자치도 제주시 서광로3길 1,33.5004374,126.5133432
사모아,제주특별자치도 제주시 임항로 16,33.5163165,126.5266128
해마루모텔,제주특별자치도 제주시 서광로 159,33.5003034,126.5136016
남강여관,제주특별자치도 서귀포시 대정읍 최남단해안로 5,33.2200086,126.2524265
모슬포2호텔,제주특별자치도 서귀포시 대정읍 최남단해안로30번길 13,33.2178071,126.2521152
월정여관,제주특별자치도 제주시 구좌읍 월정1길 66-3,33.5566189,126.7943028
글로리스테이,"제주특별자치도 제주시 서광로2길 11-1 2,3층",33.4991707,126.5132701
오렌지,제주특별자치도 제주시 광양2길 1,33.5008387,126.5277726
별관모텔,제주특별자치도 제주시 동문로 139,33.5137914,126.5413287
셀라모텔,제주특별자치도 서귀포시 솔동산로 9-3,33.244043,126.5645718
조아모텔,제주특별자치도 제주시 서광로2길 11-4,33.4987677,126.5131942
한두모텔,제주특별자치도 서귀포시 태평로335번길 21,33.2470246,126.5594262
퀸호텔,제주특별자치도 서귀포시 태평로353번길 22-19,33.245764,126.5614373
모텔준,제주특별자치도 제주시 서광로26길 8-12,33.4993705,126.5237932
상하이호텔,제주특별자치도 제주시 은남1길 32,33.489413,126.4925929
송원모텔,제주특별자치도 서귀포시 천지로 31,33.2503601,126.5604724
만금장,제주특별자치도 제주시 중앙로15길 6,33.5104849,126.5246173
미미여관,제주특별자치도 서귀포시 중정로91번길 12-1,33.2495306,126.5657762
힐링하우스,제주특별자치도 제주시 홍랑길 4-6,33.5002541,126.5238783
나인하우스,제주특별자치도 제주시 연동6길 5 제주1번가 더테라스,33.4849875,126.4903586
브라보,제주특별자치도 제주시 산지로 19,33.5152109,126.5296226
수모텔,제주특별자치도 제주시 광양8길 15,33.4996363,126.5279501
폭포장모텔,제주특별자치도 서귀포시 천지연로21번길 10,33.2410436,126.5638097
만복모텔,제주특별자치도 제주시 남성로 129-9,33.5096572,126.5190984
대정모텔,제주특별자치도 서귀포시 대정읍 상모인성로 276,33.2471656,126.2775201
너랑나랑게스트하우스,제주특별자치도 서귀포시 안덕면 화순해안로 40,33.2428528,126.332101