place,address,Latitude,Longitude,category,k_means_cluster,인기지수
협재해수욕장,제주특별자치도 제주시 한림읍 한림로 329-10,33.3938461,126.2397141,관광지,0,0.4706930351707422
금능해수욕장,제주특별자치도 제주시 한림읍 금능길 119-10,33.391126,126.2363373,관광지,0,0.2937624662804597
용머리해안,제주특별자치도 서귀포시 안덕면 사계리,33.237032,126.3020597,관광지,0,0.3131978435621955
곽지해수욕장,제주특별자치도 제주시 애월읍 곽지리 1565,33.4507522,126.3056339,관광지,0,0.3140211033524123
중문색달해수욕장,제주특별자치도 서귀포시 색달동 3039,33.2814107,126.4111118,관광지,0,0.1145212876038833
새별오름,제주특별자치도 제주시 애월읍 봉성리 산 59-8,33.3689588,126.3505941,관광지,0,0.3642143672418554
산방산,제주특별자치도 서귀포시 안덕면 사계리 산 16,33.2426249,126.3137339,관광지,0,0.3409697081789947
마라도,제주특별자치도 서귀포시 대정읍 마라로101번길 46,33.1185369,126.2673483,관광지,0,0.2092243639339281
9.81파크,제주특별자치도 제주시 애월읍 천덕로 880-24,33.4353027,126.3219516,관광지,0,0.197815795807155
카멜리아힐,제주특별자치도 서귀포시 안덕면 병악로 166,33.2901143,126.3684044,관광지,0,0.4517378313402859
천제연폭포,제주특별자치도 서귀포시 천제연로 132 중문관광단지 내,33.2526783,126.4184383,관광지,0,0.2375565492459393
사계해변,제주특별자치도 서귀포시 안덕면 사계리,33.237032,126.3020597,관광지,0,0.1118062012093819
신창풍차해안도로,제주특별자치도 제주시 한경면 신창리 1322-1,33.3433767,126.1739996,관광지,0,0.3217770781891998
금오름,제주특별자치도 제주시 한림읍 금악리 산 1-1,33.355577,126.3056877,관광지,0,0.3484746666106495
한림공원,제주특별자치도 제주시 한림읍 한림로 300,33.3894949,126.2396825,관광지,0,0.2819333503297394
송악산,제주특별자치도 서귀포시 대정읍 상모리 산 2,33.1994088,126.2907797,관광지,0,0.3646121008597443
수월봉,제주특별자치도 제주시 한경면 고산리 3760,33.294755,126.1634484,관광지,0,0.2510495205381175
항파두리항몽유적지,제주특별자치도 제주시 애월읍 항파두리로 50,33.4521245,126.4074522,관광지,0,0.1336993974460945
애월해안도로,제주특별자치도 제주시 애월읍 신엄리 2719-3,33.4786484,126.3696874,관광지,0,0.3905528821967816
한담해안산책로,제주특별자치도 제주시 애월읍 곽지리 1359,33.45906,126.3105995,관광지,0,0.3058508632326978
비양도,제주특별자치도 제주시 한림읍 협재리,33.3807358,126.2482491,관광지,0,0.1781143580997582
제주곶자왈도립공원,제주특별자치도 서귀포시 대정읍 에듀시티로 178,33.279349,126.2763069,관광지,0,0.245213239685809
화조원,제주특별자치도 제주시 애월읍 납읍리 58,33.4113881,126.3717903,관광지,0,0.0407784453020219
한라산1100고지,제주특별자치도 서귀포시 색달동 산 1-2,33.2569808,126.3864531,관광지,0,0.1279742515012585
군산,제주특별자치도 서귀포시 안덕면 창천리 산 3-1,33.2515773,126.3681156,관광지,0,0.5636839351125067
가파도,제주특별자치도 서귀포시 대정읍 가파리 276,33.1697902,126.2713039,관광지,0,0.2351701162788328
논짓물해변,제주특별자치도 서귀포시 하예동,33.240031,126.3803208,관광지,0,0.0826898552142595
제주불빛정원,제주특별자치도 제주시 애월읍 평화로 2346,33.4221679,126.4093068,관광지,0,0.1828268722129309
송악산둘레길,제주특별자치도 서귀포시 대정읍 상모리,33.2218976,126.2741296,관광지,0,0.3550121319684857
돌염전,제주특별자치도 제주시 애월읍 구엄리,33.4797356,126.3819332,관광지,0,0.1186945176230464
형제해안도로,"제주특별자치도 서귀포시 안덕면 사계리 (군도14호선, 상모사계선)",33.2395779,126.2999173,관광지,0,0.1132059217060438
파더스가든,제주특별자치도 서귀포시 안덕면 병악로 44-33,33.2805107,126.3655186,관광지,0,0.0178424198772152
월령선인장군락지,제주특별자치도 제주시 한림읍 월령리 359-4,33.3778628,126.2154709,관광지,0,0.2585103867506825
소인국테마파크,제주특별자치도 서귀포시 안덕면 중산간서로 1878,33.2904213,126.322602,관광지,0,0.1522652643744605
제주중문관광단지,제주특별자치도 서귀포시 중문동 2624-1,33.2457545,126.4205964,관광지,0,0.1213066895764663
안덕계곡,제주특별자치도 서귀포시 안덕면 감산리 1946,33.2563654,126.3518369,관광지,0,0.0768120565236407
저지오름,제주특별자치도 제주시 한경면 저지리 산 51,33.3330097,126.2509518,관광지,0,0.2238812847589172
박수기정,제주특별자치도 서귀포시 안덕면 감산리,33.2484955,126.3509503,관광지,0,0.1920103570992887
액티브파크,제주특별자치도 제주시 한림읍 금능남로 76,33.3683483,126.2446125,관광지,0,0.2429217385436729
엉덩물계곡,제주특별자치도 서귀포시 색달동 3384-4,33.2814107,126.4111118,관광지,0,0.1308656042670962
곶자왈,제주특별자치도 서귀포시 대정읍 에듀시티로 178,33.279349,126.2763069,관광지,0,0.1025078671376165
수월봉전망대,제주특별자치도 제주시 한경면 고산리 3760,33.294755,126.1634484,관광지,0,0.1414351694957981
산양큰엉곶,제주특별자치도 제주시 한경면 청수리 956-6,33.2908356,126.2501278,관광지,0,0.1175315793186739
알뜨르비행장,제주특별자치도 서귀포시 대정읍 상모리 1670,33.2046641,126.2727667,관광지,0,0.2564800279085993
상가리야자숲,제주특별자치도 제주시 애월읍 상가리 536,33.4391766,126.3583243,관광지,0,0.0526151225828578
신창풍차해안,제주특별자치도 제주시 한경면 신창리 1290-2,33.3452325,126.1775914,관광지,0,0.2600235932319245
수월봉지질트레일,제주특별자치도 제주시 한경면 고산리 3760,33.294755,126.1634484,관광지,0,0.0925518925518925
수산봉,제주특별자치도 제주시 애월읍 수산리 산 1-1,33.4737592,126.3846826,관광지,0,0.1172654839853925
방림원,제주특별자치도 제주시 한경면 용금로 864,33.3370712,126.2687794,관광지,0,0.1975728716843682
큰노꼬메오름,제주특별자치도 제주시 애월읍 유수암리 산 138,33.3923111,126.4152399,관광지,0,0.3279525556517743
신화워터파크,제주특별자치도 서귀포시 안덕면 신화역사로304번길 38,33.3066927,126.3380858,관광지,0,0.1014594083668549
엉알해안,제주특별자치도 제주시 한경면 고산리,33.3040691,126.1881455,관광지,0,0.2526136282646638
문도지오름,제주특별자치도 제주시 한림읍 금악리 3445,33.3266713,126.295129,관광지,0,0.2684145404151569
차귀도,제주특별자치도 제주시 한경면 고산리 125,33.3010997,126.2056913,관광지,0,0.2578083405273277
새별프렌즈,제주특별자치도 제주시 애월읍 평화로 1529,33.3628158,126.3633602,관광지,0,0.1693829578240824
금능석물원,제주특별자치도 제주시 한림읍 한림로 176,33.384592,126.2268717,관광지,0,0.234014942762859
당산봉,제주특별자치도 제주시 한경면 용수리 산 28,33.3082191,126.1729076,관광지,0,0.3014994096971589
저지예술인마을,제주특별자치도 제주시 한경면 저지14길 28-4,33.3393046,126.266731,관광지,0,0.1144181441533756
추사유배지,제주특별자치도 서귀포시 대정읍 추사로 44,33.249837,126.2786308,관광지,0,0.1146282689553824
도구리알,제주특별자치도 서귀포시 대정읍,33.2268151,126.2522254,관광지,0,0.318029159986371
월평마을아왜낭목쉼터,제주특별자치도 서귀포시 월평동 738,33.2434851,126.4585916,관광지,0,0.2227482022475157
정물오름,제주특별자치도 제주시 한림읍 금악리 산 52-1,33.3376384,126.330349,관광지,0,0.1920302340929933
송악산전망대,제주특별자치도 서귀포시 대정읍 상모리 산 2-13,33.1984435,126.2938879,관광지,0,0.3226833451144963
산방산랜드,제주특별자치도 서귀포시 안덕면 사계리 117-2,33.2340862,126.3117458,관광지,0,0.2745526451152697
화순곶자왈생태탐방숲길,제주특별자치도 서귀포시 안덕면 화순리,33.2522985,126.3330875,관광지,0,0.0725518377156593
한림공원협재굴,제주특별자치도 제주시 한림읍 협재리,33.3807358,126.2482491,관광지,0,0.1385661957090528
갯깍주상절리대,제주특별자치도 서귀포시 색달동,33.2814107,126.4111118,관광지,0,0.0693941986253551
천주교용수성지,제주특별자치도 제주시 한경면 용수1길 108,33.3227927,126.1677958,관광지,0,0.2677132391418106
큰바리메,제주특별자치도 제주시 애월읍 어음리 산 21,33.3783196,126.3875801,관광지,0,0.185103785103785
생이기정,제주특별자치도 제주시 한경면 용수리,33.3227424,126.1818541,관광지,0,0.3180986933819308
고스트타운,제주특별자치도 제주시 애월읍 부룡수길 35-14,33.4749472,126.3553798,관광지,0,0.07627399744858
화순곶자왈,제주특별자치도 서귀포시 안덕면 화순리,33.2522985,126.3330875,관광지,0,0.0917877290371801
애월돌고래전망대,제주특별자치도 제주시 애월읍 신엄리 2731,33.4785983,126.3635626,관광지,0,0.0674583304923282
베릿내오름,제주특별자치도 서귀포시 중문동 3712,33.2514303,126.4348243,관광지,0,0.0287110990684281
쉬리의언덕,제주특별자치도 서귀포시 색달동 3039-41,33.2814107,126.4111118,관광지,0,0.1597223707294486
수산저수지,제주특별자치도 제주시 애월읍 수산리,33.4629834,126.3888949,관광지,0,0.3348055242684657
제주커피수목원,제주특별자치도 서귀포시 안덕면 사계리 3136,33.2385352,126.2873322,관광지,0,0.2104894716441675
트로이테마농원,제주특별자치도 서귀포시 안덕면 녹차분재로 56,33.2923161,126.2996588,관광지,0,0.1690094286494848
한림공원아열대식물원,제주특별자치도 제주시 한림읍 한림로 300,33.3894949,126.2396825,관광지,0,0.1576510575700996
제주탐나라공화국,제주특별자치도 제주시 한림읍 한창로 897,33.3497668,126.3055719,관광지,0,0.1039358122033918
1100고지습지람사르습지,제주특별자치도 서귀포시 색달동 산 1-1,33.2569808,126.3864531,관광지,0,0.2094191522762953
단산,제주특별자치도 서귀포시 대정읍 인성리 21-2,33.2423313,126.2869083,관광지,0,0.2283654473873432
느지리오름,제주특별자치도 제주시 한림읍 상명리 산 5,33.3653429,126.2613767,관광지,0,0.1369801652836677
섯알오름,제주특별자치도 서귀포시 대정읍 상모리 1593-2,33.2065743,126.281281,관광지,0,0.1352062173859736
산양곶자왈,제주특별자치도 제주시 한경면 청수리 6,33.3188801,126.2615687,관광지,0,0.1393899718367682
비블리아성서식물원,제주특별자치도 제주시 한림읍 조성로 17,33.352739,126.2776266,관광지,0,0.2933408761546712
어음리억새군락지,제주특별자치도 제주시 애월읍 어음리 산 68-5,33.3800321,126.367823,관광지,0,0.1789292396123254
루나폴,제주특별자치도 서귀포시 안덕면 일주서로 1836,33.256807,126.321633,관광지,0,0.3347403438501537
영락리방파제,제주특별자치도 서귀포시 대정읍 무릉리 3783-3,33.270264,126.2004199,관광지,0,0.3365132892128541
과물노천탕,제주특별자치도 제주시 애월읍 곽지리 1566,33.4499354,126.3041839,관광지,0,0.1604053770169509
거린사슴전망대,제주특별자치도 서귀포시 1100로 823,33.3073168,126.4548441,관광지,0,0.225857176211978
다락쉼터인증센터,제주특별자치도 제주시 애월읍 고내리 462,33.4699842,126.3403826,관광지,0,0.111691977061229
황우치해변,제주특별자치도 서귀포시 안덕면 사계리 79-4,33.2390556,126.3170618,관광지,0,0.1161478140956818
라온쥬,제주특별자치도 제주시 한림읍 월림리 2365 더마파크 내,33.3542436,126.243167,관광지,0,0.2707852907673108
왕이메,제주특별자치도 서귀포시 안덕면 광평리 산 79,33.340233,126.374785,관광지,0,0.1824998126841369
아라고나이트고온천,제주특별자치도 서귀포시 안덕면 산록남로762번길 71 디아넥스 1층,33.3057651,126.3888509,관광지,0,0.1888581748593575
송악산진지동굴,제주특별자치도 서귀포시 대정읍 상모리,33.2218976,126.2741296,관광지,0,0.2269952707335564
송악산인증센터,제주특별자치도 서귀포시 대정읍 상모리 157-2,33.2067186,126.2895952,관광지,0,0.0682944418153936
선인장자생지,제주특별자치도 제주시 한림읍 월령리,33.3699811,126.2246483,관광지,0,0.2984233689520084
수산봉둘레길,제주특별자치도 제주시 애월읍 구엄리,33.4797356,126.3819332,관광지,0,0.3333333333333333
제주모슬포알뜨르비행장일제지하벙커,제주특별자치도 서귀포시 대정읍 상모리 1670,33.2046641,126.2727667,관광지,0,0.0941217512646083
새별오름관광타운,제주특별자치도 제주시 애월읍 평화로 1529,33.3628158,126.3633602,관광지,0,0.2227455084597942
제주올레16코스공식안내소,제주특별자치도 제주시 애월읍 고내리 1103-1,33.4671246,126.3387774,관광지,0,0.3333333333333333
형제섬,제주특별자치도 서귀포시 안덕면 사계리 산 44,33.210003,126.3144328,관광지,0,0.3418947538926109
제주곶자왈도립공원탐방안내소,제주특별자치도 서귀포시 대정읍 에듀시티로 178,33.279349,126.2763069,관광지,0,0.2465375893947322
해거름마을공원인증센터,제주특별자치도 제주시 한경면 판포리 1608-4,33.3700163,126.206681,관광지,0,0.3333777808307372
대정향교,제주특별자치도 서귀포시 안덕면 향교로 165-17,33.2393513,126.2883891,관광지,0,0.2671899529042387
월라봉,제주특별자치도 서귀포시 안덕면 감산리 1144,33.2439695,126.3497832,관광지,0,0.206635183191827
열리해안도로,제주특별자치도 서귀포시 하예동,33.240031,126.3803208,관광지,0,0.0454950576011706
무병장수테마파크,제주특별자치도 제주시 애월읍 어음13길 196,33.3954527,126.3610827,관광지,0,0.2246760079946804
원물오름,제주특별자치도 서귀포시 안덕면 동광리 산 41,33.3226391,126.3456997,관광지,0,0.086202643036654
제주4.3안덕평화공원,제주특별자치도 서귀포시 안덕면 사계리 3630,33.2412295,126.3223524,관광지,0,0.0454910169195884
신화가든,제주특별자치도 서귀포시 안덕면 서광리 산 24-8,33.3017501,126.3206458,관광지,0,0.1115256339311856
모슬봉,제주특별자치도 서귀포시 대정읍 동일리 2081-3,33.2400794,126.2581715,관광지,0,0.1120343893778137
제주향농원,제주특별자치도 서귀포시 일주서로 661,33.2584326,126.4353135,관광지,0,0.2507166570761525
족은노꼬메오름,제주특별자치도 제주시 애월읍 유수암리 산 138,33.3923111,126.4152399,관광지,0,0.1360518839831349
정난주마리아묘,제주특별자치도 서귀포시 대정읍 동일리 10-1,33.2544822,126.2607808,관광지,0,0.3333644802538625
제주올레14코스공식안내소,제주특별자치도 제주시 한경면 저지리 1843-4,33.3337472,126.2562749,관광지,0,0.3338566195709052
개다리폭포,제주특별자치도 서귀포시 색달동 3101-1,33.2814107,126.4111118,관광지,0,0.1126816432707573
중엄새물,제주특별자치도 제주시 애월읍 신엄리,33.4663359,126.3688876,관광지,0,0.1116621770345605
